<?xml version="1.0" encoding="UTF-8"?>
<!-- track-length = 4528 filtered ascend = 11 plain-ascend = -353 cost=4645 energy=0.0kwh time=56m 50s -->
<gpx 
 xmlns="http://www.topografix.com/GPX/1/1" 
 xmlns:xsi="http://www.w3.org/2001/XMLSchema-instance" 
 xsi:schemaLocation="http://www.topografix.com/GPX/1/1 http://www.topografix.com/GPX/1/1/gpx.xsd" 
 version="1.1" 
 creator="BRouter-Web 0.18.1">
 <trk>
  <name>cataracttrail</name>
  <trkseg>
   <trkpt lat="37.910761" lon="-122.612747"><ele>610</ele></trkpt>
   <trkpt lat="37.910772" lon="-122.612703"><ele>610</ele></trkpt>
   <trkpt lat="37.910886" lon="-122.612787"><ele>610.75</ele></trkpt>
   <trkpt lat="37.911163" lon="-122.612912"><ele>609.75</ele></trkpt>
   <trkpt lat="37.911476" lon="-122.613085"><ele>608.25</ele></trkpt>
   <trkpt lat="37.911675" lon="-122.613255"><ele>607</ele></trkpt>
   <trkpt lat="37.911778" lon="-122.613387"><ele>607.25</ele></trkpt>
   <trkpt lat="37.91181" lon="-122.613459"><ele>607</ele></trkpt>
   <trkpt lat="37.911836" lon="-122.613647"><ele>606.25</ele></trkpt>
   <trkpt lat="37.911817" lon="-122.613964"><ele>604.25</ele></trkpt>
   <trkpt lat="37.911773" lon="-122.614079"><ele>603.5</ele></trkpt>
   <trkpt lat="37.911701" lon="-122.614197"><ele>603</ele></trkpt>
   <trkpt lat="37.911572" lon="-122.614304"><ele>603.25</ele></trkpt>
   <trkpt lat="37.911493" lon="-122.614388"><ele>603.25</ele></trkpt>
   <trkpt lat="37.911436" lon="-122.614511"><ele>602.75</ele></trkpt>
   <trkpt lat="37.911402" lon="-122.614763"><ele>601.25</ele></trkpt>
   <trkpt lat="37.911419" lon="-122.614983"><ele>599.75</ele></trkpt>
   <trkpt lat="37.91147" lon="-122.615059"><ele>600.25</ele></trkpt>
   <trkpt lat="37.911522" lon="-122.615167"><ele>601.25</ele></trkpt>
   <trkpt lat="37.911543" lon="-122.615345"><ele>602.5</ele></trkpt>
   <trkpt lat="37.911564" lon="-122.615363"><ele>602.5</ele></trkpt>
   <trkpt lat="37.911612" lon="-122.615393"><ele>602.75</ele></trkpt>
   <trkpt lat="37.911661" lon="-122.615455"><ele>603</ele></trkpt>
   <trkpt lat="37.911769" lon="-122.615645"><ele>602.75</ele></trkpt>
   <trkpt lat="37.911839" lon="-122.615766"><ele>602.75</ele></trkpt>
   <trkpt lat="37.912032" lon="-122.616071"><ele>602</ele></trkpt>
   <trkpt lat="37.91212" lon="-122.616129"><ele>600.75</ele></trkpt>
   <trkpt lat="37.912292" lon="-122.616147"><ele>598</ele></trkpt>
   <trkpt lat="37.912339" lon="-122.616186"><ele>597.25</ele></trkpt>
   <trkpt lat="37.912447" lon="-122.616369"><ele>595</ele></trkpt>
   <trkpt lat="37.912599" lon="-122.616543"><ele>594.75</ele></trkpt>
   <trkpt lat="37.912706" lon="-122.61676"><ele>595.5</ele></trkpt>
   <trkpt lat="37.912839" lon="-122.616898"><ele>597</ele></trkpt>
   <trkpt lat="37.912905" lon="-122.617031"><ele>597.25</ele></trkpt>
   <trkpt lat="37.912988" lon="-122.617134"><ele>597.25</ele></trkpt>
   <trkpt lat="37.913019" lon="-122.61724"><ele>596.75</ele></trkpt>
   <trkpt lat="37.913027" lon="-122.617322"><ele>596.5</ele></trkpt>
   <trkpt lat="37.913046" lon="-122.617376"><ele>596.25</ele></trkpt>
   <trkpt lat="37.913101" lon="-122.617531"><ele>595.25</ele></trkpt>
   <trkpt lat="37.913197" lon="-122.617685"><ele>595</ele></trkpt>
   <trkpt lat="37.913195" lon="-122.617915"><ele>595.5</ele></trkpt>
   <trkpt lat="37.913203" lon="-122.618049"><ele>595.75</ele></trkpt>
   <trkpt lat="37.91326" lon="-122.618212"><ele>595.5</ele></trkpt>
   <trkpt lat="37.913313" lon="-122.618306"><ele>595</ele></trkpt>
   <trkpt lat="37.913274" lon="-122.618384"><ele>596</ele></trkpt>
   <trkpt lat="37.91322" lon="-122.618499"><ele>597.75</ele></trkpt>
   <trkpt lat="37.913241" lon="-122.618569"><ele>598.25</ele></trkpt>
   <trkpt lat="37.913385" lon="-122.618768"><ele>599</ele></trkpt>
   <trkpt lat="37.913506" lon="-122.619127"><ele>600.75</ele></trkpt>
   <trkpt lat="37.913511" lon="-122.619175"><ele>601</ele></trkpt>
   <trkpt lat="37.913521" lon="-122.61925"><ele>601.5</ele></trkpt>
   <trkpt lat="37.913605" lon="-122.619328"><ele>601</ele></trkpt>
   <trkpt lat="37.913728" lon="-122.619537"><ele>600.75</ele></trkpt>
   <trkpt lat="37.913825" lon="-122.619677"><ele>599.75</ele></trkpt>
   <trkpt lat="37.913963" lon="-122.619811"><ele>597.75</ele></trkpt>
   <trkpt lat="37.914056" lon="-122.62005"><ele>596</ele></trkpt>
   <trkpt lat="37.914189" lon="-122.620467"><ele>590.5</ele></trkpt>
   <trkpt lat="37.91421" lon="-122.620731"><ele>588.25</ele></trkpt>
   <trkpt lat="37.914242" lon="-122.620825"><ele>587.25</ele></trkpt>
   <trkpt lat="37.914244" lon="-122.620887"><ele>586</ele></trkpt>
   <trkpt lat="37.914246" lon="-122.62094"><ele>586</ele></trkpt>
   <trkpt lat="37.914223" lon="-122.621094"><ele>585</ele></trkpt>
   <trkpt lat="37.914198" lon="-122.621627"><ele>580.5</ele></trkpt>
   <trkpt lat="37.914265" lon="-122.62182"><ele>580.75</ele></trkpt>
   <trkpt lat="37.914354" lon="-122.621938"><ele>581</ele></trkpt>
   <trkpt lat="37.914532" lon="-122.622072"><ele>580.5</ele></trkpt>
   <trkpt lat="37.914603" lon="-122.622142"><ele>581</ele></trkpt>
   <trkpt lat="37.914663" lon="-122.622201"><ele>581.5</ele></trkpt>
   <trkpt lat="37.91486" lon="-122.62233"><ele>582.5</ele></trkpt>
   <trkpt lat="37.914951" lon="-122.622344"><ele>582.25</ele></trkpt>
   <trkpt lat="37.91508" lon="-122.622333"><ele>581</ele></trkpt>
   <trkpt lat="37.915188" lon="-122.622383"><ele>581.5</ele></trkpt>
   <trkpt lat="37.915296" lon="-122.622465"><ele>582</ele></trkpt>
   <trkpt lat="37.915604" lon="-122.622651"><ele>582.75</ele></trkpt>
   <trkpt lat="37.915785" lon="-122.622743"><ele>582.75</ele></trkpt>
   <trkpt lat="37.91586" lon="-122.622721"><ele>581.75</ele></trkpt>
   <trkpt lat="37.915984" lon="-122.622694"><ele>581.5</ele></trkpt>
   <trkpt lat="37.916091" lon="-122.62269"><ele>581.5</ele></trkpt>
   <trkpt lat="37.916153" lon="-122.622702"><ele>582</ele></trkpt>
   <trkpt lat="37.916216" lon="-122.62276"><ele>582.5</ele></trkpt>
   <trkpt lat="37.916324" lon="-122.622889"><ele>583.25</ele></trkpt>
   <trkpt lat="37.916377" lon="-122.622889"><ele>583.25</ele></trkpt>
   <trkpt lat="37.916455" lon="-122.622855"><ele>582.75</ele></trkpt>
   <trkpt lat="37.916668" lon="-122.622889"><ele>582</ele></trkpt>
   <trkpt lat="37.916832" lon="-122.62302"><ele>581</ele></trkpt>
   <trkpt lat="37.916978" lon="-122.62322"><ele>579</ele></trkpt>
   <trkpt lat="37.917088" lon="-122.623296"><ele>577.75</ele></trkpt>
   <trkpt lat="37.917148" lon="-122.623301"><ele>577.25</ele></trkpt>
   <trkpt lat="37.917189" lon="-122.623378"><ele>576.75</ele></trkpt>
   <trkpt lat="37.917195" lon="-122.623531"><ele>576.5</ele></trkpt>
   <trkpt lat="37.917232" lon="-122.623683"><ele>576</ele></trkpt>
   <trkpt lat="37.917258" lon="-122.623873"><ele>575.75</ele></trkpt>
   <trkpt lat="37.917293" lon="-122.623969"><ele>575.25</ele></trkpt>
   <trkpt lat="37.917321" lon="-122.624004"><ele>575.25</ele></trkpt>
   <trkpt lat="37.917448" lon="-122.623991"><ele>574.5</ele></trkpt>
   <trkpt lat="37.9175" lon="-122.623968"><ele>574</ele></trkpt>
   <trkpt lat="37.917636" lon="-122.623994"><ele>573.5</ele></trkpt>
   <trkpt lat="37.917825" lon="-122.624115"><ele>572</ele></trkpt>
   <trkpt lat="37.918008" lon="-122.624125"><ele>570.75</ele></trkpt>
   <trkpt lat="37.91815" lon="-122.624246"><ele>569.75</ele></trkpt>
   <trkpt lat="37.918261" lon="-122.624356"><ele>569.5</ele></trkpt>
   <trkpt lat="37.918314" lon="-122.624439"><ele>569.25</ele></trkpt>
   <trkpt lat="37.918459" lon="-122.624511"><ele>567.5</ele></trkpt>
   <trkpt lat="37.918576" lon="-122.624625"><ele>566</ele></trkpt>
   <trkpt lat="37.918665" lon="-122.624646"><ele>564.75</ele></trkpt>
   <trkpt lat="37.918724" lon="-122.624736"><ele>563.5</ele></trkpt>
   <trkpt lat="37.918968" lon="-122.624979"><ele>558</ele></trkpt>
   <trkpt lat="37.919185" lon="-122.625146"><ele>554.75</ele></trkpt>
   <trkpt lat="37.919365" lon="-122.625158"><ele>553</ele></trkpt>
   <trkpt lat="37.919614" lon="-122.625209"><ele>550.5</ele></trkpt>
   <trkpt lat="37.920022" lon="-122.625391"><ele>546.5</ele></trkpt>
   <trkpt lat="37.920097" lon="-122.625407"><ele>547</ele></trkpt>
   <trkpt lat="37.920235" lon="-122.625435"><ele>547</ele></trkpt>
   <trkpt lat="37.920476" lon="-122.625537"><ele>547</ele></trkpt>
   <trkpt lat="37.920547" lon="-122.62555"><ele>547</ele></trkpt>
   <trkpt lat="37.92058" lon="-122.625569"><ele>547</ele></trkpt>
   <trkpt lat="37.920873" lon="-122.625905"><ele>543.5</ele></trkpt>
   <trkpt lat="37.920973" lon="-122.625955"><ele>543.25</ele></trkpt>
   <trkpt lat="37.92108" lon="-122.625976"><ele>543</ele></trkpt>
   <trkpt lat="37.921252" lon="-122.626046"><ele>542.5</ele></trkpt>
   <trkpt lat="37.921448" lon="-122.626162"><ele>541.5</ele></trkpt>
   <trkpt lat="37.921659" lon="-122.626228"><ele>540.5</ele></trkpt>
   <trkpt lat="37.921804" lon="-122.626228"><ele>540.75</ele></trkpt>
   <trkpt lat="37.921868" lon="-122.62619"><ele>541.25</ele></trkpt>
   <trkpt lat="37.921936" lon="-122.626095"><ele>542</ele></trkpt>
   <trkpt lat="37.921997" lon="-122.626035"><ele>542.75</ele></trkpt>
   <trkpt lat="37.922029" lon="-122.626017"><ele>543</ele></trkpt>
   <trkpt lat="37.922099" lon="-122.626034"><ele>543</ele></trkpt>
   <trkpt lat="37.922374" lon="-122.626457"><ele>539</ele></trkpt>
   <trkpt lat="37.922468" lon="-122.626522"><ele>538.5</ele></trkpt>
   <trkpt lat="37.922753" lon="-122.626569"><ele>539.5</ele></trkpt>
   <trkpt lat="37.923042" lon="-122.626554"><ele>541.25</ele></trkpt>
   <trkpt lat="37.923147" lon="-122.626586"><ele>541.25</ele></trkpt>
   <trkpt lat="37.923346" lon="-122.626696"><ele>541</ele></trkpt>
   <trkpt lat="37.923388" lon="-122.626766"><ele>541</ele></trkpt>
   <trkpt lat="37.923418" lon="-122.626952"><ele>541</ele></trkpt>
   <trkpt lat="37.923402" lon="-122.627423"><ele>539.75</ele></trkpt>
   <trkpt lat="37.923427" lon="-122.627785"><ele>543.75</ele></trkpt>
   <trkpt lat="37.923451" lon="-122.627919"><ele>545.5</ele></trkpt>
   <trkpt lat="37.923616" lon="-122.628273"><ele>548.75</ele></trkpt>
   <trkpt lat="37.923764" lon="-122.628383"><ele>547.5</ele></trkpt>
   <trkpt lat="37.923891" lon="-122.628448"><ele>545.25</ele></trkpt>
   <trkpt lat="37.924053" lon="-122.628561"><ele>541.5</ele></trkpt>
   <trkpt lat="37.924134" lon="-122.628627"><ele>539.25</ele></trkpt>
   <trkpt lat="37.924236" lon="-122.628778"><ele>536.5</ele></trkpt>
   <trkpt lat="37.924337" lon="-122.628912"><ele>534.75</ele></trkpt>
   <trkpt lat="37.924407" lon="-122.628989"><ele>533.75</ele></trkpt>
   <trkpt lat="37.924462" lon="-122.629027"><ele>533.25</ele></trkpt>
   <trkpt lat="37.924616" lon="-122.629083"><ele>533</ele></trkpt>
   <trkpt lat="37.924633" lon="-122.629089"><ele>533</ele></trkpt>
   <trkpt lat="37.924667" lon="-122.629137"><ele>532</ele></trkpt>
   <trkpt lat="37.92468" lon="-122.629193"><ele>530.75</ele></trkpt>
   <trkpt lat="37.924667" lon="-122.629467"><ele>525.75</ele></trkpt>
   <trkpt lat="37.924633" lon="-122.629531"><ele>524.5</ele></trkpt>
   <trkpt lat="37.924591" lon="-122.629529"><ele>524.25</ele></trkpt>
   <trkpt lat="37.924561" lon="-122.629496"><ele>524.5</ele></trkpt>
   <trkpt lat="37.924536" lon="-122.629427"><ele>525.75</ele></trkpt>
   <trkpt lat="37.924515" lon="-122.629325"><ele>527.5</ele></trkpt>
   <trkpt lat="37.924462" lon="-122.629287"><ele>528</ele></trkpt>
   <trkpt lat="37.924422" lon="-122.62929"><ele>527.75</ele></trkpt>
   <trkpt lat="37.924386" lon="-122.629311"><ele>527</ele></trkpt>
   <trkpt lat="37.92436" lon="-122.629349"><ele>526.25</ele></trkpt>
   <trkpt lat="37.924363" lon="-122.629574"><ele>521.75</ele></trkpt>
   <trkpt lat="37.924439" lon="-122.629808"><ele>517.75</ele></trkpt>
   <trkpt lat="37.924479" lon="-122.629856"><ele>517.25</ele></trkpt>
   <trkpt lat="37.924509" lon="-122.629931"><ele>516</ele></trkpt>
   <trkpt lat="37.924509" lon="-122.62999"><ele>515</ele></trkpt>
   <trkpt lat="37.924485" lon="-122.630046"><ele>513.75</ele></trkpt>
   <trkpt lat="37.924439" lon="-122.630127"><ele>512</ele></trkpt>
   <trkpt lat="37.924422" lon="-122.630253"><ele>509.75</ele></trkpt>
   <trkpt lat="37.924432" lon="-122.630357"><ele>508</ele></trkpt>
   <trkpt lat="37.924447" lon="-122.630416"><ele>507</ele></trkpt>
   <trkpt lat="37.924483" lon="-122.630508"><ele>505.25</ele></trkpt>
   <trkpt lat="37.924555" lon="-122.630628"><ele>503</ele></trkpt>
   <trkpt lat="37.924604" lon="-122.630744"><ele>500.5</ele></trkpt>
   <trkpt lat="37.924616" lon="-122.63083"><ele>498.75</ele></trkpt>
   <trkpt lat="37.924608" lon="-122.630878"><ele>497.75</ele></trkpt>
   <trkpt lat="37.924546" lon="-122.630931"><ele>497.25</ele></trkpt>
   <trkpt lat="37.924471" lon="-122.630953"><ele>497.5</ele></trkpt>
   <trkpt lat="37.924411" lon="-122.631033"><ele>496.75</ele></trkpt>
   <trkpt lat="37.924432" lon="-122.631162"><ele>494.5</ele></trkpt>
   <trkpt lat="37.924473" lon="-122.631283"><ele>492</ele></trkpt>
   <trkpt lat="37.924566" lon="-122.631412"><ele>488</ele></trkpt>
   <trkpt lat="37.924669" lon="-122.631516"><ele>483.75</ele></trkpt>
   <trkpt lat="37.92498" lon="-122.631747"><ele>471.75</ele></trkpt>
   <trkpt lat="37.92505" lon="-122.631814"><ele>471</ele></trkpt>
   <trkpt lat="37.925082" lon="-122.631862"><ele>471</ele></trkpt>
   <trkpt lat="37.925093" lon="-122.63194"><ele>470.25</ele></trkpt>
   <trkpt lat="37.925088" lon="-122.631985"><ele>469.75</ele></trkpt>
   <trkpt lat="37.925095" lon="-122.632063"><ele>469</ele></trkpt>
   <trkpt lat="37.925126" lon="-122.632155"><ele>468.25</ele></trkpt>
   <trkpt lat="37.925252" lon="-122.632378"><ele>466.25</ele></trkpt>
   <trkpt lat="37.925316" lon="-122.632738"><ele>462.75</ele></trkpt>
   <trkpt lat="37.92538" lon="-122.632954"><ele>460</ele></trkpt>
   <trkpt lat="37.925436" lon="-122.633073"><ele>457.75</ele></trkpt>
   <trkpt lat="37.925467" lon="-122.633252"><ele>454.75</ele></trkpt>
   <trkpt lat="37.925587" lon="-122.633479"><ele>451.25</ele></trkpt>
   <trkpt lat="37.925694" lon="-122.633492"><ele>448.25</ele></trkpt>
   <trkpt lat="37.925886" lon="-122.633623"><ele>443.25</ele></trkpt>
   <trkpt lat="37.925957" lon="-122.633636"><ele>442.25</ele></trkpt>
   <trkpt lat="37.926176" lon="-122.633631"><ele>438.5</ele></trkpt>
   <trkpt lat="37.926501" lon="-122.633588"><ele>432.75</ele></trkpt>
   <trkpt lat="37.926751" lon="-122.633525"><ele>428.5</ele></trkpt>
   <trkpt lat="37.926957" lon="-122.633442"><ele>425.75</ele></trkpt>
   <trkpt lat="37.927063" lon="-122.633423"><ele>424.25</ele></trkpt>
   <trkpt lat="37.927209" lon="-122.633422"><ele>422.75</ele></trkpt>
   <trkpt lat="37.927499" lon="-122.633456"><ele>420</ele></trkpt>
   <trkpt lat="37.927639" lon="-122.6335"><ele>420.25</ele></trkpt>
   <trkpt lat="37.927747" lon="-122.633495"><ele>420</ele></trkpt>
   <trkpt lat="37.927994" lon="-122.633416"><ele>419.25</ele></trkpt>
   <trkpt lat="37.928174" lon="-122.633336"><ele>419</ele></trkpt>
   <trkpt lat="37.928326" lon="-122.633419"><ele>419.25</ele></trkpt>
   <trkpt lat="37.928475" lon="-122.633541"><ele>419.25</ele></trkpt>
   <trkpt lat="37.928731" lon="-122.633726"><ele>417.5</ele></trkpt>
   <trkpt lat="37.928906" lon="-122.633783"><ele>416</ele></trkpt>
   <trkpt lat="37.928968" lon="-122.63383"><ele>415</ele></trkpt>
   <trkpt lat="37.929107" lon="-122.633874"><ele>413.25</ele></trkpt>
   <trkpt lat="37.929237" lon="-122.633952"><ele>411.25</ele></trkpt>
   <trkpt lat="37.92938" lon="-122.633933"><ele>410.5</ele></trkpt>
   <trkpt lat="37.929464" lon="-122.633947"><ele>409.75</ele></trkpt>
   <trkpt lat="37.9297" lon="-122.63395"><ele>408.25</ele></trkpt>
   <trkpt lat="37.9298" lon="-122.633891"><ele>409</ele></trkpt>
   <trkpt lat="37.929838" lon="-122.6339"><ele>408.5</ele></trkpt>
   <trkpt lat="37.929893" lon="-122.633982"><ele>406.25</ele></trkpt>
   <trkpt lat="37.929922" lon="-122.634019"><ele>403.75</ele></trkpt>
   <trkpt lat="37.929963" lon="-122.634067"><ele>403.75</ele></trkpt>
   <trkpt lat="37.930097" lon="-122.63425"><ele>400</ele></trkpt>
   <trkpt lat="37.930158" lon="-122.634346"><ele>399</ele></trkpt>
   <trkpt lat="37.930326" lon="-122.634592"><ele>393.75</ele></trkpt>
   <trkpt lat="37.930357" lon="-122.634615"><ele>392.75</ele></trkpt>
   <trkpt lat="37.930465" lon="-122.63462"><ele>389.5</ele></trkpt>
   <trkpt lat="37.930675" lon="-122.634689"><ele>381.75</ele></trkpt>
   <trkpt lat="37.930827" lon="-122.634812"><ele>373</ele></trkpt>
   <trkpt lat="37.93093" lon="-122.634857"><ele>368.25</ele></trkpt>
   <trkpt lat="37.930971" lon="-122.634988"><ele>363</ele></trkpt>
   <trkpt lat="37.931062" lon="-122.635026"><ele>360.25</ele></trkpt>
   <trkpt lat="37.931113" lon="-122.635085"><ele>359.5</ele></trkpt>
   <trkpt lat="37.931098" lon="-122.635133"><ele>360.5</ele></trkpt>
   <trkpt lat="37.93105" lon="-122.635214"><ele>363</ele></trkpt>
   <trkpt lat="37.931029" lon="-122.635258"><ele>364.25</ele></trkpt>
   <trkpt lat="37.931104" lon="-122.635318"><ele>362.25</ele></trkpt>
   <trkpt lat="37.931244" lon="-122.635336"><ele>357.25</ele></trkpt>
   <trkpt lat="37.931427" lon="-122.63545"><ele>350.75</ele></trkpt>
   <trkpt lat="37.931647" lon="-122.63564"><ele>342</ele></trkpt>
   <trkpt lat="37.931816" lon="-122.635873"><ele>332.5</ele></trkpt>
   <trkpt lat="37.931905" lon="-122.636038"><ele>330.75</ele></trkpt>
   <trkpt lat="37.931952" lon="-122.63608"><ele>329</ele></trkpt>
   <trkpt lat="37.931992" lon="-122.636073"><ele>326.75</ele></trkpt>
   <trkpt lat="37.931996" lon="-122.636001"><ele>324.75</ele></trkpt>
   <trkpt lat="37.931985" lon="-122.635802"><ele>321.75</ele></trkpt>
   <trkpt lat="37.931968" lon="-122.635727"><ele>323.25</ele></trkpt>
   <trkpt lat="37.931998" lon="-122.635695"><ele>321.75</ele></trkpt>
   <trkpt lat="37.932036" lon="-122.635695"><ele>319.5</ele></trkpt>
   <trkpt lat="37.932153" lon="-122.635738"><ele>312.25</ele></trkpt>
   <trkpt lat="37.932343" lon="-122.635711"><ele>301.25</ele></trkpt>
   <trkpt lat="37.932379" lon="-122.635754"><ele>298.5</ele></trkpt>
   <trkpt lat="37.932398" lon="-122.635818"><ele>296.25</ele></trkpt>
   <trkpt lat="37.932444" lon="-122.635899"><ele>295.75</ele></trkpt>
   <trkpt lat="37.93248" lon="-122.635928"><ele>294.75</ele></trkpt>
   <trkpt lat="37.932512" lon="-122.635926"><ele>293.25</ele></trkpt>
   <trkpt lat="37.932667" lon="-122.635837"><ele>287</ele></trkpt>
   <trkpt lat="37.932724" lon="-122.635847"><ele>286.25</ele></trkpt>
   <trkpt lat="37.932887" lon="-122.635875"><ele>284.5</ele></trkpt>
   <trkpt lat="37.933119" lon="-122.635942"><ele>282.5</ele></trkpt>
   <trkpt lat="37.933273" lon="-122.636011"><ele>281.75</ele></trkpt>
   <trkpt lat="37.933371" lon="-122.636025"><ele>280</ele></trkpt>
   <trkpt lat="37.933448" lon="-122.636017"><ele>277.75</ele></trkpt>
   <trkpt lat="37.933535" lon="-122.636021"><ele>275.5</ele></trkpt>
   <trkpt lat="37.933629" lon="-122.636063"><ele>274.5</ele></trkpt>
   <trkpt lat="37.933804" lon="-122.636107"><ele>271.25</ele></trkpt>
   <trkpt lat="37.934031" lon="-122.63618"><ele>265.75</ele></trkpt>
   <trkpt lat="37.934129" lon="-122.636211"><ele>265.75</ele></trkpt>
   <trkpt lat="37.934218" lon="-122.636228"><ele>264.25</ele></trkpt>
   <trkpt lat="37.934369" lon="-122.636228"><ele>261</ele></trkpt>
   <trkpt lat="37.934499" lon="-122.636204"><ele>257.75</ele></trkpt>
   <trkpt lat="37.934598" lon="-122.636267"><ele>257.25</ele></trkpt>
   <trkpt lat="37.934751" lon="-122.636339"><ele>255.25</ele></trkpt>
   <trkpt lat="37.934925" lon="-122.636403"><ele>252.25</ele></trkpt>
   <trkpt lat="37.934973" lon="-122.636462"><ele>251.75</ele></trkpt>
   <trkpt lat="37.935067" lon="-122.636621"><ele>252</ele></trkpt>
   <trkpt lat="37.935138" lon="-122.636766"><ele>253.5</ele></trkpt>
   <trkpt lat="37.935155" lon="-122.636843"><ele>255</ele></trkpt>
   <trkpt lat="37.935173" lon="-122.637"><ele>258.75</ele></trkpt>
   <trkpt lat="37.935197" lon="-122.637067"><ele>260</ele></trkpt>
   <trkpt lat="37.935259" lon="-122.637159"><ele>260.5</ele></trkpt>
   <trkpt lat="37.935538" lon="-122.63742"><ele>258</ele></trkpt>
   <trkpt lat="37.935558" lon="-122.637484"><ele>258.75</ele></trkpt>
   <trkpt lat="37.935551" lon="-122.637545"><ele>260.25</ele></trkpt>
   <trkpt lat="37.935535" lon="-122.637582"><ele>261.25</ele></trkpt>
   <trkpt lat="37.935536" lon="-122.637632"><ele>262.25</ele></trkpt>
   <trkpt lat="37.935571" lon="-122.637668"><ele>261.75</ele></trkpt>
   <trkpt lat="37.935611" lon="-122.637668"><ele>260.25</ele></trkpt>
   <trkpt lat="37.935686" lon="-122.637666"><ele>258</ele></trkpt>
   <trkpt lat="37.935876" lon="-122.637555"><ele>250</ele></trkpt>
   <trkpt lat="37.936063" lon="-122.637409"><ele>243.75</ele></trkpt>
   <trkpt lat="37.936301" lon="-122.637323"><ele>238.5</ele></trkpt>
   <trkpt lat="37.936406" lon="-122.637314"><ele>236.5</ele></trkpt>
   <trkpt lat="37.936467" lon="-122.637342"><ele>235.75</ele></trkpt>
   <trkpt lat="37.936527" lon="-122.637393"><ele>234.75</ele></trkpt>
   <trkpt lat="37.936558" lon="-122.63745"><ele>234.25</ele></trkpt>
   <trkpt lat="37.936567" lon="-122.637536"><ele>235.25</ele></trkpt>
   <trkpt lat="37.936564" lon="-122.637615"><ele>238.25</ele></trkpt>
   <trkpt lat="37.936522" lon="-122.637812"><ele>245.75</ele></trkpt>
   <trkpt lat="37.936515" lon="-122.63793"><ele>249.75</ele></trkpt>
   <trkpt lat="37.936547" lon="-122.638002"><ele>253.25</ele></trkpt>
  </trkseg>
 </trk>
</gpx>