<?xml version="1.0" encoding="UTF-8"?>
<!-- track-length = 9873 filtered ascend = 300 plain-ascend = 38 cost=12468 energy=0.1kwh time=2h 5m 40.39986038743882s -->
<gpx 
 xmlns="http://www.topografix.com/GPX/1/1" 
 xmlns:xsi="http://www.w3.org/2001/XMLSchema-instance" 
 xsi:schemaLocation="http://www.topografix.com/GPX/1/1 http://www.topografix.com/GPX/1/1/gpx.xsd" 
 version="1.1" 
 creator="BRouter-Web 0.18.1">
 <trk>
  <name>coastrd</name>
  <trkseg>
   <trkpt lat="36.288458" lon="-121.844333"><ele>26.25</ele></trkpt>
   <trkpt lat="36.288453" lon="-121.844316"><ele>26.25</ele></trkpt>
   <trkpt lat="36.288571" lon="-121.844436"><ele>28.5</ele></trkpt>
   <trkpt lat="36.288719" lon="-121.844642"><ele>30.5</ele></trkpt>
   <trkpt lat="36.288812" lon="-121.844748"><ele>31.75</ele></trkpt>
   <trkpt lat="36.288955" lon="-121.844771"><ele>34</ele></trkpt>
   <trkpt lat="36.289559" lon="-121.844636"><ele>45</ele></trkpt>
   <trkpt lat="36.289905" lon="-121.844776"><ele>49</ele></trkpt>
   <trkpt lat="36.290226" lon="-121.845071"><ele>51.25</ele></trkpt>
   <trkpt lat="36.290378" lon="-121.845145"><ele>53.25</ele></trkpt>
   <trkpt lat="36.290565" lon="-121.845113"><ele>56.25</ele></trkpt>
   <trkpt lat="36.290789" lon="-121.84501"><ele>60</ele></trkpt>
   <trkpt lat="36.29091" lon="-121.845067"><ele>61.25</ele></trkpt>
   <trkpt lat="36.290971" lon="-121.84512"><ele>61.75</ele></trkpt>
   <trkpt lat="36.291055" lon="-121.845246"><ele>62.25</ele></trkpt>
   <trkpt lat="36.291035" lon="-121.845445"><ele>61</ele></trkpt>
   <trkpt lat="36.290963" lon="-121.845648"><ele>58.5</ele></trkpt>
   <trkpt lat="36.290937" lon="-121.845763"><ele>57.5</ele></trkpt>
   <trkpt lat="36.290976" lon="-121.845874"><ele>57.75</ele></trkpt>
   <trkpt lat="36.291197" lon="-121.846087"><ele>62.75</ele></trkpt>
   <trkpt lat="36.29136" lon="-121.846255"><ele>66</ele></trkpt>
   <trkpt lat="36.291503" lon="-121.846479"><ele>68.75</ele></trkpt>
   <trkpt lat="36.291753" lon="-121.846753"><ele>75.25</ele></trkpt>
   <trkpt lat="36.291941" lon="-121.846896"><ele>81.75</ele></trkpt>
   <trkpt lat="36.292158" lon="-121.847048"><ele>88</ele></trkpt>
   <trkpt lat="36.292324" lon="-121.847189"><ele>91.75</ele></trkpt>
   <trkpt lat="36.292389" lon="-121.847281"><ele>93</ele></trkpt>
   <trkpt lat="36.292413" lon="-121.847333"><ele>93.25</ele></trkpt>
   <trkpt lat="36.292402" lon="-121.847414"><ele>92.5</ele></trkpt>
   <trkpt lat="36.292365" lon="-121.847468"><ele>91.5</ele></trkpt>
   <trkpt lat="36.292297" lon="-121.847494"><ele>90</ele></trkpt>
   <trkpt lat="36.292216" lon="-121.847573"><ele>89.75</ele></trkpt>
   <trkpt lat="36.29216" lon="-121.847698"><ele>91</ele></trkpt>
   <trkpt lat="36.292106" lon="-121.847922"><ele>94.25</ele></trkpt>
   <trkpt lat="36.292081" lon="-121.848074"><ele>96.5</ele></trkpt>
   <trkpt lat="36.292052" lon="-121.848126"><ele>97</ele></trkpt>
   <trkpt lat="36.291923" lon="-121.848178"><ele>95.5</ele></trkpt>
   <trkpt lat="36.291747" lon="-121.848194"><ele>92.75</ele></trkpt>
   <trkpt lat="36.291604" lon="-121.848294"><ele>92</ele></trkpt>
   <trkpt lat="36.291461" lon="-121.848493"><ele>91.5</ele></trkpt>
   <trkpt lat="36.291411" lon="-121.84866"><ele>91.75</ele></trkpt>
   <trkpt lat="36.291398" lon="-121.848918"><ele>93.5</ele></trkpt>
   <trkpt lat="36.291411" lon="-121.849115"><ele>95.25</ele></trkpt>
   <trkpt lat="36.291485" lon="-121.849198"><ele>97.25</ele></trkpt>
   <trkpt lat="36.291569" lon="-121.84922"><ele>99</ele></trkpt>
   <trkpt lat="36.291717" lon="-121.84912"><ele>102.5</ele></trkpt>
   <trkpt lat="36.291825" lon="-121.849091"><ele>104.75</ele></trkpt>
   <trkpt lat="36.292206" lon="-121.849135"><ele>114.5</ele></trkpt>
   <trkpt lat="36.292316" lon="-121.849138"><ele>117</ele></trkpt>
   <trkpt lat="36.292421" lon="-121.849093"><ele>119</ele></trkpt>
   <trkpt lat="36.292569" lon="-121.848964"><ele>120.75</ele></trkpt>
   <trkpt lat="36.292726" lon="-121.848727"><ele>121.5</ele></trkpt>
   <trkpt lat="36.292781" lon="-121.848546"><ele>120</ele></trkpt>
   <trkpt lat="36.292806" lon="-121.84837"><ele>118</ele></trkpt>
   <trkpt lat="36.292874" lon="-121.848268"><ele>118.25</ele></trkpt>
   <trkpt lat="36.292982" lon="-121.848216"><ele>120.5</ele></trkpt>
   <trkpt lat="36.29307" lon="-121.848207"><ele>122.75</ele></trkpt>
   <trkpt lat="36.293188" lon="-121.848233"><ele>126.5</ele></trkpt>
   <trkpt lat="36.293375" lon="-121.848313"><ele>132.5</ele></trkpt>
   <trkpt lat="36.293586" lon="-121.848377"><ele>137.25</ele></trkpt>
   <trkpt lat="36.293667" lon="-121.84841"><ele>139.25</ele></trkpt>
   <trkpt lat="36.293708" lon="-121.848489"><ele>141.25</ele></trkpt>
   <trkpt lat="36.293681" lon="-121.848601"><ele>142.5</ele></trkpt>
   <trkpt lat="36.293488" lon="-121.848915"><ele>144.25</ele></trkpt>
   <trkpt lat="36.293392" lon="-121.849083"><ele>145.5</ele></trkpt>
   <trkpt lat="36.293308" lon="-121.849276"><ele>145</ele></trkpt>
   <trkpt lat="36.293286" lon="-121.84939"><ele>144</ele></trkpt>
   <trkpt lat="36.293327" lon="-121.849535"><ele>144.75</ele></trkpt>
   <trkpt lat="36.293365" lon="-121.84963"><ele>145.5</ele></trkpt>
   <trkpt lat="36.293609" lon="-121.849844"><ele>151</ele></trkpt>
   <trkpt lat="36.293773" lon="-121.850038"><ele>155.25</ele></trkpt>
   <trkpt lat="36.293894" lon="-121.850114"><ele>158.25</ele></trkpt>
   <trkpt lat="36.294022" lon="-121.850153"><ele>161.5</ele></trkpt>
   <trkpt lat="36.294117" lon="-121.850287"><ele>163.5</ele></trkpt>
   <trkpt lat="36.294174" lon="-121.850484"><ele>164.25</ele></trkpt>
   <trkpt lat="36.294188" lon="-121.850639"><ele>164</ele></trkpt>
   <trkpt lat="36.29417" lon="-121.850777"><ele>163.25</ele></trkpt>
   <trkpt lat="36.294169" lon="-121.850918"><ele>162</ele></trkpt>
   <trkpt lat="36.294276" lon="-121.851211"><ele>160.75</ele></trkpt>
   <trkpt lat="36.294327" lon="-121.85127"><ele>161</ele></trkpt>
   <trkpt lat="36.2944" lon="-121.851292"><ele>161.75</ele></trkpt>
   <trkpt lat="36.294617" lon="-121.851237"><ele>166.5</ele></trkpt>
   <trkpt lat="36.294691" lon="-121.851243"><ele>167.5</ele></trkpt>
   <trkpt lat="36.294764" lon="-121.851254"><ele>168.75</ele></trkpt>
   <trkpt lat="36.295148" lon="-121.8514"><ele>171.25</ele></trkpt>
   <trkpt lat="36.295319" lon="-121.851403"><ele>173.25</ele></trkpt>
   <trkpt lat="36.295585" lon="-121.851321"><ele>178.25</ele></trkpt>
   <trkpt lat="36.29572" lon="-121.851325"><ele>179.75</ele></trkpt>
   <trkpt lat="36.29585" lon="-121.85126"><ele>182.5</ele></trkpt>
   <trkpt lat="36.296003" lon="-121.851131"><ele>185.5</ele></trkpt>
   <trkpt lat="36.296139" lon="-121.851059"><ele>187</ele></trkpt>
   <trkpt lat="36.296384" lon="-121.851096"><ele>185.75</ele></trkpt>
   <trkpt lat="36.296458" lon="-121.851075"><ele>186</ele></trkpt>
   <trkpt lat="36.296509" lon="-121.850952"><ele>188.25</ele></trkpt>
   <trkpt lat="36.296542" lon="-121.850754"><ele>191.25</ele></trkpt>
   <trkpt lat="36.296551" lon="-121.850598"><ele>193.25</ele></trkpt>
   <trkpt lat="36.296586" lon="-121.850501"><ele>194.25</ele></trkpt>
   <trkpt lat="36.296614" lon="-121.850366"><ele>195.75</ele></trkpt>
   <trkpt lat="36.296581" lon="-121.850085"><ele>199.25</ele></trkpt>
   <trkpt lat="36.296714" lon="-121.849768"><ele>203.25</ele></trkpt>
   <trkpt lat="36.297362" lon="-121.849129"><ele>210.5</ele></trkpt>
   <trkpt lat="36.297557" lon="-121.848915"><ele>218.25</ele></trkpt>
   <trkpt lat="36.297721" lon="-121.848791"><ele>225.75</ele></trkpt>
   <trkpt lat="36.297846" lon="-121.848786"><ele>228.5</ele></trkpt>
   <trkpt lat="36.297954" lon="-121.848829"><ele>229.75</ele></trkpt>
   <trkpt lat="36.298036" lon="-121.848931"><ele>229</ele></trkpt>
   <trkpt lat="36.298123" lon="-121.849161"><ele>225.5</ele></trkpt>
   <trkpt lat="36.298239" lon="-121.849348"><ele>223.25</ele></trkpt>
   <trkpt lat="36.298354" lon="-121.849447"><ele>223</ele></trkpt>
   <trkpt lat="36.29865" lon="-121.849639"><ele>221.5</ele></trkpt>
   <trkpt lat="36.298897" lon="-121.849869"><ele>217</ele></trkpt>
   <trkpt lat="36.299052" lon="-121.849961"><ele>215.25</ele></trkpt>
   <trkpt lat="36.29942" lon="-121.850063"><ele>217.25</ele></trkpt>
   <trkpt lat="36.299571" lon="-121.850116"><ele>218.25</ele></trkpt>
   <trkpt lat="36.299727" lon="-121.850218"><ele>218.25</ele></trkpt>
   <trkpt lat="36.299844" lon="-121.850417"><ele>215.25</ele></trkpt>
   <trkpt lat="36.300012" lon="-121.85076"><ele>209.75</ele></trkpt>
   <trkpt lat="36.30019" lon="-121.850878"><ele>209</ele></trkpt>
   <trkpt lat="36.300583" lon="-121.851082"><ele>209.5</ele></trkpt>
   <trkpt lat="36.30076" lon="-121.851216"><ele>209.5</ele></trkpt>
   <trkpt lat="36.300903" lon="-121.851302"><ele>208.75</ele></trkpt>
   <trkpt lat="36.301032" lon="-121.851307"><ele>208</ele></trkpt>
   <trkpt lat="36.301113" lon="-121.851272"><ele>208</ele></trkpt>
   <trkpt lat="36.301199" lon="-121.851165"><ele>209</ele></trkpt>
   <trkpt lat="36.301387" lon="-121.850886"><ele>211.5</ele></trkpt>
   <trkpt lat="36.301525" lon="-121.850768"><ele>212.75</ele></trkpt>
   <trkpt lat="36.301759" lon="-121.850685"><ele>212</ele></trkpt>
   <trkpt lat="36.30183" lon="-121.850621"><ele>212.25</ele></trkpt>
   <trkpt lat="36.301886" lon="-121.850519"><ele>213.5</ele></trkpt>
   <trkpt lat="36.301899" lon="-121.850411"><ele>215.75</ele></trkpt>
   <trkpt lat="36.301897" lon="-121.850325"><ele>217.75</ele></trkpt>
   <trkpt lat="36.301869" lon="-121.850232"><ele>220.75</ele></trkpt>
   <trkpt lat="36.301828" lon="-121.850167"><ele>223.25</ele></trkpt>
   <trkpt lat="36.301793" lon="-121.850092"><ele>226</ele></trkpt>
   <trkpt lat="36.301781" lon="-121.850033"><ele>228</ele></trkpt>
   <trkpt lat="36.301798" lon="-121.849918"><ele>228.75</ele></trkpt>
   <trkpt lat="36.301841" lon="-121.849835"><ele>228.5</ele></trkpt>
   <trkpt lat="36.301908" lon="-121.849794"><ele>227.25</ele></trkpt>
   <trkpt lat="36.301988" lon="-121.849778"><ele>225.5</ele></trkpt>
   <trkpt lat="36.3021" lon="-121.8498"><ele>222.5</ele></trkpt>
   <trkpt lat="36.302241" lon="-121.849883"><ele>218</ele></trkpt>
   <trkpt lat="36.302362" lon="-121.849942"><ele>213.75</ele></trkpt>
   <trkpt lat="36.302466" lon="-121.849977"><ele>210.25</ele></trkpt>
   <trkpt lat="36.302531" lon="-121.849974"><ele>209.25</ele></trkpt>
   <trkpt lat="36.302602" lon="-121.849934"><ele>209.75</ele></trkpt>
   <trkpt lat="36.302634" lon="-121.849869"><ele>211</ele></trkpt>
   <trkpt lat="36.302667" lon="-121.849776"><ele>213.25</ele></trkpt>
   <trkpt lat="36.302688" lon="-121.849623"><ele>216.75</ele></trkpt>
   <trkpt lat="36.302714" lon="-121.849548"><ele>218.75</ele></trkpt>
   <trkpt lat="36.302775" lon="-121.849456"><ele>221.25</ele></trkpt>
   <trkpt lat="36.30287" lon="-121.849403"><ele>223</ele></trkpt>
   <trkpt lat="36.302987" lon="-121.849403"><ele>223.25</ele></trkpt>
   <trkpt lat="36.303106" lon="-121.849441"><ele>222.5</ele></trkpt>
   <trkpt lat="36.303222" lon="-121.849505"><ele>220.5</ele></trkpt>
   <trkpt lat="36.303391" lon="-121.849574"><ele>218.75</ele></trkpt>
   <trkpt lat="36.30349" lon="-121.849604"><ele>218.25</ele></trkpt>
   <trkpt lat="36.303581" lon="-121.849604"><ele>219</ele></trkpt>
   <trkpt lat="36.303687" lon="-121.849585"><ele>220.5</ele></trkpt>
   <trkpt lat="36.303778" lon="-121.849542"><ele>222.75</ele></trkpt>
   <trkpt lat="36.303857" lon="-121.849481"><ele>225.25</ele></trkpt>
   <trkpt lat="36.30392" lon="-121.849413"><ele>227.75</ele></trkpt>
   <trkpt lat="36.303962" lon="-121.849295"><ele>231.75</ele></trkpt>
   <trkpt lat="36.304015" lon="-121.849038"><ele>240.25</ele></trkpt>
   <trkpt lat="36.304048" lon="-121.848933"><ele>243.75</ele></trkpt>
   <trkpt lat="36.304091" lon="-121.848831"><ele>247</ele></trkpt>
   <trkpt lat="36.304126" lon="-121.848783"><ele>248.75</ele></trkpt>
   <trkpt lat="36.304171" lon="-121.848762"><ele>249.5</ele></trkpt>
   <trkpt lat="36.304219" lon="-121.848775"><ele>249.75</ele></trkpt>
   <trkpt lat="36.304268" lon="-121.84885"><ele>248</ele></trkpt>
   <trkpt lat="36.304392" lon="-121.849097"><ele>241.75</ele></trkpt>
   <trkpt lat="36.304491" lon="-121.849314"><ele>236</ele></trkpt>
   <trkpt lat="36.304545" lon="-121.849475"><ele>231.5</ele></trkpt>
   <trkpt lat="36.30464" lon="-121.849717"><ele>224.5</ele></trkpt>
   <trkpt lat="36.304701" lon="-121.849797"><ele>222.5</ele></trkpt>
   <trkpt lat="36.304761" lon="-121.849835"><ele>221.75</ele></trkpt>
   <trkpt lat="36.304934" lon="-121.849867"><ele>222</ele></trkpt>
   <trkpt lat="36.305036" lon="-121.849856"><ele>223.75</ele></trkpt>
   <trkpt lat="36.305075" lon="-121.849811"><ele>226.25</ele></trkpt>
   <trkpt lat="36.305157" lon="-121.849666"><ele>233</ele></trkpt>
   <trkpt lat="36.305213" lon="-121.849548"><ele>238.25</ele></trkpt>
   <trkpt lat="36.305261" lon="-121.849403"><ele>244</ele></trkpt>
   <trkpt lat="36.305297" lon="-121.849247"><ele>250</ele></trkpt>
   <trkpt lat="36.305343" lon="-121.849207"><ele>252</ele></trkpt>
   <trkpt lat="36.305399" lon="-121.849215"><ele>253</ele></trkpt>
   <trkpt lat="36.305472" lon="-121.84925"><ele>253.25</ele></trkpt>
   <trkpt lat="36.305546" lon="-121.849309"><ele>252.75</ele></trkpt>
   <trkpt lat="36.3056" lon="-121.84933"><ele>253.25</ele></trkpt>
   <trkpt lat="36.305663" lon="-121.84933"><ele>254.5</ele></trkpt>
   <trkpt lat="36.305708" lon="-121.849368"><ele>254.25</ele></trkpt>
   <trkpt lat="36.305747" lon="-121.84947"><ele>252</ele></trkpt>
   <trkpt lat="36.305751" lon="-121.84965"><ele>246.5</ele></trkpt>
   <trkpt lat="36.30582" lon="-121.849878"><ele>241.25</ele></trkpt>
   <trkpt lat="36.3059" lon="-121.849998"><ele>240</ele></trkpt>
   <trkpt lat="36.305998" lon="-121.850095"><ele>239.25</ele></trkpt>
   <trkpt lat="36.306108" lon="-121.850148"><ele>240.75</ele></trkpt>
   <trkpt lat="36.306246" lon="-121.850173"><ele>244</ele></trkpt>
   <trkpt lat="36.3064" lon="-121.850178"><ele>248.5</ele></trkpt>
   <trkpt lat="36.306551" lon="-121.850156"><ele>253.75</ele></trkpt>
   <trkpt lat="36.306644" lon="-121.850173"><ele>256</ele></trkpt>
   <trkpt lat="36.306731" lon="-121.850247"><ele>256.5</ele></trkpt>
   <trkpt lat="36.306854" lon="-121.850449"><ele>254.75</ele></trkpt>
   <trkpt lat="36.30707" lon="-121.850693"><ele>256</ele></trkpt>
   <trkpt lat="36.30714" lon="-121.850759"><ele>256.75</ele></trkpt>
   <trkpt lat="36.307256" lon="-121.851095"><ele>254.75</ele></trkpt>
   <trkpt lat="36.307369" lon="-121.851321"><ele>255.5</ele></trkpt>
   <trkpt lat="36.307424" lon="-121.851414"><ele>256.25</ele></trkpt>
   <trkpt lat="36.307485" lon="-121.851463"><ele>258</ele></trkpt>
   <trkpt lat="36.307552" lon="-121.851479"><ele>260.25</ele></trkpt>
   <trkpt lat="36.30761" lon="-121.851511"><ele>261.5</ele></trkpt>
   <trkpt lat="36.307649" lon="-121.851578"><ele>261.5</ele></trkpt>
   <trkpt lat="36.307675" lon="-121.851787"><ele>258</ele></trkpt>
   <trkpt lat="36.307707" lon="-121.851849"><ele>257.5</ele></trkpt>
   <trkpt lat="36.307781" lon="-121.851892"><ele>258.75</ele></trkpt>
   <trkpt lat="36.307885" lon="-121.852007"><ele>259</ele></trkpt>
   <trkpt lat="36.307947" lon="-121.852117"><ele>257.75</ele></trkpt>
   <trkpt lat="36.307995" lon="-121.852179"><ele>257.25</ele></trkpt>
   <trkpt lat="36.308064" lon="-121.852208"><ele>258</ele></trkpt>
   <trkpt lat="36.308209" lon="-121.8522"><ele>261.5</ele></trkpt>
   <trkpt lat="36.308367" lon="-121.852117"><ele>267</ele></trkpt>
   <trkpt lat="36.308436" lon="-121.852031"><ele>270.25</ele></trkpt>
   <trkpt lat="36.308488" lon="-121.851945"><ele>273.5</ele></trkpt>
   <trkpt lat="36.308527" lon="-121.851895"><ele>275.25</ele></trkpt>
   <trkpt lat="36.308594" lon="-121.851833"><ele>277.5</ele></trkpt>
   <trkpt lat="36.308628" lon="-121.851833"><ele>277.75</ele></trkpt>
   <trkpt lat="36.308667" lon="-121.851844"><ele>277.75</ele></trkpt>
   <trkpt lat="36.308844" lon="-121.851983"><ele>275.25</ele></trkpt>
   <trkpt lat="36.308905" lon="-121.852015"><ele>274.75</ele></trkpt>
   <trkpt lat="36.308965" lon="-121.852018"><ele>275.25</ele></trkpt>
   <trkpt lat="36.309039" lon="-121.851999"><ele>276.5</ele></trkpt>
   <trkpt lat="36.309147" lon="-121.851954"><ele>278.5</ele></trkpt>
   <trkpt lat="36.30927" lon="-121.851892"><ele>281</ele></trkpt>
   <trkpt lat="36.309333" lon="-121.851876"><ele>281.75</ele></trkpt>
   <trkpt lat="36.309396" lon="-121.851885"><ele>282</ele></trkpt>
   <trkpt lat="36.309419" lon="-121.851903"><ele>281.75</ele></trkpt>
   <trkpt lat="36.309469" lon="-121.851988"><ele>280</ele></trkpt>
   <trkpt lat="36.309486" lon="-121.85209"><ele>277.75</ele></trkpt>
   <trkpt lat="36.309454" lon="-121.852192"><ele>275</ele></trkpt>
   <trkpt lat="36.309385" lon="-121.852326"><ele>271.25</ele></trkpt>
   <trkpt lat="36.30938" lon="-121.852415"><ele>269</ele></trkpt>
   <trkpt lat="36.3094" lon="-121.852517"><ele>267</ele></trkpt>
   <trkpt lat="36.309437" lon="-121.852595"><ele>266.5</ele></trkpt>
   <trkpt lat="36.309564" lon="-121.852753"><ele>266.75</ele></trkpt>
   <trkpt lat="36.309648" lon="-121.852793"><ele>267.75</ele></trkpt>
   <trkpt lat="36.310009" lon="-121.85289"><ele>272.5</ele></trkpt>
   <trkpt lat="36.310128" lon="-121.85294"><ele>272.5</ele></trkpt>
   <trkpt lat="36.310219" lon="-121.853"><ele>272.25</ele></trkpt>
   <trkpt lat="36.310308" lon="-121.853091"><ele>272</ele></trkpt>
   <trkpt lat="36.310401" lon="-121.85326"><ele>271.25</ele></trkpt>
   <trkpt lat="36.310597" lon="-121.853515"><ele>270.75</ele></trkpt>
   <trkpt lat="36.31077" lon="-121.853692"><ele>272</ele></trkpt>
   <trkpt lat="36.311017" lon="-121.853898"><ele>270.75</ele></trkpt>
   <trkpt lat="36.311094" lon="-121.853975"><ele>268.75</ele></trkpt>
   <trkpt lat="36.311223" lon="-121.854103"><ele>268.75</ele></trkpt>
   <trkpt lat="36.311321" lon="-121.85429"><ele>267.75</ele></trkpt>
   <trkpt lat="36.311407" lon="-121.854699"><ele>267.25</ele></trkpt>
   <trkpt lat="36.311481" lon="-121.855601"><ele>268.25</ele></trkpt>
   <trkpt lat="36.311455" lon="-121.855786"><ele>267.5</ele></trkpt>
   <trkpt lat="36.311425" lon="-121.855907"><ele>266.5</ele></trkpt>
   <trkpt lat="36.311425" lon="-121.856004"><ele>266</ele></trkpt>
   <trkpt lat="36.311442" lon="-121.856073"><ele>266</ele></trkpt>
   <trkpt lat="36.311483" lon="-121.856154"><ele>266.5</ele></trkpt>
   <trkpt lat="36.311751" lon="-121.856446"><ele>266.75</ele></trkpt>
   <trkpt lat="36.312011" lon="-121.85698"><ele>261.25</ele></trkpt>
   <trkpt lat="36.312125" lon="-121.857197"><ele>261.25</ele></trkpt>
   <trkpt lat="36.31222" lon="-121.857331"><ele>261.5</ele></trkpt>
   <trkpt lat="36.312348" lon="-121.857465"><ele>262.5</ele></trkpt>
   <trkpt lat="36.312501" lon="-121.857554"><ele>262.75</ele></trkpt>
   <trkpt lat="36.312666" lon="-121.857613"><ele>258.25</ele></trkpt>
   <trkpt lat="36.312844" lon="-121.857714"><ele>254</ele></trkpt>
   <trkpt lat="36.312967" lon="-121.857873"><ele>252.5</ele></trkpt>
   <trkpt lat="36.313059" lon="-121.858029"><ele>252.25</ele></trkpt>
   <trkpt lat="36.313145" lon="-121.858297"><ele>254.5</ele></trkpt>
   <trkpt lat="36.313223" lon="-121.85849"><ele>254</ele></trkpt>
   <trkpt lat="36.313305" lon="-121.858651"><ele>253</ele></trkpt>
   <trkpt lat="36.313405" lon="-121.858777"><ele>251.25</ele></trkpt>
   <trkpt lat="36.313597" lon="-121.858961"><ele>248.75</ele></trkpt>
   <trkpt lat="36.313684" lon="-121.859067"><ele>247.75</ele></trkpt>
   <trkpt lat="36.313755" lon="-121.859179"><ele>246.75</ele></trkpt>
   <trkpt lat="36.3138" lon="-121.859373"><ele>244.75</ele></trkpt>
   <trkpt lat="36.313815" lon="-121.859587"><ele>242.75</ele></trkpt>
   <trkpt lat="36.313818" lon="-121.860249"><ele>237.75</ele></trkpt>
   <trkpt lat="36.313843" lon="-121.860349"><ele>236.75</ele></trkpt>
   <trkpt lat="36.313934" lon="-121.860561"><ele>233.75</ele></trkpt>
   <trkpt lat="36.314008" lon="-121.86095"><ele>229.75</ele></trkpt>
   <trkpt lat="36.313984" lon="-121.861135"><ele>228.75</ele></trkpt>
   <trkpt lat="36.31393" lon="-121.861298"><ele>228.5</ele></trkpt>
   <trkpt lat="36.313878" lon="-121.86143"><ele>228.5</ele></trkpt>
   <trkpt lat="36.313857" lon="-121.861588"><ele>227.75</ele></trkpt>
   <trkpt lat="36.31388" lon="-121.861746"><ele>226.5</ele></trkpt>
   <trkpt lat="36.313969" lon="-121.861889"><ele>224.75</ele></trkpt>
   <trkpt lat="36.31422" lon="-121.862151"><ele>219.75</ele></trkpt>
   <trkpt lat="36.314276" lon="-121.862226"><ele>218.5</ele></trkpt>
   <trkpt lat="36.3143" lon="-121.862336"><ele>218.25</ele></trkpt>
   <trkpt lat="36.314302" lon="-121.862449"><ele>218.25</ele></trkpt>
   <trkpt lat="36.31428" lon="-121.862562"><ele>218.5</ele></trkpt>
   <trkpt lat="36.314226" lon="-121.86269"><ele>219.25</ele></trkpt>
   <trkpt lat="36.314155" lon="-121.862825"><ele>220.25</ele></trkpt>
   <trkpt lat="36.314131" lon="-121.862918"><ele>220.5</ele></trkpt>
   <trkpt lat="36.314142" lon="-121.863063"><ele>220</ele></trkpt>
   <trkpt lat="36.314192" lon="-121.863138"><ele>219</ele></trkpt>
   <trkpt lat="36.314269" lon="-121.863208"><ele>217.75</ele></trkpt>
   <trkpt lat="36.314336" lon="-121.863251"><ele>216.5</ele></trkpt>
   <trkpt lat="36.314483" lon="-121.863283"><ele>214.25</ele></trkpt>
   <trkpt lat="36.314673" lon="-121.863348"><ele>211.75</ele></trkpt>
   <trkpt lat="36.314859" lon="-121.863423"><ele>209.5</ele></trkpt>
   <trkpt lat="36.315056" lon="-121.863525"><ele>206</ele></trkpt>
   <trkpt lat="36.315235" lon="-121.863653"><ele>200.75</ele></trkpt>
   <trkpt lat="36.315307" lon="-121.863758"><ele>199</ele></trkpt>
   <trkpt lat="36.315328" lon="-121.863849"><ele>198.75</ele></trkpt>
   <trkpt lat="36.315348" lon="-121.864072"><ele>198.75</ele></trkpt>
   <trkpt lat="36.315393" lon="-121.864155"><ele>197.75</ele></trkpt>
   <trkpt lat="36.315462" lon="-121.864233"><ele>196.5</ele></trkpt>
   <trkpt lat="36.315467" lon="-121.864337"><ele>198.5</ele></trkpt>
   <trkpt lat="36.315423" lon="-121.864426"><ele>201.5</ele></trkpt>
   <trkpt lat="36.315389" lon="-121.864552"><ele>205</ele></trkpt>
   <trkpt lat="36.315404" lon="-121.864624"><ele>205.75</ele></trkpt>
   <trkpt lat="36.315449" lon="-121.864667"><ele>205.25</ele></trkpt>
   <trkpt lat="36.31551" lon="-121.864662"><ele>203.25</ele></trkpt>
   <trkpt lat="36.315594" lon="-121.864616"><ele>199.75</ele></trkpt>
   <trkpt lat="36.315717" lon="-121.864595"><ele>195.75</ele></trkpt>
   <trkpt lat="36.315841" lon="-121.864619"><ele>192.5</ele></trkpt>
   <trkpt lat="36.316158" lon="-121.864758"><ele>187.75</ele></trkpt>
   <trkpt lat="36.316333" lon="-121.864769"><ele>183.5</ele></trkpt>
   <trkpt lat="36.316426" lon="-121.864804"><ele>181.75</ele></trkpt>
   <trkpt lat="36.316508" lon="-121.864909"><ele>181.5</ele></trkpt>
   <trkpt lat="36.316651" lon="-121.865139"><ele>182</ele></trkpt>
   <trkpt lat="36.316754" lon="-121.865259"><ele>183.75</ele></trkpt>
   <trkpt lat="36.316807" lon="-121.865287"><ele>184.25</ele></trkpt>
   <trkpt lat="36.316876" lon="-121.865265"><ele>183.75</ele></trkpt>
   <trkpt lat="36.316919" lon="-121.865179"><ele>182</ele></trkpt>
   <trkpt lat="36.316945" lon="-121.865056"><ele>179.25</ele></trkpt>
   <trkpt lat="36.316988" lon="-121.864938"><ele>177</ele></trkpt>
   <trkpt lat="36.317105" lon="-121.864809"><ele>174.75</ele></trkpt>
   <trkpt lat="36.317148" lon="-121.864718"><ele>173.25</ele></trkpt>
   <trkpt lat="36.317144" lon="-121.864563"><ele>170.5</ele></trkpt>
   <trkpt lat="36.317152" lon="-121.864284"><ele>166</ele></trkpt>
   <trkpt lat="36.317239" lon="-121.864209"><ele>164.5</ele></trkpt>
   <trkpt lat="36.317472" lon="-121.864048"><ele>161.25</ele></trkpt>
   <trkpt lat="36.31759" lon="-121.863869"><ele>156.75</ele></trkpt>
   <trkpt lat="36.317654" lon="-121.863774"><ele>156.75</ele></trkpt>
   <trkpt lat="36.317874" lon="-121.863468"><ele>152</ele></trkpt>
   <trkpt lat="36.318164" lon="-121.863211"><ele>149.5</ele></trkpt>
   <trkpt lat="36.318415" lon="-121.863044"><ele>149.25</ele></trkpt>
   <trkpt lat="36.318817" lon="-121.862926"><ele>149.5</ele></trkpt>
   <trkpt lat="36.319076" lon="-121.862894"><ele>149.5</ele></trkpt>
   <trkpt lat="36.31924" lon="-121.862884"><ele>149</ele></trkpt>
   <trkpt lat="36.319301" lon="-121.862814"><ele>147.5</ele></trkpt>
   <trkpt lat="36.319361" lon="-121.862696"><ele>145.5</ele></trkpt>
   <trkpt lat="36.319448" lon="-121.862642"><ele>143.5</ele></trkpt>
   <trkpt lat="36.319603" lon="-121.862572"><ele>139.75</ele></trkpt>
   <trkpt lat="36.31972" lon="-121.862551"><ele>137.25</ele></trkpt>
   <trkpt lat="36.319824" lon="-121.862551"><ele>135.5</ele></trkpt>
   <trkpt lat="36.319897" lon="-121.862599"><ele>135.25</ele></trkpt>
   <trkpt lat="36.320096" lon="-121.862771"><ele>136.5</ele></trkpt>
   <trkpt lat="36.32023" lon="-121.862787"><ele>134.75</ele></trkpt>
   <trkpt lat="36.320347" lon="-121.862792"><ele>133</ele></trkpt>
   <trkpt lat="36.320442" lon="-121.862846"><ele>132.75</ele></trkpt>
   <trkpt lat="36.320519" lon="-121.863012"><ele>135.5</ele></trkpt>
   <trkpt lat="36.320648" lon="-121.863102"><ele>135.25</ele></trkpt>
   <trkpt lat="36.320731" lon="-121.863179"><ele>135.5</ele></trkpt>
   <trkpt lat="36.320848" lon="-121.863211"><ele>134.25</ele></trkpt>
   <trkpt lat="36.320943" lon="-121.8632"><ele>134.5</ele></trkpt>
   <trkpt lat="36.32106" lon="-121.863109"><ele>132.75</ele></trkpt>
   <trkpt lat="36.321142" lon="-121.863002"><ele>130.25</ele></trkpt>
   <trkpt lat="36.321246" lon="-121.862841"><ele>126</ele></trkpt>
   <trkpt lat="36.321354" lon="-121.862744"><ele>123.25</ele></trkpt>
   <trkpt lat="36.32154" lon="-121.862642"><ele>119.75</ele></trkpt>
   <trkpt lat="36.321768" lon="-121.862476"><ele>114</ele></trkpt>
   <trkpt lat="36.321924" lon="-121.862288"><ele>109.75</ele></trkpt>
   <trkpt lat="36.322045" lon="-121.862234"><ele>108.25</ele></trkpt>
   <trkpt lat="36.322196" lon="-121.862302"><ele>109.25</ele></trkpt>
   <trkpt lat="36.322279" lon="-121.862355"><ele>110</ele></trkpt>
   <trkpt lat="36.322393" lon="-121.862484"><ele>112</ele></trkpt>
   <trkpt lat="36.322439" lon="-121.862607"><ele>115</ele></trkpt>
   <trkpt lat="36.322473" lon="-121.86272"><ele>117.75</ele></trkpt>
   <trkpt lat="36.322531" lon="-121.862784"><ele>119.5</ele></trkpt>
   <trkpt lat="36.322603" lon="-121.862768"><ele>119.25</ele></trkpt>
   <trkpt lat="36.322711" lon="-121.862497"><ele>113.75</ele></trkpt>
   <trkpt lat="36.322745" lon="-121.862344"><ele>112</ele></trkpt>
   <trkpt lat="36.322751" lon="-121.862305"><ele>110</ele></trkpt>
   <trkpt lat="36.322773" lon="-121.862181"><ele>110</ele></trkpt>
   <trkpt lat="36.322735" lon="-121.861781"><ele>103.5</ele></trkpt>
   <trkpt lat="36.322694" lon="-121.86151"><ele>99.5</ele></trkpt>
   <trkpt lat="36.322678" lon="-121.861365"><ele>97.5</ele></trkpt>
   <trkpt lat="36.322706" lon="-121.861239"><ele>96.75</ele></trkpt>
   <trkpt lat="36.322819" lon="-121.861159"><ele>98.75</ele></trkpt>
   <trkpt lat="36.32289" lon="-121.861078"><ele>100</ele></trkpt>
   <trkpt lat="36.322979" lon="-121.860912"><ele>101.25</ele></trkpt>
   <trkpt lat="36.322968" lon="-121.860724"><ele>99.25</ele></trkpt>
   <trkpt lat="36.322983" lon="-121.860472"><ele>97</ele></trkpt>
   <trkpt lat="36.323024" lon="-121.860271"><ele>96</ele></trkpt>
   <trkpt lat="36.323075" lon="-121.860131"><ele>95.75</ele></trkpt>
   <trkpt lat="36.323152" lon="-121.859998"><ele>96.25</ele></trkpt>
   <trkpt lat="36.323325" lon="-121.859745"><ele>95.25</ele></trkpt>
   <trkpt lat="36.323407" lon="-121.859542"><ele>92</ele></trkpt>
   <trkpt lat="36.323538" lon="-121.859348"><ele>88.5</ele></trkpt>
   <trkpt lat="36.323657" lon="-121.85926"><ele>87</ele></trkpt>
   <trkpt lat="36.323806" lon="-121.859201"><ele>86.25</ele></trkpt>
   <trkpt lat="36.323938" lon="-121.859123"><ele>86.5</ele></trkpt>
   <trkpt lat="36.324046" lon="-121.859088"><ele>87.75</ele></trkpt>
   <trkpt lat="36.324399" lon="-121.859131"><ele>87.25</ele></trkpt>
   <trkpt lat="36.3246" lon="-121.859179"><ele>86.75</ele></trkpt>
   <trkpt lat="36.324779" lon="-121.859238"><ele>88.5</ele></trkpt>
   <trkpt lat="36.324917" lon="-121.859327"><ele>91.25</ele></trkpt>
   <trkpt lat="36.325116" lon="-121.859496"><ele>95.5</ele></trkpt>
   <trkpt lat="36.325244" lon="-121.859539"><ele>95</ele></trkpt>
   <trkpt lat="36.325457" lon="-121.859574"><ele>93</ele></trkpt>
   <trkpt lat="36.325611" lon="-121.859654"><ele>91.5</ele></trkpt>
   <trkpt lat="36.325909" lon="-121.859877"><ele>86.75</ele></trkpt>
   <trkpt lat="36.32606" lon="-121.860019"><ele>85.5</ele></trkpt>
   <trkpt lat="36.326341" lon="-121.860311"><ele>85.5</ele></trkpt>
   <trkpt lat="36.32643" lon="-121.860448"><ele>85</ele></trkpt>
   <trkpt lat="36.326562" lon="-121.860609"><ele>82.75</ele></trkpt>
   <trkpt lat="36.326943" lon="-121.861157"><ele>80.75</ele></trkpt>
   <trkpt lat="36.32708" lon="-121.861392"><ele>81</ele></trkpt>
   <trkpt lat="36.327167" lon="-121.86151"><ele>80.5</ele></trkpt>
   <trkpt lat="36.32726" lon="-121.861572"><ele>79.25</ele></trkpt>
   <trkpt lat="36.32764" lon="-121.861698"><ele>75.25</ele></trkpt>
   <trkpt lat="36.327947" lon="-121.861736"><ele>74.75</ele></trkpt>
   <trkpt lat="36.328228" lon="-121.861789"><ele>74.5</ele></trkpt>
   <trkpt lat="36.328487" lon="-121.861878"><ele>74.25</ele></trkpt>
   <trkpt lat="36.32859" lon="-121.861933"><ele>70.5</ele></trkpt>
   <trkpt lat="36.329215" lon="-121.862264"><ele>70.5</ele></trkpt>
   <trkpt lat="36.329405" lon="-121.862277"><ele>66.5</ele></trkpt>
   <trkpt lat="36.32984453533343" lon="-121.8628513813019"/>
   <trkpt lat="36.329982895140944" lon="-121.86448216438295"/>
   <trkpt lat="36.33097734902791" lon="-121.86662793159485"/>
   <trkpt lat="36.33166048825634" lon="-121.8681836128235"/>
   <trkpt lat="36.33164319366625" lon="-121.86948180198671"/>
   <trkpt lat="36.33204961551879" lon="-121.87080144882204"/>
   <trkpt lat="36.33146160023833" lon="-121.87219619750978"/>
   <trkpt lat="36.3310806421257" lon="-121.87417030334474"/>
   <trkpt lat="36.331279531116245" lon="-121.87541484832765"/>
   <trkpt lat="36.331400593731466" lon="-121.87733530998231"/>
   <trkpt lat="36.332014551241095" lon="-121.87859058380128"/>
   <trkpt lat="36.33217884890897" lon="-121.87930941581727"/>
   <trkpt lat="36.33185890049928" lon="-121.88037157058717"/>
   <trkpt lat="36.330916342141876" lon="-121.88183069229127"/>
   <trkpt lat="36.33024184384053" lon="-121.8826460838318"/>
   <trkpt lat="36.32987000253653" lon="-121.88389062881471"/>
   <trkpt lat="36.329826765060446" lon="-121.8845558166504"/>
   <trkpt lat="36.33006889461756" lon="-121.88528537750246"/>
   <trkpt lat="36.33075204181155" lon="-121.8860685825348"/>
   <trkpt lat="36.3317032494465" lon="-121.88634753227235"/>
  </trkseg>
 </trk>
</gpx>