<?xml version="1.0" encoding="UTF-8"?>
<!-- track-length = 9863 filtered ascend = 466 plain-ascend = -3 cost=11053 energy=0.1kwh time=2h 21m 25s -->
<gpx 
 xmlns="http://www.topografix.com/GPX/1/1" 
 xmlns:xsi="http://www.w3.org/2001/XMLSchema-instance" 
 xsi:schemaLocation="http://www.topografix.com/GPX/1/1 http://www.topografix.com/GPX/1/1/gpx.xsd" 
 version="1.1" 
 creator="BRouter-Web 0.18.1">
 <trk>
  <name>dipseatosteepravine</name>
  <trkseg>
   <trkpt lat="37.897852" lon="-122.6372"><ele>21.75</ele></trkpt>
   <trkpt lat="37.897866" lon="-122.637144"><ele>22.5</ele></trkpt>
   <trkpt lat="37.897861" lon="-122.637115"><ele>22.75</ele></trkpt>
   <trkpt lat="37.897849" lon="-122.63709"><ele>23.25</ele></trkpt>
   <trkpt lat="37.897506" lon="-122.636709"><ele>28.25</ele></trkpt>
   <trkpt lat="37.8975" lon="-122.636714"><ele>28.25</ele></trkpt>
   <trkpt lat="37.897265" lon="-122.636448"><ele>32.75</ele></trkpt>
   <trkpt lat="37.897054" lon="-122.636242"><ele>36</ele></trkpt>
   <trkpt lat="37.896974" lon="-122.636174"><ele>37.25</ele></trkpt>
   <trkpt lat="37.896878" lon="-122.636141"><ele>37.75</ele></trkpt>
   <trkpt lat="37.896739" lon="-122.636119"><ele>38.5</ele></trkpt>
   <trkpt lat="37.896596" lon="-122.635968"><ele>40.75</ele></trkpt>
   <trkpt lat="37.896549" lon="-122.635922"><ele>41.5</ele></trkpt>
   <trkpt lat="37.896544" lon="-122.635869"><ele>42.25</ele></trkpt>
   <trkpt lat="37.896608" lon="-122.635705"><ele>44</ele></trkpt>
   <trkpt lat="37.896569" lon="-122.635581"><ele>46</ele></trkpt>
   <trkpt lat="37.896577" lon="-122.635474"><ele>47.5</ele></trkpt>
   <trkpt lat="37.896562" lon="-122.635368"><ele>49.25</ele></trkpt>
   <trkpt lat="37.896529" lon="-122.63531"><ele>50.25</ele></trkpt>
   <trkpt lat="37.896505" lon="-122.635253"><ele>51.5</ele></trkpt>
   <trkpt lat="37.896505" lon="-122.635166"><ele>52.75</ele></trkpt>
   <trkpt lat="37.896551" lon="-122.635032"><ele>54</ele></trkpt>
   <trkpt lat="37.896567" lon="-122.63489"><ele>55.5</ele></trkpt>
   <trkpt lat="37.896565" lon="-122.634754"><ele>57.25</ele></trkpt>
   <trkpt lat="37.896536" lon="-122.634563"><ele>60</ele></trkpt>
   <trkpt lat="37.896404" lon="-122.63404"><ele>69</ele></trkpt>
   <trkpt lat="37.896306" lon="-122.633959"><ele>72</ele></trkpt>
   <trkpt lat="37.89631" lon="-122.633722"><ele>74.75</ele></trkpt>
   <trkpt lat="37.896165" lon="-122.633098"><ele>85</ele></trkpt>
   <trkpt lat="37.896135" lon="-122.633019"><ele>86.5</ele></trkpt>
   <trkpt lat="37.896083" lon="-122.632942"><ele>88</ele></trkpt>
   <trkpt lat="37.895917" lon="-122.632751"><ele>92.5</ele></trkpt>
   <trkpt lat="37.895815" lon="-122.63266"><ele>94.5</ele></trkpt>
   <trkpt lat="37.895612" lon="-122.632563"><ele>98.5</ele></trkpt>
   <trkpt lat="37.895497" lon="-122.632469"><ele>101.25</ele></trkpt>
   <trkpt lat="37.895471" lon="-122.632458"><ele>102</ele></trkpt>
   <trkpt lat="37.895449" lon="-122.632459"><ele>102.25</ele></trkpt>
   <trkpt lat="37.895428" lon="-122.632467"><ele>102.5</ele></trkpt>
   <trkpt lat="37.895408" lon="-122.632492"><ele>102.5</ele></trkpt>
   <trkpt lat="37.895397" lon="-122.632546"><ele>102.5</ele></trkpt>
   <trkpt lat="37.895408" lon="-122.632628"><ele>102</ele></trkpt>
   <trkpt lat="37.895445" lon="-122.632729"><ele>100.75</ele></trkpt>
   <trkpt lat="37.895451" lon="-122.632847"><ele>100</ele></trkpt>
   <trkpt lat="37.895416" lon="-122.632945"><ele>100.25</ele></trkpt>
   <trkpt lat="37.895342" lon="-122.633008"><ele>101.25</ele></trkpt>
   <trkpt lat="37.895082" lon="-122.633135"><ele>104.75</ele></trkpt>
   <trkpt lat="37.894975" lon="-122.633153"><ele>106</ele></trkpt>
   <trkpt lat="37.894808" lon="-122.63313"><ele>105.5</ele></trkpt>
   <trkpt lat="37.894684" lon="-122.63306"><ele>105.75</ele></trkpt>
   <trkpt lat="37.894536" lon="-122.632944"><ele>106.75</ele></trkpt>
   <trkpt lat="37.89434" lon="-122.632744"><ele>109.25</ele></trkpt>
   <trkpt lat="37.894246" lon="-122.632616"><ele>111</ele></trkpt>
   <trkpt lat="37.894165" lon="-122.632433"><ele>114</ele></trkpt>
   <trkpt lat="37.894105" lon="-122.632241"><ele>116.75</ele></trkpt>
   <trkpt lat="37.894059" lon="-122.632153"><ele>117.75</ele></trkpt>
   <trkpt lat="37.893828" lon="-122.632033"><ele>119</ele></trkpt>
   <trkpt lat="37.893686" lon="-122.631816"><ele>122.25</ele></trkpt>
   <trkpt lat="37.893671" lon="-122.631723"><ele>123.75</ele></trkpt>
   <trkpt lat="37.893585" lon="-122.631532"><ele>125.75</ele></trkpt>
   <trkpt lat="37.893259" lon="-122.631029"><ele>130</ele></trkpt>
   <trkpt lat="37.892837" lon="-122.630257"><ele>139.5</ele></trkpt>
   <trkpt lat="37.892494" lon="-122.629563"><ele>143.5</ele></trkpt>
   <trkpt lat="37.89219" lon="-122.628909"><ele>145</ele></trkpt>
   <trkpt lat="37.892066" lon="-122.628599"><ele>144.75</ele></trkpt>
   <trkpt lat="37.891865" lon="-122.628203"><ele>145</ele></trkpt>
   <trkpt lat="37.891857" lon="-122.628125"><ele>145.25</ele></trkpt>
   <trkpt lat="37.891891" lon="-122.627824"><ele>145.25</ele></trkpt>
   <trkpt lat="37.89187" lon="-122.62753"><ele>145.5</ele></trkpt>
   <trkpt lat="37.891782" lon="-122.626731"><ele>153</ele></trkpt>
   <trkpt lat="37.891736" lon="-122.626538"><ele>155.25</ele></trkpt>
   <trkpt lat="37.89169" lon="-122.626438"><ele>156.5</ele></trkpt>
   <trkpt lat="37.891573" lon="-122.626262"><ele>159</ele></trkpt>
   <trkpt lat="37.891494" lon="-122.626177"><ele>160.25</ele></trkpt>
   <trkpt lat="37.891174" lon="-122.625907"><ele>165</ele></trkpt>
   <trkpt lat="37.891036" lon="-122.625816"><ele>167</ele></trkpt>
   <trkpt lat="37.890955" lon="-122.625799"><ele>167.5</ele></trkpt>
   <trkpt lat="37.890832" lon="-122.625802"><ele>167.75</ele></trkpt>
   <trkpt lat="37.890726" lon="-122.625827"><ele>169</ele></trkpt>
   <trkpt lat="37.890712" lon="-122.625819"><ele>169.5</ele></trkpt>
   <trkpt lat="37.890715" lon="-122.625798"><ele>170</ele></trkpt>
   <trkpt lat="37.891103" lon="-122.625518"><ele>173.75</ele></trkpt>
   <trkpt lat="37.891215" lon="-122.625477"><ele>174.5</ele></trkpt>
   <trkpt lat="37.891236" lon="-122.625433"><ele>175.25</ele></trkpt>
   <trkpt lat="37.89123" lon="-122.625317"><ele>178</ele></trkpt>
   <trkpt lat="37.891219" lon="-122.625242"><ele>179.75</ele></trkpt>
   <trkpt lat="37.891131" lon="-122.625013"><ele>185.5</ele></trkpt>
   <trkpt lat="37.891127" lon="-122.624983"><ele>186</ele></trkpt>
   <trkpt lat="37.891356" lon="-122.623816"><ele>188.75</ele></trkpt>
   <trkpt lat="37.891372" lon="-122.623671"><ele>188.5</ele></trkpt>
   <trkpt lat="37.891368" lon="-122.623331"><ele>188</ele></trkpt>
   <trkpt lat="37.891379" lon="-122.623292"><ele>188</ele></trkpt>
   <trkpt lat="37.891408" lon="-122.623251"><ele>187.75</ele></trkpt>
   <trkpt lat="37.891436" lon="-122.62318"><ele>187.5</ele></trkpt>
   <trkpt lat="37.891414" lon="-122.623118"><ele>187.5</ele></trkpt>
   <trkpt lat="37.891411" lon="-122.623061"><ele>187.5</ele></trkpt>
   <trkpt lat="37.891418" lon="-122.622984"><ele>187.5</ele></trkpt>
   <trkpt lat="37.891386" lon="-122.62274"><ele>187.5</ele></trkpt>
   <trkpt lat="37.891323" lon="-122.622383"><ele>186.25</ele></trkpt>
   <trkpt lat="37.891213" lon="-122.622008"><ele>182.75</ele></trkpt>
   <trkpt lat="37.891234" lon="-122.621581"><ele>181.5</ele></trkpt>
   <trkpt lat="37.8913" lon="-122.621387"><ele>184.5</ele></trkpt>
   <trkpt lat="37.891346" lon="-122.621218"><ele>186.75</ele></trkpt>
   <trkpt lat="37.891372" lon="-122.621174"><ele>187.5</ele></trkpt>
   <trkpt lat="37.891434" lon="-122.621152"><ele>188.5</ele></trkpt>
   <trkpt lat="37.891595" lon="-122.621024"><ele>191.5</ele></trkpt>
   <trkpt lat="37.891797" lon="-122.620939"><ele>195.25</ele></trkpt>
   <trkpt lat="37.891853" lon="-122.620858"><ele>196.75</ele></trkpt>
   <trkpt lat="37.891925" lon="-122.620802"><ele>198.5</ele></trkpt>
   <trkpt lat="37.891986" lon="-122.620689"><ele>201.75</ele></trkpt>
   <trkpt lat="37.892077" lon="-122.620605"><ele>204</ele></trkpt>
   <trkpt lat="37.892202" lon="-122.620575"><ele>205.25</ele></trkpt>
   <trkpt lat="37.892344" lon="-122.620495"><ele>206.5</ele></trkpt>
   <trkpt lat="37.892448" lon="-122.620483"><ele>206.75</ele></trkpt>
   <trkpt lat="37.892547" lon="-122.620388"><ele>207.75</ele></trkpt>
   <trkpt lat="37.892567" lon="-122.620358"><ele>208</ele></trkpt>
   <trkpt lat="37.892588" lon="-122.620326"><ele>208.5</ele></trkpt>
   <trkpt lat="37.892691" lon="-122.620283"><ele>210</ele></trkpt>
   <trkpt lat="37.892742" lon="-122.620284"><ele>211</ele></trkpt>
   <trkpt lat="37.892786" lon="-122.620286"><ele>211.75</ele></trkpt>
   <trkpt lat="37.89283" lon="-122.620221"><ele>211.75</ele></trkpt>
   <trkpt lat="37.892955" lon="-122.620098"><ele>212.25</ele></trkpt>
   <trkpt lat="37.893074" lon="-122.620004"><ele>212.5</ele></trkpt>
   <trkpt lat="37.893248" lon="-122.619929"><ele>214.75</ele></trkpt>
   <trkpt lat="37.893377" lon="-122.61984"><ele>218.25</ele></trkpt>
   <trkpt lat="37.893466" lon="-122.619757"><ele>223</ele></trkpt>
   <trkpt lat="37.893531" lon="-122.619666"><ele>226.5</ele></trkpt>
   <trkpt lat="37.893544" lon="-122.619513"><ele>227.75</ele></trkpt>
   <trkpt lat="37.893524" lon="-122.619134"><ele>229.25</ele></trkpt>
   <trkpt lat="37.893529" lon="-122.619026"><ele>231.5</ele></trkpt>
   <trkpt lat="37.89346" lon="-122.618865"><ele>232.5</ele></trkpt>
   <trkpt lat="37.893446" lon="-122.618756"><ele>234.5</ele></trkpt>
   <trkpt lat="37.893459" lon="-122.618625"><ele>237.5</ele></trkpt>
   <trkpt lat="37.893523" lon="-122.618461"><ele>241.75</ele></trkpt>
   <trkpt lat="37.893488" lon="-122.618344"><ele>243.5</ele></trkpt>
   <trkpt lat="37.893486" lon="-122.618241"><ele>245</ele></trkpt>
   <trkpt lat="37.893515" lon="-122.618138"><ele>246.75</ele></trkpt>
   <trkpt lat="37.893576" lon="-122.618018"><ele>248.5</ele></trkpt>
   <trkpt lat="37.893677" lon="-122.617899"><ele>249.5</ele></trkpt>
   <trkpt lat="37.893775" lon="-122.617676"><ele>250.25</ele></trkpt>
   <trkpt lat="37.893813" lon="-122.617469"><ele>250.75</ele></trkpt>
   <trkpt lat="37.893836" lon="-122.617376"><ele>252.25</ele></trkpt>
   <trkpt lat="37.893874" lon="-122.617292"><ele>253.25</ele></trkpt>
   <trkpt lat="37.893929" lon="-122.617212"><ele>253.75</ele></trkpt>
   <trkpt lat="37.894046" lon="-122.617182"><ele>252.25</ele></trkpt>
   <trkpt lat="37.89421" lon="-122.617177"><ele>251</ele></trkpt>
   <trkpt lat="37.894291" lon="-122.617153"><ele>252.75</ele></trkpt>
   <trkpt lat="37.894348" lon="-122.617145"><ele>254</ele></trkpt>
   <trkpt lat="37.894427" lon="-122.617078"><ele>256.25</ele></trkpt>
   <trkpt lat="37.894522" lon="-122.61689"><ele>259.5</ele></trkpt>
   <trkpt lat="37.894568" lon="-122.616638"><ele>262.25</ele></trkpt>
   <trkpt lat="37.894577" lon="-122.616456"><ele>265</ele></trkpt>
   <trkpt lat="37.894623" lon="-122.616252"><ele>267.75</ele></trkpt>
   <trkpt lat="37.894645" lon="-122.616056"><ele>270</ele></trkpt>
   <trkpt lat="37.894668" lon="-122.615696"><ele>275</ele></trkpt>
   <trkpt lat="37.894709" lon="-122.615497"><ele>277.75</ele></trkpt>
   <trkpt lat="37.894717" lon="-122.615407"><ele>279.25</ele></trkpt>
   <trkpt lat="37.894769" lon="-122.615353"><ele>279.5</ele></trkpt>
   <trkpt lat="37.894892" lon="-122.615302"><ele>278.5</ele></trkpt>
   <trkpt lat="37.89511" lon="-122.615098"><ele>284.25</ele></trkpt>
   <trkpt lat="37.895366" lon="-122.614959"><ele>294.25</ele></trkpt>
   <trkpt lat="37.895434" lon="-122.614897"><ele>296.75</ele></trkpt>
   <trkpt lat="37.895476" lon="-122.614622"><ele>299.5</ele></trkpt>
   <trkpt lat="37.89548" lon="-122.614576"><ele>300</ele></trkpt>
   <trkpt lat="37.895457" lon="-122.614538"><ele>299.75</ele></trkpt>
   <trkpt lat="37.895536" lon="-122.614468"><ele>301.25</ele></trkpt>
   <trkpt lat="37.895667" lon="-122.614326"><ele>302.25</ele></trkpt>
   <trkpt lat="37.895775" lon="-122.614184"><ele>302</ele></trkpt>
   <trkpt lat="37.895849" lon="-122.614042"><ele>304.25</ele></trkpt>
   <trkpt lat="37.895887" lon="-122.613803"><ele>309</ele></trkpt>
   <trkpt lat="37.895921" lon="-122.613508"><ele>313.5</ele></trkpt>
   <trkpt lat="37.895927" lon="-122.613277"><ele>317</ele></trkpt>
   <trkpt lat="37.895948" lon="-122.613076"><ele>320.75</ele></trkpt>
   <trkpt lat="37.895964" lon="-122.613007"><ele>322</ele></trkpt>
   <trkpt lat="37.896001" lon="-122.61293"><ele>323.25</ele></trkpt>
   <trkpt lat="37.896062" lon="-122.612853"><ele>324.5</ele></trkpt>
   <trkpt lat="37.896161" lon="-122.612794"><ele>324.75</ele></trkpt>
   <trkpt lat="37.89617" lon="-122.61278"><ele>324.75</ele></trkpt>
   <trkpt lat="37.896167" lon="-122.612663"><ele>326.25</ele></trkpt>
   <trkpt lat="37.896178" lon="-122.612631"><ele>326.5</ele></trkpt>
   <trkpt lat="37.896215" lon="-122.612639"><ele>326</ele></trkpt>
   <trkpt lat="37.896317" lon="-122.612682"><ele>324.75</ele></trkpt>
   <trkpt lat="37.896452" lon="-122.61266"><ele>323.5</ele></trkpt>
   <trkpt lat="37.896528" lon="-122.612607"><ele>322.75</ele></trkpt>
   <trkpt lat="37.896607" lon="-122.612481"><ele>322.5</ele></trkpt>
   <trkpt lat="37.896664" lon="-122.612413"><ele>324</ele></trkpt>
   <trkpt lat="37.896729" lon="-122.612397"><ele>325.5</ele></trkpt>
   <trkpt lat="37.896786" lon="-122.612399"><ele>326.25</ele></trkpt>
   <trkpt lat="37.896931" lon="-122.612402"><ele>328.25</ele></trkpt>
   <trkpt lat="37.897051" lon="-122.612354"><ele>331.75</ele></trkpt>
   <trkpt lat="37.897403" lon="-122.612236"><ele>340.25</ele></trkpt>
   <trkpt lat="37.897498" lon="-122.61229"><ele>340</ele></trkpt>
   <trkpt lat="37.897621" lon="-122.612312"><ele>340.25</ele></trkpt>
   <trkpt lat="37.897828" lon="-122.612271"><ele>342.5</ele></trkpt>
   <trkpt lat="37.897979" lon="-122.612133"><ele>345.25</ele></trkpt>
   <trkpt lat="37.898067" lon="-122.611989"><ele>346.75</ele></trkpt>
   <trkpt lat="37.898232" lon="-122.611785"><ele>347</ele></trkpt>
   <trkpt lat="37.898315" lon="-122.611716"><ele>346</ele></trkpt>
   <trkpt lat="37.898363" lon="-122.61167"><ele>346.5</ele></trkpt>
   <trkpt lat="37.898469" lon="-122.611606"><ele>350.75</ele></trkpt>
   <trkpt lat="37.898584" lon="-122.611475"><ele>356</ele></trkpt>
   <trkpt lat="37.898725" lon="-122.61129"><ele>361.25</ele></trkpt>
   <trkpt lat="37.898804" lon="-122.611233"><ele>362.5</ele></trkpt>
   <trkpt lat="37.898913" lon="-122.611199"><ele>363</ele></trkpt>
   <trkpt lat="37.899079" lon="-122.611072"><ele>363</ele></trkpt>
   <trkpt lat="37.899183" lon="-122.61097"><ele>362.5</ele></trkpt>
   <trkpt lat="37.899267" lon="-122.610871"><ele>363.25</ele></trkpt>
   <trkpt lat="37.899339" lon="-122.610844"><ele>364.25</ele></trkpt>
   <trkpt lat="37.899492" lon="-122.610761"><ele>367.5</ele></trkpt>
   <trkpt lat="37.899599" lon="-122.610609"><ele>371</ele></trkpt>
   <trkpt lat="37.899776" lon="-122.610441"><ele>373.75</ele></trkpt>
   <trkpt lat="37.899879" lon="-122.610313"><ele>374.5</ele></trkpt>
   <trkpt lat="37.899976" lon="-122.610157"><ele>374.75</ele></trkpt>
   <trkpt lat="37.900029" lon="-122.610018"><ele>375.5</ele></trkpt>
   <trkpt lat="37.900018" lon="-122.609771"><ele>376.75</ele></trkpt>
   <trkpt lat="37.900048" lon="-122.609653"><ele>378</ele></trkpt>
   <trkpt lat="37.900177" lon="-122.609447"><ele>380.25</ele></trkpt>
   <trkpt lat="37.900262" lon="-122.609401"><ele>380.75</ele></trkpt>
   <trkpt lat="37.900385" lon="-122.609374"><ele>381.5</ele></trkpt>
   <trkpt lat="37.900465" lon="-122.609302"><ele>381.5</ele></trkpt>
   <trkpt lat="37.900645" lon="-122.609112"><ele>381.5</ele></trkpt>
   <trkpt lat="37.900828" lon="-122.609053"><ele>382.25</ele></trkpt>
   <trkpt lat="37.901049" lon="-122.608893"><ele>385.25</ele></trkpt>
   <trkpt lat="37.901144" lon="-122.608853"><ele>386</ele></trkpt>
   <trkpt lat="37.901265" lon="-122.608768"><ele>387</ele></trkpt>
   <trkpt lat="37.901451" lon="-122.608677"><ele>388</ele></trkpt>
   <trkpt lat="37.901568" lon="-122.608632"><ele>388</ele></trkpt>
   <trkpt lat="37.901667" lon="-122.608543"><ele>388.25</ele></trkpt>
   <trkpt lat="37.901752" lon="-122.608412"><ele>389.25</ele></trkpt>
   <trkpt lat="37.901832" lon="-122.608304"><ele>391</ele></trkpt>
   <trkpt lat="37.901915" lon="-122.608008"><ele>397.5</ele></trkpt>
   <trkpt lat="37.901932" lon="-122.607832"><ele>400.75</ele></trkpt>
   <trkpt lat="37.901916" lon="-122.607461"><ele>407.5</ele></trkpt>
   <trkpt lat="37.901967" lon="-122.607275"><ele>410.75</ele></trkpt>
   <trkpt lat="37.901983" lon="-122.60714"><ele>413</ele></trkpt>
   <trkpt lat="37.902019" lon="-122.606944"><ele>416</ele></trkpt>
   <trkpt lat="37.902122" lon="-122.606763"><ele>417</ele></trkpt>
   <trkpt lat="37.902173" lon="-122.606641"><ele>417.75</ele></trkpt>
   <trkpt lat="37.902325" lon="-122.606418"><ele>418.75</ele></trkpt>
   <trkpt lat="37.902384" lon="-122.606279"><ele>420</ele></trkpt>
   <trkpt lat="37.902373" lon="-122.606225"><ele>421.5</ele></trkpt>
   <trkpt lat="37.902301" lon="-122.60626"><ele>422.75</ele></trkpt>
   <trkpt lat="37.902074" lon="-122.606439"><ele>425</ele></trkpt>
   <trkpt lat="37.901915" lon="-122.606606"><ele>425</ele></trkpt>
   <trkpt lat="37.901881" lon="-122.606668"><ele>424.5</ele></trkpt>
   <trkpt lat="37.90183" lon="-122.606695"><ele>425</ele></trkpt>
   <trkpt lat="37.901811" lon="-122.606655"><ele>426.5</ele></trkpt>
   <trkpt lat="37.901913" lon="-122.606504"><ele>427.75</ele></trkpt>
   <trkpt lat="37.902021" lon="-122.606236"><ele>431.25</ele></trkpt>
   <trkpt lat="37.902012" lon="-122.606019"><ele>436.75</ele></trkpt>
   <trkpt lat="37.901984" lon="-122.606005"><ele>437.75</ele></trkpt>
   <trkpt lat="37.901976" lon="-122.606067"><ele>436.5</ele></trkpt>
   <trkpt lat="37.901934" lon="-122.606195"><ele>434.75</ele></trkpt>
   <trkpt lat="37.901898" lon="-122.606276"><ele>433.75</ele></trkpt>
   <trkpt lat="37.901843" lon="-122.606354"><ele>433.25</ele></trkpt>
   <trkpt lat="37.901756" lon="-122.606411"><ele>434.25</ele></trkpt>
   <trkpt lat="37.901729" lon="-122.606408"><ele>435</ele></trkpt>
   <trkpt lat="37.901729" lon="-122.606365"><ele>436</ele></trkpt>
   <trkpt lat="37.901776" lon="-122.606313"><ele>436.25</ele></trkpt>
   <trkpt lat="37.901829" lon="-122.606228"><ele>436.75</ele></trkpt>
   <trkpt lat="37.901854" lon="-122.606005"><ele>441.75</ele></trkpt>
   <trkpt lat="37.901845" lon="-122.605719"><ele>448</ele></trkpt>
   <trkpt lat="37.901862" lon="-122.605587"><ele>449.75</ele></trkpt>
   <trkpt lat="37.901892" lon="-122.605542"><ele>449.5</ele></trkpt>
   <trkpt lat="37.901938" lon="-122.605537"><ele>448.25</ele></trkpt>
   <trkpt lat="37.901995" lon="-122.605543"><ele>446.75</ele></trkpt>
   <trkpt lat="37.902072" lon="-122.605568"><ele>444</ele></trkpt>
   <trkpt lat="37.902138" lon="-122.605533"><ele>443</ele></trkpt>
   <trkpt lat="37.902165" lon="-122.605493"><ele>443</ele></trkpt>
   <trkpt lat="37.902205" lon="-122.605386"><ele>444</ele></trkpt>
   <trkpt lat="37.90219" lon="-122.605137"><ele>449.5</ele></trkpt>
   <trkpt lat="37.902196" lon="-122.605062"><ele>450.75</ele></trkpt>
   <trkpt lat="37.902222" lon="-122.605029"><ele>451</ele></trkpt>
   <trkpt lat="37.90243" lon="-122.60498"><ele>447.5</ele></trkpt>
   <trkpt lat="37.902505" lon="-122.604901"><ele>446.75</ele></trkpt>
   <trkpt lat="37.902538" lon="-122.604798"><ele>448</ele></trkpt>
   <trkpt lat="37.902594" lon="-122.604699"><ele>449</ele></trkpt>
   <trkpt lat="37.902802" lon="-122.604477"><ele>451.5</ele></trkpt>
   <trkpt lat="37.903067" lon="-122.604207"><ele>454.75</ele></trkpt>
   <trkpt lat="37.903366" lon="-122.604023"><ele>459.75</ele></trkpt>
   <trkpt lat="37.903403" lon="-122.604018"><ele>460.25</ele></trkpt>
   <trkpt lat="37.903423" lon="-122.603947"><ele>462</ele></trkpt>
   <trkpt lat="37.903403" lon="-122.604018"><ele>460.25</ele></trkpt>
   <trkpt lat="37.903366" lon="-122.604023"><ele>459.75</ele></trkpt>
   <trkpt lat="37.903026" lon="-122.604085"><ele>456.5</ele></trkpt>
   <trkpt lat="37.90294" lon="-122.604089"><ele>456</ele></trkpt>
   <trkpt lat="37.902447" lon="-122.604115"><ele>454.25</ele></trkpt>
   <trkpt lat="37.902188" lon="-122.604168"><ele>454.5</ele></trkpt>
   <trkpt lat="37.901908" lon="-122.604199"><ele>455.5</ele></trkpt>
   <trkpt lat="37.90159" lon="-122.604279"><ele>457</ele></trkpt>
   <trkpt lat="37.90145" lon="-122.604239"><ele>456.75</ele></trkpt>
   <trkpt lat="37.901165" lon="-122.60404"><ele>454.75</ele></trkpt>
   <trkpt lat="37.901024" lon="-122.604006"><ele>454.5</ele></trkpt>
   <trkpt lat="37.900919" lon="-122.604038"><ele>455.25</ele></trkpt>
   <trkpt lat="37.900661" lon="-122.604205"><ele>457.75</ele></trkpt>
   <trkpt lat="37.900415" lon="-122.604279"><ele>457</ele></trkpt>
   <trkpt lat="37.900164" lon="-122.604238"><ele>456.5</ele></trkpt>
   <trkpt lat="37.899989" lon="-122.604188"><ele>456.75</ele></trkpt>
   <trkpt lat="37.899714" lon="-122.60407"><ele>460</ele></trkpt>
   <trkpt lat="37.899606" lon="-122.604054"><ele>461.25</ele></trkpt>
   <trkpt lat="37.899426" lon="-122.604072"><ele>464.5</ele></trkpt>
   <trkpt lat="37.899038" lon="-122.604192"><ele>472.25</ele></trkpt>
   <trkpt lat="37.898966" lon="-122.604192"><ele>473</ele></trkpt>
   <trkpt lat="37.898865" lon="-122.604142"><ele>473.5</ele></trkpt>
   <trkpt lat="37.898782" lon="-122.604055"><ele>472.25</ele></trkpt>
   <trkpt lat="37.898696" lon="-122.603906"><ele>469.5</ele></trkpt>
   <trkpt lat="37.898479" lon="-122.603598"><ele>463.75</ele></trkpt>
   <trkpt lat="37.898424" lon="-122.603479"><ele>461</ele></trkpt>
   <trkpt lat="37.898361" lon="-122.603215"><ele>455</ele></trkpt>
   <trkpt lat="37.898302" lon="-122.6031"><ele>452</ele></trkpt>
   <trkpt lat="37.898217" lon="-122.603016"><ele>448.75</ele></trkpt>
   <trkpt lat="37.897949" lon="-122.602873"><ele>441</ele></trkpt>
   <trkpt lat="37.897827" lon="-122.602774"><ele>436.5</ele></trkpt>
   <trkpt lat="37.897753" lon="-122.602673"><ele>432.75</ele></trkpt>
   <trkpt lat="37.897703" lon="-122.602509"><ele>427.75</ele></trkpt>
   <trkpt lat="37.897663" lon="-122.602481"><ele>426.75</ele></trkpt>
   <trkpt lat="37.897659" lon="-122.602336"><ele>425.25</ele></trkpt>
   <trkpt lat="37.897662" lon="-122.601874"><ele>420.75</ele></trkpt>
   <trkpt lat="37.897639" lon="-122.601738"><ele>419.25</ele></trkpt>
   <trkpt lat="37.897562" lon="-122.601582"><ele>418</ele></trkpt>
   <trkpt lat="37.897398" lon="-122.601395"><ele>415</ele></trkpt>
   <trkpt lat="37.897356" lon="-122.601378"><ele>414</ele></trkpt>
   <trkpt lat="37.897365" lon="-122.601303"><ele>414.25</ele></trkpt>
   <trkpt lat="37.897342" lon="-122.601215"><ele>413.75</ele></trkpt>
   <trkpt lat="37.897336" lon="-122.601066"><ele>413.75</ele></trkpt>
   <trkpt lat="37.897373" lon="-122.600894"><ele>414.25</ele></trkpt>
   <trkpt lat="37.897408" lon="-122.600821"><ele>414.75</ele></trkpt>
   <trkpt lat="37.897435" lon="-122.600701"><ele>414</ele></trkpt>
   <trkpt lat="37.897561" lon="-122.600634"><ele>413.75</ele></trkpt>
   <trkpt lat="37.897587" lon="-122.600577"><ele>413</ele></trkpt>
   <trkpt lat="37.897654" lon="-122.600494"><ele>411.75</ele></trkpt>
   <trkpt lat="37.897699" lon="-122.600461"><ele>411</ele></trkpt>
   <trkpt lat="37.897761" lon="-122.600378"><ele>409.75</ele></trkpt>
   <trkpt lat="37.897822" lon="-122.600324"><ele>408.5</ele></trkpt>
   <trkpt lat="37.897906" lon="-122.600265"><ele>407</ele></trkpt>
   <trkpt lat="37.897962" lon="-122.600182"><ele>401.25</ele></trkpt>
   <trkpt lat="37.897906" lon="-122.600265"><ele>407</ele></trkpt>
   <trkpt lat="37.897822" lon="-122.600324"><ele>408.5</ele></trkpt>
   <trkpt lat="37.897761" lon="-122.600378"><ele>409.75</ele></trkpt>
   <trkpt lat="37.897699" lon="-122.600461"><ele>411</ele></trkpt>
   <trkpt lat="37.897654" lon="-122.600494"><ele>411.75</ele></trkpt>
   <trkpt lat="37.897587" lon="-122.600577"><ele>413</ele></trkpt>
   <trkpt lat="37.897561" lon="-122.600634"><ele>413.75</ele></trkpt>
   <trkpt lat="37.897435" lon="-122.600701"><ele>414</ele></trkpt>
   <trkpt lat="37.897408" lon="-122.600821"><ele>414.75</ele></trkpt>
   <trkpt lat="37.897373" lon="-122.600894"><ele>414.25</ele></trkpt>
   <trkpt lat="37.897336" lon="-122.601066"><ele>413.75</ele></trkpt>
   <trkpt lat="37.897342" lon="-122.601215"><ele>413.75</ele></trkpt>
   <trkpt lat="37.897365" lon="-122.601303"><ele>414.25</ele></trkpt>
   <trkpt lat="37.897356" lon="-122.601378"><ele>414</ele></trkpt>
   <trkpt lat="37.89737" lon="-122.601482"><ele>414.5</ele></trkpt>
   <trkpt lat="37.897402" lon="-122.601599"><ele>415.25</ele></trkpt>
   <trkpt lat="37.897395" lon="-122.601704"><ele>415.25</ele></trkpt>
   <trkpt lat="37.897367" lon="-122.601809"><ele>415.25</ele></trkpt>
   <trkpt lat="37.897218" lon="-122.602112"><ele>412.75</ele></trkpt>
   <trkpt lat="37.897047" lon="-122.602407"><ele>408.75</ele></trkpt>
   <trkpt lat="37.897016" lon="-122.602565"><ele>410</ele></trkpt>
   <trkpt lat="37.896951" lon="-122.602885"><ele>417.5</ele></trkpt>
   <trkpt lat="37.896923" lon="-122.602959"><ele>418.75</ele></trkpt>
   <trkpt lat="37.896831" lon="-122.602981"><ele>416.75</ele></trkpt>
   <trkpt lat="37.896614" lon="-122.603041"><ele>412.25</ele></trkpt>
   <trkpt lat="37.896518" lon="-122.603101"><ele>411.5</ele></trkpt>
   <trkpt lat="37.8963" lon="-122.603466"><ele>413.75</ele></trkpt>
   <trkpt lat="37.896214" lon="-122.603668"><ele>414</ele></trkpt>
   <trkpt lat="37.896141" lon="-122.603927"><ele>414.5</ele></trkpt>
   <trkpt lat="37.896128" lon="-122.60411"><ele>416.25</ele></trkpt>
   <trkpt lat="37.896046" lon="-122.604311"><ele>414.5</ele></trkpt>
   <trkpt lat="37.896074" lon="-122.604536"><ele>418.75</ele></trkpt>
   <trkpt lat="37.895998" lon="-122.604839"><ele>417.5</ele></trkpt>
   <trkpt lat="37.896003" lon="-122.605205"><ele>420.5</ele></trkpt>
   <trkpt lat="37.895887" lon="-122.60554"><ele>414</ele></trkpt>
   <trkpt lat="37.895865" lon="-122.605722"><ele>412.75</ele></trkpt>
   <trkpt lat="37.895866" lon="-122.605905"><ele>413.5</ele></trkpt>
   <trkpt lat="37.895832" lon="-122.606083"><ele>412.25</ele></trkpt>
   <trkpt lat="37.895711" lon="-122.606364"><ele>409.25</ele></trkpt>
   <trkpt lat="37.895582" lon="-122.606522"><ele>405.5</ele></trkpt>
   <trkpt lat="37.895489" lon="-122.606717"><ele>403.5</ele></trkpt>
   <trkpt lat="37.895421" lon="-122.60682"><ele>401</ele></trkpt>
   <trkpt lat="37.895292" lon="-122.606973"><ele>396.75</ele></trkpt>
   <trkpt lat="37.895172" lon="-122.607104"><ele>393.5</ele></trkpt>
   <trkpt lat="37.895127" lon="-122.607141"><ele>392.25</ele></trkpt>
   <trkpt lat="37.895044" lon="-122.607164"><ele>390</ele></trkpt>
   <trkpt lat="37.894868" lon="-122.607135"><ele>386.25</ele></trkpt>
   <trkpt lat="37.894799" lon="-122.607131"><ele>385</ele></trkpt>
   <trkpt lat="37.894763" lon="-122.607138"><ele>384.5</ele></trkpt>
   <trkpt lat="37.89454" lon="-122.60726"><ele>381.5</ele></trkpt>
   <trkpt lat="37.894498" lon="-122.607274"><ele>381</ele></trkpt>
   <trkpt lat="37.89439" lon="-122.607281"><ele>379</ele></trkpt>
   <trkpt lat="37.894242" lon="-122.607318"><ele>377</ele></trkpt>
   <trkpt lat="37.894175" lon="-122.607348"><ele>376.25</ele></trkpt>
   <trkpt lat="37.894155" lon="-122.607366"><ele>376</ele></trkpt>
   <trkpt lat="37.894123" lon="-122.607427"><ele>376.25</ele></trkpt>
   <trkpt lat="37.894085" lon="-122.607544"><ele>376.75</ele></trkpt>
   <trkpt lat="37.894011" lon="-122.607687"><ele>376.5</ele></trkpt>
   <trkpt lat="37.893955" lon="-122.607769"><ele>376.25</ele></trkpt>
   <trkpt lat="37.893916" lon="-122.607801"><ele>376</ele></trkpt>
   <trkpt lat="37.893893" lon="-122.607912"><ele>376.75</ele></trkpt>
   <trkpt lat="37.893826" lon="-122.608057"><ele>377.75</ele></trkpt>
   <trkpt lat="37.893728" lon="-122.60822"><ele>379.5</ele></trkpt>
   <trkpt lat="37.893614" lon="-122.608443"><ele>380.75</ele></trkpt>
   <trkpt lat="37.893544" lon="-122.608644"><ele>380.5</ele></trkpt>
   <trkpt lat="37.893455" lon="-122.608964"><ele>379.75</ele></trkpt>
   <trkpt lat="37.893506" lon="-122.609015"><ele>380</ele></trkpt>
   <trkpt lat="37.893519" lon="-122.609181"><ele>379.75</ele></trkpt>
   <trkpt lat="37.893423" lon="-122.609455"><ele>378</ele></trkpt>
   <trkpt lat="37.893277" lon="-122.609651"><ele>375.5</ele></trkpt>
   <trkpt lat="37.893176" lon="-122.609745"><ele>373</ele></trkpt>
   <trkpt lat="37.892809" lon="-122.610217"><ele>365</ele></trkpt>
   <trkpt lat="37.89275" lon="-122.610332"><ele>364.25</ele></trkpt>
   <trkpt lat="37.89271" lon="-122.610502"><ele>363.75</ele></trkpt>
   <trkpt lat="37.892737" lon="-122.610691"><ele>364.5</ele></trkpt>
   <trkpt lat="37.892795" lon="-122.610844"><ele>365.25</ele></trkpt>
   <trkpt lat="37.892795" lon="-122.611032"><ele>363.75</ele></trkpt>
   <trkpt lat="37.89278" lon="-122.611426"><ele>360.25</ele></trkpt>
   <trkpt lat="37.89274" lon="-122.611614"><ele>358.25</ele></trkpt>
   <trkpt lat="37.892694" lon="-122.611775"><ele>357.5</ele></trkpt>
   <trkpt lat="37.892663" lon="-122.611995"><ele>357.75</ele></trkpt>
   <trkpt lat="37.8926" lon="-122.612067"><ele>357.75</ele></trkpt>
   <trkpt lat="37.892511" lon="-122.612145"><ele>358.25</ele></trkpt>
   <trkpt lat="37.892439" lon="-122.612277"><ele>357.5</ele></trkpt>
   <trkpt lat="37.892399" lon="-122.612832"><ele>356.25</ele></trkpt>
   <trkpt lat="37.892378" lon="-122.612982"><ele>355</ele></trkpt>
   <trkpt lat="37.89231" lon="-122.613087"><ele>353</ele></trkpt>
   <trkpt lat="37.892287" lon="-122.613164"><ele>352.25</ele></trkpt>
   <trkpt lat="37.892274" lon="-122.61326"><ele>351.5</ele></trkpt>
   <trkpt lat="37.892289" lon="-122.613392"><ele>350</ele></trkpt>
   <trkpt lat="37.892351" lon="-122.613616"><ele>346.5</ele></trkpt>
   <trkpt lat="37.892378" lon="-122.613629"><ele>346.75</ele></trkpt>
   <trkpt lat="37.892393" lon="-122.61375"><ele>344.25</ele></trkpt>
   <trkpt lat="37.892386" lon="-122.613829"><ele>342.5</ele></trkpt>
   <trkpt lat="37.892377" lon="-122.613847"><ele>342</ele></trkpt>
   <trkpt lat="37.892374" lon="-122.613882"><ele>341.25</ele></trkpt>
   <trkpt lat="37.892381" lon="-122.613938"><ele>340</ele></trkpt>
   <trkpt lat="37.892323" lon="-122.614147"><ele>335</ele></trkpt>
   <trkpt lat="37.892283" lon="-122.614218"><ele>333.25</ele></trkpt>
   <trkpt lat="37.892275" lon="-122.614302"><ele>331.75</ele></trkpt>
   <trkpt lat="37.892229" lon="-122.614519"><ele>327.5</ele></trkpt>
   <trkpt lat="37.892192" lon="-122.614741"><ele>323</ele></trkpt>
   <trkpt lat="37.892159" lon="-122.614841"><ele>321</ele></trkpt>
   <trkpt lat="37.892142" lon="-122.614959"><ele>318.5</ele></trkpt>
   <trkpt lat="37.892013" lon="-122.61534"><ele>311.75</ele></trkpt>
   <trkpt lat="37.891934" lon="-122.61553"><ele>308</ele></trkpt>
   <trkpt lat="37.8919" lon="-122.615681"><ele>305.25</ele></trkpt>
   <trkpt lat="37.891855" lon="-122.615829"><ele>302.5</ele></trkpt>
   <trkpt lat="37.891822" lon="-122.615907"><ele>300.75</ele></trkpt>
   <trkpt lat="37.89181" lon="-122.616032"><ele>298.75</ele></trkpt>
   <trkpt lat="37.891797" lon="-122.61608"><ele>297.75</ele></trkpt>
   <trkpt lat="37.891803" lon="-122.616184"><ele>296.25</ele></trkpt>
   <trkpt lat="37.891824" lon="-122.616245"><ele>295.75</ele></trkpt>
   <trkpt lat="37.891852" lon="-122.616308"><ele>295</ele></trkpt>
   <trkpt lat="37.891891" lon="-122.616344"><ele>294.75</ele></trkpt>
   <trkpt lat="37.891924" lon="-122.616404"><ele>294.25</ele></trkpt>
   <trkpt lat="37.891931" lon="-122.616424"><ele>294</ele></trkpt>
   <trkpt lat="37.891929" lon="-122.616488"><ele>293</ele></trkpt>
   <trkpt lat="37.891953" lon="-122.616567"><ele>291.75</ele></trkpt>
   <trkpt lat="37.891957" lon="-122.616664"><ele>290.25</ele></trkpt>
   <trkpt lat="37.891997" lon="-122.616743"><ele>290.25</ele></trkpt>
   <trkpt lat="37.892011" lon="-122.616785"><ele>290</ele></trkpt>
   <trkpt lat="37.892012" lon="-122.616822"><ele>289.75</ele></trkpt>
   <trkpt lat="37.892061" lon="-122.616893"><ele>289.5</ele></trkpt>
   <trkpt lat="37.892058" lon="-122.616927"><ele>289.25</ele></trkpt>
   <trkpt lat="37.892028" lon="-122.616953"><ele>289</ele></trkpt>
   <trkpt lat="37.892019" lon="-122.616969"><ele>288.75</ele></trkpt>
   <trkpt lat="37.892027" lon="-122.617003"><ele>288.5</ele></trkpt>
   <trkpt lat="37.892016" lon="-122.617048"><ele>288.25</ele></trkpt>
   <trkpt lat="37.892012" lon="-122.617137"><ele>287.5</ele></trkpt>
   <trkpt lat="37.892021" lon="-122.617149"><ele>287.5</ele></trkpt>
   <trkpt lat="37.892029" lon="-122.617189"><ele>287.25</ele></trkpt>
   <trkpt lat="37.892038" lon="-122.617203"><ele>287.25</ele></trkpt>
   <trkpt lat="37.89205" lon="-122.617267"><ele>287</ele></trkpt>
   <trkpt lat="37.892069" lon="-122.617282"><ele>286.75</ele></trkpt>
   <trkpt lat="37.892087" lon="-122.617315"><ele>286.75</ele></trkpt>
   <trkpt lat="37.892162" lon="-122.617499"><ele>285.75</ele></trkpt>
   <trkpt lat="37.892217" lon="-122.617663"><ele>283</ele></trkpt>
   <trkpt lat="37.892249" lon="-122.617924"><ele>278.5</ele></trkpt>
   <trkpt lat="37.8923" lon="-122.618266"><ele>272.25</ele></trkpt>
   <trkpt lat="37.892339" lon="-122.618364"><ele>269.75</ele></trkpt>
   <trkpt lat="37.892225" lon="-122.618309"><ele>272</ele></trkpt>
   <trkpt lat="37.892068" lon="-122.618196"><ele>274.5</ele></trkpt>
   <trkpt lat="37.891959" lon="-122.618081"><ele>276.75</ele></trkpt>
   <trkpt lat="37.891895" lon="-122.618"><ele>278</ele></trkpt>
   <trkpt lat="37.891825" lon="-122.617979"><ele>278.5</ele></trkpt>
   <trkpt lat="37.891825" lon="-122.618022"><ele>277.75</ele></trkpt>
   <trkpt lat="37.891829" lon="-122.618226"><ele>275.25</ele></trkpt>
   <trkpt lat="37.891895" lon="-122.618579"><ele>267.25</ele></trkpt>
   <trkpt lat="37.8919" lon="-122.618674"><ele>264.5</ele></trkpt>
   <trkpt lat="37.891919" lon="-122.618751"><ele>262.25</ele></trkpt>
   <trkpt lat="37.891963" lon="-122.618846"><ele>259.25</ele></trkpt>
   <trkpt lat="37.891973" lon="-122.618888"><ele>257.75</ele></trkpt>
   <trkpt lat="37.892031" lon="-122.618976"><ele>254.5</ele></trkpt>
   <trkpt lat="37.892125" lon="-122.619108"><ele>248.75</ele></trkpt>
   <trkpt lat="37.892215" lon="-122.619215"><ele>243</ele></trkpt>
   <trkpt lat="37.892231" lon="-122.619251"><ele>241.25</ele></trkpt>
   <trkpt lat="37.892284" lon="-122.619313"><ele>237.75</ele></trkpt>
   <trkpt lat="37.892341" lon="-122.619362"><ele>234.5</ele></trkpt>
   <trkpt lat="37.892382" lon="-122.61942"><ele>231.5</ele></trkpt>
   <trkpt lat="37.892398" lon="-122.619503"><ele>228</ele></trkpt>
   <trkpt lat="37.892361" lon="-122.619551"><ele>226.75</ele></trkpt>
   <trkpt lat="37.892341" lon="-122.619576"><ele>226.25</ele></trkpt>
   <trkpt lat="37.892365" lon="-122.619646"><ele>223</ele></trkpt>
   <trkpt lat="37.892403" lon="-122.619723"><ele>219.25</ele></trkpt>
   <trkpt lat="37.892414" lon="-122.619773"><ele>216.25</ele></trkpt>
   <trkpt lat="37.892419" lon="-122.619792"><ele>216.25</ele></trkpt>
   <trkpt lat="37.892422" lon="-122.61983"><ele>214.75</ele></trkpt>
   <trkpt lat="37.892407" lon="-122.619851"><ele>214.25</ele></trkpt>
   <trkpt lat="37.892394" lon="-122.619917"><ele>211.75</ele></trkpt>
   <trkpt lat="37.892352" lon="-122.620047"><ele>209</ele></trkpt>
   <trkpt lat="37.892333" lon="-122.620092"><ele>209</ele></trkpt>
   <trkpt lat="37.892323" lon="-122.620116"><ele>209</ele></trkpt>
   <trkpt lat="37.892269" lon="-122.620199"><ele>209</ele></trkpt>
   <trkpt lat="37.892162" lon="-122.620308"><ele>208.5</ele></trkpt>
   <trkpt lat="37.892044" lon="-122.620391"><ele>207.5</ele></trkpt>
   <trkpt lat="37.892007" lon="-122.620408"><ele>207.25</ele></trkpt>
   <trkpt lat="37.891959" lon="-122.620482"><ele>205.75</ele></trkpt>
   <trkpt lat="37.891904" lon="-122.620526"><ele>204.75</ele></trkpt>
   <trkpt lat="37.891837" lon="-122.620629"><ele>201.75</ele></trkpt>
   <trkpt lat="37.891792" lon="-122.620729"><ele>198.75</ele></trkpt>
   <trkpt lat="37.891781" lon="-122.620781"><ele>197</ele></trkpt>
   <trkpt lat="37.891763" lon="-122.620815"><ele>196</ele></trkpt>
   <trkpt lat="37.891731" lon="-122.620848"><ele>194.75</ele></trkpt>
   <trkpt lat="37.891708" lon="-122.620886"><ele>194.25</ele></trkpt>
   <trkpt lat="37.891668" lon="-122.620926"><ele>193.25</ele></trkpt>
   <trkpt lat="37.891595" lon="-122.621024"><ele>191.5</ele></trkpt>
   <trkpt lat="37.891434" lon="-122.621152"><ele>188.5</ele></trkpt>
   <trkpt lat="37.891372" lon="-122.621174"><ele>187.5</ele></trkpt>
   <trkpt lat="37.891346" lon="-122.621218"><ele>186.75</ele></trkpt>
   <trkpt lat="37.8913" lon="-122.621387"><ele>184.5</ele></trkpt>
   <trkpt lat="37.891234" lon="-122.621581"><ele>181.5</ele></trkpt>
   <trkpt lat="37.891213" lon="-122.622008"><ele>182.75</ele></trkpt>
   <trkpt lat="37.891323" lon="-122.622383"><ele>186.25</ele></trkpt>
   <trkpt lat="37.891386" lon="-122.62274"><ele>187.5</ele></trkpt>
   <trkpt lat="37.891418" lon="-122.622984"><ele>187.5</ele></trkpt>
   <trkpt lat="37.891411" lon="-122.623061"><ele>187.5</ele></trkpt>
   <trkpt lat="37.891414" lon="-122.623118"><ele>187.5</ele></trkpt>
   <trkpt lat="37.891436" lon="-122.62318"><ele>187.5</ele></trkpt>
   <trkpt lat="37.891408" lon="-122.623251"><ele>187.75</ele></trkpt>
   <trkpt lat="37.891379" lon="-122.623292"><ele>188</ele></trkpt>
   <trkpt lat="37.891368" lon="-122.623331"><ele>188</ele></trkpt>
   <trkpt lat="37.891372" lon="-122.623671"><ele>188.5</ele></trkpt>
   <trkpt lat="37.891356" lon="-122.623816"><ele>188.75</ele></trkpt>
   <trkpt lat="37.89118" lon="-122.624711"><ele>186</ele></trkpt>
   <trkpt lat="37.891127" lon="-122.624983"><ele>186</ele></trkpt>
   <trkpt lat="37.891131" lon="-122.625013"><ele>185.5</ele></trkpt>
   <trkpt lat="37.891219" lon="-122.625242"><ele>179.75</ele></trkpt>
   <trkpt lat="37.89123" lon="-122.625317"><ele>178</ele></trkpt>
   <trkpt lat="37.891236" lon="-122.625433"><ele>175.25</ele></trkpt>
   <trkpt lat="37.891215" lon="-122.625477"><ele>174.5</ele></trkpt>
   <trkpt lat="37.891103" lon="-122.625518"><ele>173.75</ele></trkpt>
   <trkpt lat="37.890715" lon="-122.625798"><ele>170</ele></trkpt>
   <trkpt lat="37.890712" lon="-122.625819"><ele>169.5</ele></trkpt>
   <trkpt lat="37.890726" lon="-122.625827"><ele>169</ele></trkpt>
   <trkpt lat="37.890832" lon="-122.625802"><ele>167.75</ele></trkpt>
   <trkpt lat="37.890955" lon="-122.625799"><ele>167.5</ele></trkpt>
   <trkpt lat="37.891036" lon="-122.625816"><ele>167</ele></trkpt>
   <trkpt lat="37.891174" lon="-122.625907"><ele>165</ele></trkpt>
   <trkpt lat="37.891494" lon="-122.626177"><ele>160.25</ele></trkpt>
   <trkpt lat="37.891573" lon="-122.626262"><ele>159</ele></trkpt>
   <trkpt lat="37.89169" lon="-122.626438"><ele>156.5</ele></trkpt>
   <trkpt lat="37.891736" lon="-122.626538"><ele>155.25</ele></trkpt>
   <trkpt lat="37.891782" lon="-122.626731"><ele>153</ele></trkpt>
   <trkpt lat="37.89187" lon="-122.62753"><ele>145.5</ele></trkpt>
   <trkpt lat="37.891891" lon="-122.627824"><ele>145.25</ele></trkpt>
   <trkpt lat="37.891857" lon="-122.628125"><ele>145.25</ele></trkpt>
   <trkpt lat="37.891865" lon="-122.628203"><ele>145</ele></trkpt>
   <trkpt lat="37.892066" lon="-122.628599"><ele>144.75</ele></trkpt>
   <trkpt lat="37.89219" lon="-122.628909"><ele>145</ele></trkpt>
   <trkpt lat="37.892494" lon="-122.629563"><ele>143.5</ele></trkpt>
   <trkpt lat="37.892837" lon="-122.630257"><ele>139.5</ele></trkpt>
   <trkpt lat="37.893084" lon="-122.63071"><ele>130</ele></trkpt>
   <trkpt lat="37.893259" lon="-122.631029"><ele>130</ele></trkpt>
   <trkpt lat="37.893585" lon="-122.631532"><ele>125.75</ele></trkpt>
   <trkpt lat="37.893671" lon="-122.631723"><ele>123.75</ele></trkpt>
   <trkpt lat="37.893686" lon="-122.631816"><ele>122.25</ele></trkpt>
   <trkpt lat="37.893828" lon="-122.632033"><ele>119</ele></trkpt>
   <trkpt lat="37.894059" lon="-122.632153"><ele>117.75</ele></trkpt>
   <trkpt lat="37.894105" lon="-122.632241"><ele>116.75</ele></trkpt>
   <trkpt lat="37.894165" lon="-122.632433"><ele>114</ele></trkpt>
   <trkpt lat="37.894246" lon="-122.632616"><ele>111</ele></trkpt>
   <trkpt lat="37.89434" lon="-122.632744"><ele>109.25</ele></trkpt>
   <trkpt lat="37.894536" lon="-122.632944"><ele>106.75</ele></trkpt>
   <trkpt lat="37.894684" lon="-122.63306"><ele>105.75</ele></trkpt>
   <trkpt lat="37.894808" lon="-122.63313"><ele>105.5</ele></trkpt>
   <trkpt lat="37.894975" lon="-122.633153"><ele>106</ele></trkpt>
   <trkpt lat="37.895082" lon="-122.633135"><ele>104.75</ele></trkpt>
   <trkpt lat="37.895342" lon="-122.633008"><ele>101.25</ele></trkpt>
   <trkpt lat="37.895416" lon="-122.632945"><ele>100.25</ele></trkpt>
   <trkpt lat="37.895451" lon="-122.632847"><ele>100</ele></trkpt>
   <trkpt lat="37.895445" lon="-122.632729"><ele>100.75</ele></trkpt>
   <trkpt lat="37.895408" lon="-122.632628"><ele>102</ele></trkpt>
   <trkpt lat="37.895397" lon="-122.632546"><ele>102.5</ele></trkpt>
   <trkpt lat="37.895408" lon="-122.632492"><ele>102.5</ele></trkpt>
   <trkpt lat="37.895428" lon="-122.632467"><ele>102.5</ele></trkpt>
   <trkpt lat="37.895449" lon="-122.632459"><ele>102.25</ele></trkpt>
   <trkpt lat="37.895471" lon="-122.632458"><ele>102</ele></trkpt>
   <trkpt lat="37.895497" lon="-122.632469"><ele>101.25</ele></trkpt>
   <trkpt lat="37.895612" lon="-122.632563"><ele>98.5</ele></trkpt>
   <trkpt lat="37.895815" lon="-122.63266"><ele>94.5</ele></trkpt>
   <trkpt lat="37.895917" lon="-122.632751"><ele>92.5</ele></trkpt>
   <trkpt lat="37.896083" lon="-122.632942"><ele>88</ele></trkpt>
   <trkpt lat="37.896135" lon="-122.633019"><ele>86.5</ele></trkpt>
   <trkpt lat="37.896165" lon="-122.633098"><ele>85</ele></trkpt>
   <trkpt lat="37.89631" lon="-122.633722"><ele>74.75</ele></trkpt>
   <trkpt lat="37.896306" lon="-122.633959"><ele>72</ele></trkpt>
   <trkpt lat="37.896404" lon="-122.63404"><ele>69</ele></trkpt>
   <trkpt lat="37.896536" lon="-122.634563"><ele>60</ele></trkpt>
   <trkpt lat="37.896565" lon="-122.634754"><ele>57.25</ele></trkpt>
   <trkpt lat="37.896567" lon="-122.63489"><ele>55.5</ele></trkpt>
   <trkpt lat="37.896551" lon="-122.635032"><ele>54</ele></trkpt>
   <trkpt lat="37.896505" lon="-122.635166"><ele>52.75</ele></trkpt>
   <trkpt lat="37.896505" lon="-122.635253"><ele>51.5</ele></trkpt>
   <trkpt lat="37.896529" lon="-122.63531"><ele>50.25</ele></trkpt>
   <trkpt lat="37.896562" lon="-122.635368"><ele>49.25</ele></trkpt>
   <trkpt lat="37.896577" lon="-122.635474"><ele>47.5</ele></trkpt>
   <trkpt lat="37.896569" lon="-122.635581"><ele>46</ele></trkpt>
   <trkpt lat="37.896608" lon="-122.635705"><ele>44</ele></trkpt>
   <trkpt lat="37.896544" lon="-122.635869"><ele>42.25</ele></trkpt>
   <trkpt lat="37.896549" lon="-122.635922"><ele>41.5</ele></trkpt>
   <trkpt lat="37.896596" lon="-122.635968"><ele>40.75</ele></trkpt>
   <trkpt lat="37.896739" lon="-122.636119"><ele>38.5</ele></trkpt>
   <trkpt lat="37.896878" lon="-122.636141"><ele>37.75</ele></trkpt>
   <trkpt lat="37.896974" lon="-122.636174"><ele>37.25</ele></trkpt>
   <trkpt lat="37.897054" lon="-122.636242"><ele>36</ele></trkpt>
   <trkpt lat="37.897265" lon="-122.636448"><ele>32.75</ele></trkpt>
   <trkpt lat="37.8975" lon="-122.636714"><ele>28.25</ele></trkpt>
   <trkpt lat="37.897506" lon="-122.636709"><ele>28.25</ele></trkpt>
   <trkpt lat="37.897849" lon="-122.63709"><ele>23.25</ele></trkpt>
   <trkpt lat="37.897861" lon="-122.637115"><ele>22.75</ele></trkpt>
   <trkpt lat="37.897866" lon="-122.637144"><ele>22.5</ele></trkpt>
  </trkseg>
 </trk>
</gpx>