<?xml version="1.0" encoding="UTF-8"?>
<!-- track-length = 12539 filtered ascend = 682 plain-ascend = 29 cost=14245 energy=0.1kwh time=2h 57m 45s -->
<gpx 
 xmlns="http://www.topografix.com/GPX/1/1" 
 xmlns:xsi="http://www.w3.org/2001/XMLSchema-instance" 
 xsi:schemaLocation="http://www.topografix.com/GPX/1/1 http://www.topografix.com/GPX/1/1/gpx.xsd" 
 version="1.1" 
 creator="BRouter-Web 0.18.1">
 <trk>
  <name>eaglepeak</name>
  <trkseg>
   <trkpt lat="37.920384" lon="-121.94163"><ele>187.75</ele></trkpt>
   <trkpt lat="37.920408" lon="-121.941644"><ele>187.75</ele></trkpt>
   <trkpt lat="37.920276" lon="-121.941833"><ele>188</ele></trkpt>
   <trkpt lat="37.920208" lon="-121.941892"><ele>188</ele></trkpt>
   <trkpt lat="37.920122" lon="-121.941905"><ele>188.5</ele></trkpt>
   <trkpt lat="37.919896" lon="-121.941907"><ele>190.5</ele></trkpt>
   <trkpt lat="37.919769" lon="-121.941951"><ele>191.75</ele></trkpt>
   <trkpt lat="37.919508" lon="-121.942105"><ele>193.25</ele></trkpt>
   <trkpt lat="37.919416" lon="-121.942176"><ele>193.5</ele></trkpt>
   <trkpt lat="37.919397" lon="-121.942161"><ele>193.75</ele></trkpt>
   <trkpt lat="37.919383" lon="-121.942109"><ele>194.5</ele></trkpt>
   <trkpt lat="37.919398" lon="-121.942015"><ele>195.5</ele></trkpt>
   <trkpt lat="37.91939" lon="-121.9419"><ele>197</ele></trkpt>
   <trkpt lat="37.919353" lon="-121.94181"><ele>198.5</ele></trkpt>
   <trkpt lat="37.919252" lon="-121.941634"><ele>201.75</ele></trkpt>
   <trkpt lat="37.919201" lon="-121.941452"><ele>203.75</ele></trkpt>
   <trkpt lat="37.91917" lon="-121.941389"><ele>204.5</ele></trkpt>
   <trkpt lat="37.919116" lon="-121.941358"><ele>206</ele></trkpt>
   <trkpt lat="37.919076" lon="-121.941357"><ele>206.75</ele></trkpt>
   <trkpt lat="37.918995" lon="-121.94136"><ele>208.75</ele></trkpt>
   <trkpt lat="37.918872" lon="-121.941398"><ele>211.5</ele></trkpt>
   <trkpt lat="37.91883" lon="-121.941395"><ele>214.75</ele></trkpt>
   <trkpt lat="37.918731" lon="-121.941386"><ele>214.75</ele></trkpt>
   <trkpt lat="37.918647" lon="-121.941343"><ele>216.75</ele></trkpt>
   <trkpt lat="37.918561" lon="-121.941288"><ele>218.75</ele></trkpt>
   <trkpt lat="37.918359" lon="-121.941137"><ele>223</ele></trkpt>
   <trkpt lat="37.918284" lon="-121.941042"><ele>225.25</ele></trkpt>
   <trkpt lat="37.918247" lon="-121.940929"><ele>226.25</ele></trkpt>
   <trkpt lat="37.918212" lon="-121.940696"><ele>228</ele></trkpt>
   <trkpt lat="37.918197" lon="-121.940344"><ele>230.25</ele></trkpt>
   <trkpt lat="37.918213" lon="-121.940274"><ele>230.25</ele></trkpt>
   <trkpt lat="37.918293" lon="-121.940113"><ele>229</ele></trkpt>
   <trkpt lat="37.918283" lon="-121.939998"><ele>230</ele></trkpt>
   <trkpt lat="37.918257" lon="-121.939884"><ele>231</ele></trkpt>
   <trkpt lat="37.918146" lon="-121.939544"><ele>234.25</ele></trkpt>
   <trkpt lat="37.918111" lon="-121.939401"><ele>236</ele></trkpt>
   <trkpt lat="37.91809" lon="-121.939308"><ele>236</ele></trkpt>
   <trkpt lat="37.917861" lon="-121.939216"><ele>240.25</ele></trkpt>
   <trkpt lat="37.917768" lon="-121.939227"><ele>242</ele></trkpt>
   <trkpt lat="37.917599" lon="-121.939197"><ele>245</ele></trkpt>
   <trkpt lat="37.917407" lon="-121.939198"><ele>252.75</ele></trkpt>
   <trkpt lat="37.917297" lon="-121.939198"><ele>252.75</ele></trkpt>
   <trkpt lat="37.917195" lon="-121.93922"><ele>255.75</ele></trkpt>
   <trkpt lat="37.916902" lon="-121.939429"><ele>265.25</ele></trkpt>
   <trkpt lat="37.916607" lon="-121.939491"><ele>274.75</ele></trkpt>
   <trkpt lat="37.916452" lon="-121.939562"><ele>280.25</ele></trkpt>
   <trkpt lat="37.916364" lon="-121.939569"><ele>283</ele></trkpt>
   <trkpt lat="37.916144" lon="-121.939522"><ele>290</ele></trkpt>
   <trkpt lat="37.916008" lon="-121.939523"><ele>294.25</ele></trkpt>
   <trkpt lat="37.915937" lon="-121.939549"><ele>296.75</ele></trkpt>
   <trkpt lat="37.915891" lon="-121.939593"><ele>298.5</ele></trkpt>
   <trkpt lat="37.915861" lon="-121.939654"><ele>300</ele></trkpt>
   <trkpt lat="37.91586" lon="-121.939724"><ele>300.25</ele></trkpt>
   <trkpt lat="37.916055" lon="-121.940128"><ele>299</ele></trkpt>
   <trkpt lat="37.916222" lon="-121.940407"><ele>300.5</ele></trkpt>
   <trkpt lat="37.916256" lon="-121.940498"><ele>301.5</ele></trkpt>
   <trkpt lat="37.91634" lon="-121.940902"><ele>307</ele></trkpt>
   <trkpt lat="37.916471" lon="-121.941199"><ele>305</ele></trkpt>
   <trkpt lat="37.916503" lon="-121.941363"><ele>305.5</ele></trkpt>
   <trkpt lat="37.916495" lon="-121.941486"><ele>307</ele></trkpt>
   <trkpt lat="37.916439" lon="-121.941726"><ele>311</ele></trkpt>
   <trkpt lat="37.916304" lon="-121.942182"><ele>312</ele></trkpt>
   <trkpt lat="37.916261" lon="-121.942307"><ele>312.5</ele></trkpt>
   <trkpt lat="37.916198" lon="-121.94243"><ele>314.5</ele></trkpt>
   <trkpt lat="37.916153" lon="-121.942491"><ele>316</ele></trkpt>
   <trkpt lat="37.915975" lon="-121.942729"><ele>316</ele></trkpt>
   <trkpt lat="37.915923" lon="-121.942767"><ele>317</ele></trkpt>
   <trkpt lat="37.915853" lon="-121.942762"><ele>320.5</ele></trkpt>
   <trkpt lat="37.915719" lon="-121.942674"><ele>329</ele></trkpt>
   <trkpt lat="37.915598" lon="-121.942659"><ele>333.25</ele></trkpt>
   <trkpt lat="37.9153" lon="-121.942733"><ele>339.25</ele></trkpt>
   <trkpt lat="37.915024" lon="-121.942872"><ele>340.75</ele></trkpt>
   <trkpt lat="37.914775" lon="-121.943128"><ele>333</ele></trkpt>
   <trkpt lat="37.914495" lon="-121.943481"><ele>323.75</ele></trkpt>
   <trkpt lat="37.914428" lon="-121.943536"><ele>323.5</ele></trkpt>
   <trkpt lat="37.9143" lon="-121.943586"><ele>325</ele></trkpt>
   <trkpt lat="37.914238" lon="-121.94359"><ele>326.25</ele></trkpt>
   <trkpt lat="37.914152" lon="-121.943569"><ele>329</ele></trkpt>
   <trkpt lat="37.913871" lon="-121.943441"><ele>340.5</ele></trkpt>
   <trkpt lat="37.913786" lon="-121.943436"><ele>343</ele></trkpt>
   <trkpt lat="37.913739" lon="-121.943484"><ele>343.25</ele></trkpt>
   <trkpt lat="37.913703" lon="-121.943723"><ele>338</ele></trkpt>
   <trkpt lat="37.913656" lon="-121.943893"><ele>334.75</ele></trkpt>
   <trkpt lat="37.913589" lon="-121.944013"><ele>333.5</ele></trkpt>
   <trkpt lat="37.913522" lon="-121.944086"><ele>333.5</ele></trkpt>
   <trkpt lat="37.913079" lon="-121.944291"><ele>342.25</ele></trkpt>
   <trkpt lat="37.912862" lon="-121.944448"><ele>345</ele></trkpt>
   <trkpt lat="37.912367" lon="-121.944715"><ele>345.25</ele></trkpt>
   <trkpt lat="37.912353" lon="-121.944684"><ele>346.25</ele></trkpt>
   <trkpt lat="37.912502" lon="-121.944385"><ele>355.5</ele></trkpt>
   <trkpt lat="37.912652" lon="-121.944013"><ele>362.5</ele></trkpt>
   <trkpt lat="37.913032" lon="-121.943358"><ele>370</ele></trkpt>
   <trkpt lat="37.913227" lon="-121.94274"><ele>378.5</ele></trkpt>
   <trkpt lat="37.913268" lon="-121.942385"><ele>385.75</ele></trkpt>
   <trkpt lat="37.913253" lon="-121.942161"><ele>391.75</ele></trkpt>
   <trkpt lat="37.913275" lon="-121.942064"><ele>393.25</ele></trkpt>
   <trkpt lat="37.913327" lon="-121.941952"><ele>394</ele></trkpt>
   <trkpt lat="37.913423" lon="-121.941899"><ele>394.75</ele></trkpt>
   <trkpt lat="37.913544" lon="-121.94189"><ele>394.5</ele></trkpt>
   <trkpt lat="37.913555" lon="-121.941838"><ele>395.75</ele></trkpt>
   <trkpt lat="37.913419" lon="-121.941749"><ele>398.5</ele></trkpt>
   <trkpt lat="37.913286" lon="-121.941635"><ele>402.75</ele></trkpt>
   <trkpt lat="37.913154" lon="-121.941561"><ele>407.5</ele></trkpt>
   <trkpt lat="37.91309" lon="-121.941561"><ele>410.5</ele></trkpt>
   <trkpt lat="37.913072" lon="-121.94156"><ele>410.5</ele></trkpt>
   <trkpt lat="37.913035" lon="-121.941547"><ele>411.75</ele></trkpt>
   <trkpt lat="37.913028" lon="-121.941501"><ele>412</ele></trkpt>
   <trkpt lat="37.913078" lon="-121.941423"><ele>410.25</ele></trkpt>
   <trkpt lat="37.91314" lon="-121.941364"><ele>408</ele></trkpt>
   <trkpt lat="37.913381" lon="-121.941274"><ele>400.75</ele></trkpt>
   <trkpt lat="37.913424" lon="-121.941187"><ele>400</ele></trkpt>
   <trkpt lat="37.913397" lon="-121.941118"><ele>400.25</ele></trkpt>
   <trkpt lat="37.913338" lon="-121.941028"><ele>401.5</ele></trkpt>
   <trkpt lat="37.913117" lon="-121.94099"><ele>408.75</ele></trkpt>
   <trkpt lat="37.912942" lon="-121.940969"><ele>414.25</ele></trkpt>
   <trkpt lat="37.912832" lon="-121.940909"><ele>417.75</ele></trkpt>
   <trkpt lat="37.912666" lon="-121.940706"><ele>420.5</ele></trkpt>
   <trkpt lat="37.912276" lon="-121.94039"><ele>421.5</ele></trkpt>
   <trkpt lat="37.91218" lon="-121.940287"><ele>420.5</ele></trkpt>
   <trkpt lat="37.912074" lon="-121.940135"><ele>419.75</ele></trkpt>
   <trkpt lat="37.912041" lon="-121.940055"><ele>419.25</ele></trkpt>
   <trkpt lat="37.912025" lon="-121.939959"><ele>419.75</ele></trkpt>
   <trkpt lat="37.912027" lon="-121.939847"><ele>421.75</ele></trkpt>
   <trkpt lat="37.912052" lon="-121.939717"><ele>423.75</ele></trkpt>
   <trkpt lat="37.912123" lon="-121.939575"><ele>425.5</ele></trkpt>
   <trkpt lat="37.912416" lon="-121.939089"><ele>429.75</ele></trkpt>
   <trkpt lat="37.912475" lon="-121.939025"><ele>431.25</ele></trkpt>
   <trkpt lat="37.912643" lon="-121.938901"><ele>430</ele></trkpt>
   <trkpt lat="37.913073" lon="-121.938446"><ele>430.5</ele></trkpt>
   <trkpt lat="37.913492" lon="-121.938159"><ele>419.75</ele></trkpt>
   <trkpt lat="37.91354" lon="-121.938093"><ele>418.5</ele></trkpt>
   <trkpt lat="37.913573" lon="-121.938012"><ele>418.25</ele></trkpt>
   <trkpt lat="37.913584" lon="-121.937948"><ele>418.75</ele></trkpt>
   <trkpt lat="37.913571" lon="-121.937867"><ele>421</ele></trkpt>
   <trkpt lat="37.913453" lon="-121.937593"><ele>434.25</ele></trkpt>
   <trkpt lat="37.913442" lon="-121.937579"><ele>442.25</ele></trkpt>
   <trkpt lat="37.913372" lon="-121.93748"><ele>442.25</ele></trkpt>
   <trkpt lat="37.913246" lon="-121.937383"><ele>449.25</ele></trkpt>
   <trkpt lat="37.913207" lon="-121.937375"><ele>451.25</ele></trkpt>
   <trkpt lat="37.913196" lon="-121.937415"><ele>451.5</ele></trkpt>
   <trkpt lat="37.9132" lon="-121.937443"><ele>451.25</ele></trkpt>
   <trkpt lat="37.913217" lon="-121.937512"><ele>450</ele></trkpt>
   <trkpt lat="37.913201" lon="-121.937517"><ele>450.5</ele></trkpt>
   <trkpt lat="37.913189" lon="-121.937506"><ele>451.5</ele></trkpt>
   <trkpt lat="37.913099" lon="-121.937416"><ele>456</ele></trkpt>
   <trkpt lat="37.912911" lon="-121.937092"><ele>465</ele></trkpt>
   <trkpt lat="37.912697" lon="-121.936849"><ele>474.5</ele></trkpt>
   <trkpt lat="37.912635" lon="-121.936654"><ele>477</ele></trkpt>
   <trkpt lat="37.912616" lon="-121.936446"><ele>473.75</ele></trkpt>
   <trkpt lat="37.91257" lon="-121.936367"><ele>473.75</ele></trkpt>
   <trkpt lat="37.912528" lon="-121.936334"><ele>474.25</ele></trkpt>
   <trkpt lat="37.912453" lon="-121.936355"><ele>475.25</ele></trkpt>
   <trkpt lat="37.912406" lon="-121.936439"><ele>476.75</ele></trkpt>
   <trkpt lat="37.912378" lon="-121.93652"><ele>478.75</ele></trkpt>
   <trkpt lat="37.912305" lon="-121.936957"><ele>484.75</ele></trkpt>
   <trkpt lat="37.912324" lon="-121.937218"><ele>486.5</ele></trkpt>
   <trkpt lat="37.912304" lon="-121.937248"><ele>487</ele></trkpt>
   <trkpt lat="37.912241" lon="-121.937225"><ele>488</ele></trkpt>
   <trkpt lat="37.912216" lon="-121.937192"><ele>488</ele></trkpt>
   <trkpt lat="37.912167" lon="-121.937182"><ele>488.75</ele></trkpt>
   <trkpt lat="37.912147" lon="-121.937231"><ele>489.75</ele></trkpt>
   <trkpt lat="37.91215" lon="-121.9373"><ele>490.5</ele></trkpt>
   <trkpt lat="37.912029" lon="-121.937302"><ele>493</ele></trkpt>
   <trkpt lat="37.911986" lon="-121.93736"><ele>495</ele></trkpt>
   <trkpt lat="37.911861" lon="-121.937369"><ele>497.75</ele></trkpt>
   <trkpt lat="37.911664" lon="-121.937357"><ele>501.75</ele></trkpt>
   <trkpt lat="37.911504" lon="-121.937409"><ele>503.5</ele></trkpt>
   <trkpt lat="37.911316" lon="-121.937342"><ele>502</ele></trkpt>
   <trkpt lat="37.911196" lon="-121.937358"><ele>502.5</ele></trkpt>
   <trkpt lat="37.911049" lon="-121.937407"><ele>504</ele></trkpt>
   <trkpt lat="37.910951" lon="-121.937409"><ele>504.25</ele></trkpt>
   <trkpt lat="37.910913" lon="-121.937427"><ele>504.75</ele></trkpt>
   <trkpt lat="37.910846" lon="-121.937386"><ele>503.75</ele></trkpt>
   <trkpt lat="37.910735" lon="-121.937405"><ele>504.25</ele></trkpt>
   <trkpt lat="37.910628" lon="-121.93737"><ele>503.25</ele></trkpt>
   <trkpt lat="37.910526" lon="-121.937395"><ele>503.5</ele></trkpt>
   <trkpt lat="37.910461" lon="-121.937394"><ele>503.5</ele></trkpt>
   <trkpt lat="37.910324" lon="-121.93731"><ele>502</ele></trkpt>
   <trkpt lat="37.910222" lon="-121.937291"><ele>502</ele></trkpt>
   <trkpt lat="37.910137" lon="-121.93724"><ele>501.75</ele></trkpt>
   <trkpt lat="37.910033" lon="-121.937179"><ele>501.5</ele></trkpt>
   <trkpt lat="37.909952" lon="-121.93707"><ele>501.75</ele></trkpt>
   <trkpt lat="37.909763" lon="-121.936928"><ele>504</ele></trkpt>
   <trkpt lat="37.90966" lon="-121.936925"><ele>505.5</ele></trkpt>
   <trkpt lat="37.909291" lon="-121.936569"><ele>517</ele></trkpt>
   <trkpt lat="37.909005" lon="-121.936354"><ele>519.5</ele></trkpt>
   <trkpt lat="37.908833" lon="-121.936272"><ele>521</ele></trkpt>
   <trkpt lat="37.908504" lon="-121.936048"><ele>524.75</ele></trkpt>
   <trkpt lat="37.908048" lon="-121.936041"><ele>536.75</ele></trkpt>
   <trkpt lat="37.907819" lon="-121.935975"><ele>544.75</ele></trkpt>
   <trkpt lat="37.90751" lon="-121.935998"><ele>554.5</ele></trkpt>
   <trkpt lat="37.907267" lon="-121.935953"><ele>559.75</ele></trkpt>
   <trkpt lat="37.907008" lon="-121.935961"><ele>564</ele></trkpt>
   <trkpt lat="37.906852" lon="-121.936035"><ele>566.25</ele></trkpt>
   <trkpt lat="37.906787" lon="-121.936106"><ele>566.75</ele></trkpt>
   <trkpt lat="37.906536" lon="-121.935853"><ele>574.75</ele></trkpt>
   <trkpt lat="37.906313" lon="-121.935876"><ele>581.75</ele></trkpt>
   <trkpt lat="37.906169" lon="-121.93604"><ele>587.5</ele></trkpt>
   <trkpt lat="37.906091" lon="-121.936207"><ele>595</ele></trkpt>
   <trkpt lat="37.906042" lon="-121.936312"><ele>595</ele></trkpt>
   <trkpt lat="37.905978" lon="-121.936361"><ele>598.25</ele></trkpt>
   <trkpt lat="37.905645" lon="-121.936787"><ele>618</ele></trkpt>
   <trkpt lat="37.905509" lon="-121.936982"><ele>623</ele></trkpt>
   <trkpt lat="37.9054" lon="-121.937191"><ele>627</ele></trkpt>
   <trkpt lat="37.905312" lon="-121.93738"><ele>630.5</ele></trkpt>
   <trkpt lat="37.905223" lon="-121.937614"><ele>634.75</ele></trkpt>
   <trkpt lat="37.905142" lon="-121.93795"><ele>639</ele></trkpt>
   <trkpt lat="37.90512" lon="-121.938106"><ele>640</ele></trkpt>
   <trkpt lat="37.905116" lon="-121.938552"><ele>639</ele></trkpt>
   <trkpt lat="37.905101" lon="-121.938643"><ele>639.5</ele></trkpt>
   <trkpt lat="37.905107" lon="-121.938942"><ele>638</ele></trkpt>
   <trkpt lat="37.905046" lon="-121.939194"><ele>639.75</ele></trkpt>
   <trkpt lat="37.905" lon="-121.939184"><ele>642.5</ele></trkpt>
   <trkpt lat="37.904982" lon="-121.938933"><ele>644.25</ele></trkpt>
   <trkpt lat="37.904954" lon="-121.938762"><ele>645.75</ele></trkpt>
   <trkpt lat="37.904833" lon="-121.938549"><ele>650.75</ele></trkpt>
   <trkpt lat="37.904726" lon="-121.938316"><ele>657.5</ele></trkpt>
   <trkpt lat="37.904661" lon="-121.938117"><ele>661.25</ele></trkpt>
   <trkpt lat="37.904613" lon="-121.937726"><ele>666</ele></trkpt>
   <trkpt lat="37.904595" lon="-121.937276"><ele>665.25</ele></trkpt>
   <trkpt lat="37.904558" lon="-121.937219"><ele>665.75</ele></trkpt>
   <trkpt lat="37.904532" lon="-121.937213"><ele>666.5</ele></trkpt>
   <trkpt lat="37.904478" lon="-121.93725"><ele>669.25</ele></trkpt>
   <trkpt lat="37.904367" lon="-121.937466"><ele>678.5</ele></trkpt>
   <trkpt lat="37.904135" lon="-121.937843"><ele>685.25</ele></trkpt>
   <trkpt lat="37.904023" lon="-121.937972"><ele>685</ele></trkpt>
   <trkpt lat="37.903914" lon="-121.938014"><ele>685.75</ele></trkpt>
   <trkpt lat="37.903145" lon="-121.938073"><ele>693.75</ele></trkpt>
   <trkpt lat="37.902987" lon="-121.938"><ele>696.25</ele></trkpt>
   <trkpt lat="37.902833" lon="-121.93802"><ele>697.75</ele></trkpt>
   <trkpt lat="37.902735" lon="-121.93797"><ele>698.5</ele></trkpt>
   <trkpt lat="37.902674" lon="-121.93796"><ele>699</ele></trkpt>
   <trkpt lat="37.902464" lon="-121.938092"><ele>706</ele></trkpt>
   <trkpt lat="37.902054" lon="-121.938347"><ele>706</ele></trkpt>
   <trkpt lat="37.901878" lon="-121.938399"><ele>704.75</ele></trkpt>
   <trkpt lat="37.901788" lon="-121.938309"><ele>705.75</ele></trkpt>
   <trkpt lat="37.901752" lon="-121.938177"><ele>700.75</ele></trkpt>
   <trkpt lat="37.901697" lon="-121.938175"><ele>700.5</ele></trkpt>
   <trkpt lat="37.901633" lon="-121.93813"><ele>697.5</ele></trkpt>
   <trkpt lat="37.901467" lon="-121.938162"><ele>693.75</ele></trkpt>
   <trkpt lat="37.901309" lon="-121.938048"><ele>685.5</ele></trkpt>
   <trkpt lat="37.901076" lon="-121.937842"><ele>674.25</ele></trkpt>
   <trkpt lat="37.900207" lon="-121.937398"><ele>651.5</ele></trkpt>
   <trkpt lat="37.899775" lon="-121.937126"><ele>636.5</ele></trkpt>
   <trkpt lat="37.899696" lon="-121.937059"><ele>634.5</ele></trkpt>
   <trkpt lat="37.899661" lon="-121.936998"><ele>633.5</ele></trkpt>
   <trkpt lat="37.899599" lon="-121.93679"><ele>631</ele></trkpt>
   <trkpt lat="37.899549" lon="-121.936698"><ele>630.75</ele></trkpt>
   <trkpt lat="37.899478" lon="-121.936612"><ele>630</ele></trkpt>
   <trkpt lat="37.899312" lon="-121.936479"><ele>628.75</ele></trkpt>
   <trkpt lat="37.898865" lon="-121.936235"><ele>620.25</ele></trkpt>
   <trkpt lat="37.898748" lon="-121.93613"><ele>618.25</ele></trkpt>
   <trkpt lat="37.898172" lon="-121.935517"><ele>613.25</ele></trkpt>
   <trkpt lat="37.89786" lon="-121.935004"><ele>613</ele></trkpt>
   <trkpt lat="37.897418" lon="-121.934145"><ele>627</ele></trkpt>
   <trkpt lat="37.897238" lon="-121.933877"><ele>624</ele></trkpt>
   <trkpt lat="37.897181" lon="-121.933738"><ele>624.75</ele></trkpt>
   <trkpt lat="37.897102" lon="-121.933359"><ele>630.75</ele></trkpt>
   <trkpt lat="37.897055" lon="-121.933214"><ele>633.25</ele></trkpt>
   <trkpt lat="37.896871" lon="-121.932741"><ele>647</ele></trkpt>
   <trkpt lat="37.896732" lon="-121.932494"><ele>659.5</ele></trkpt>
   <trkpt lat="37.896316" lon="-121.931904"><ele>674</ele></trkpt>
   <trkpt lat="37.896053" lon="-121.931627"><ele>687.5</ele></trkpt>
   <trkpt lat="37.895937" lon="-121.931376"><ele>693.75</ele></trkpt>
   <trkpt lat="37.895822" lon="-121.93119"><ele>701</ele></trkpt>
   <trkpt lat="37.895756" lon="-121.931081"><ele>701</ele></trkpt>
   <trkpt lat="37.895721" lon="-121.931004"><ele>702</ele></trkpt>
   <trkpt lat="37.895671" lon="-121.930766"><ele>704</ele></trkpt>
   <trkpt lat="37.895628" lon="-121.930642"><ele>702.25</ele></trkpt>
   <trkpt lat="37.895276" lon="-121.929946"><ele>702.75</ele></trkpt>
   <trkpt lat="37.895239" lon="-121.929832"><ele>703.25</ele></trkpt>
   <trkpt lat="37.895018" lon="-121.929651"><ele>709.75</ele></trkpt>
   <trkpt lat="37.89495" lon="-121.929671"><ele>710</ele></trkpt>
   <trkpt lat="37.894928" lon="-121.929668"><ele>709.75</ele></trkpt>
   <trkpt lat="37.894901" lon="-121.929652"><ele>709.5</ele></trkpt>
   <trkpt lat="37.894884" lon="-121.929621"><ele>709.75</ele></trkpt>
   <trkpt lat="37.8949" lon="-121.929571"><ele>710</ele></trkpt>
   <trkpt lat="37.894897" lon="-121.929486"><ele>710.25</ele></trkpt>
   <trkpt lat="37.894848" lon="-121.929476"><ele>710.25</ele></trkpt>
   <trkpt lat="37.894755" lon="-121.929448"><ele>710.25</ele></trkpt>
   <trkpt lat="37.894419" lon="-121.929282"><ele>713</ele></trkpt>
   <trkpt lat="37.894248" lon="-121.929219"><ele>715</ele></trkpt>
   <trkpt lat="37.894036" lon="-121.929177"><ele>714.5</ele></trkpt>
   <trkpt lat="37.893847" lon="-121.929109"><ele>713</ele></trkpt>
   <trkpt lat="37.89373" lon="-121.929049"><ele>712.5</ele></trkpt>
   <trkpt lat="37.893566" lon="-121.928914"><ele>713.25</ele></trkpt>
   <trkpt lat="37.893451" lon="-121.928848"><ele>713.25</ele></trkpt>
   <trkpt lat="37.893278" lon="-121.928684"><ele>715.25</ele></trkpt>
   <trkpt lat="37.893079" lon="-121.928577"><ele>716.75</ele></trkpt>
   <trkpt lat="37.892902" lon="-121.928599"><ele>715</ele></trkpt>
   <trkpt lat="37.892817" lon="-121.928638"><ele>713.5</ele></trkpt>
   <trkpt lat="37.892681" lon="-121.928786"><ele>708</ele></trkpt>
   <trkpt lat="37.89256" lon="-121.928955"><ele>702</ele></trkpt>
   <trkpt lat="37.89249" lon="-121.929026"><ele>699.25</ele></trkpt>
   <trkpt lat="37.892227" lon="-121.929222"><ele>693.5</ele></trkpt>
   <trkpt lat="37.89212" lon="-121.929345"><ele>690.5</ele></trkpt>
   <trkpt lat="37.892069" lon="-121.929439"><ele>688.25</ele></trkpt>
   <trkpt lat="37.891802" lon="-121.930263"><ele>669.5</ele></trkpt>
   <trkpt lat="37.891797" lon="-121.930376"><ele>666.25</ele></trkpt>
   <trkpt lat="37.891813" lon="-121.930463"><ele>664</ele></trkpt>
   <trkpt lat="37.891814" lon="-121.930578"><ele>660.75</ele></trkpt>
   <trkpt lat="37.891798" lon="-121.930688"><ele>657.5</ele></trkpt>
   <trkpt lat="37.891714" lon="-121.930807"><ele>653.75</ele></trkpt>
   <trkpt lat="37.891609" lon="-121.930894"><ele>650.75</ele></trkpt>
   <trkpt lat="37.89139" lon="-121.931193"><ele>642</ele></trkpt>
   <trkpt lat="37.891307" lon="-121.931238"><ele>640.5</ele></trkpt>
   <trkpt lat="37.891271" lon="-121.931238"><ele>640</ele></trkpt>
   <trkpt lat="37.891117" lon="-121.931175"><ele>640</ele></trkpt>
   <trkpt lat="37.891028" lon="-121.931178"><ele>639</ele></trkpt>
   <trkpt lat="37.89087" lon="-121.931287"><ele>635.5</ele></trkpt>
   <trkpt lat="37.890767" lon="-121.931411"><ele>632</ele></trkpt>
   <trkpt lat="37.890608" lon="-121.931516"><ele>628.75</ele></trkpt>
   <trkpt lat="37.890481" lon="-121.931517"><ele>627.5</ele></trkpt>
   <trkpt lat="37.890398" lon="-121.931475"><ele>627.25</ele></trkpt>
   <trkpt lat="37.890355" lon="-121.931439"><ele>627.25</ele></trkpt>
   <trkpt lat="37.890323" lon="-121.931411"><ele>627.25</ele></trkpt>
   <trkpt lat="37.890128" lon="-121.931174"><ele>627.25</ele></trkpt>
   <trkpt lat="37.889976" lon="-121.931053"><ele>626.75</ele></trkpt>
   <trkpt lat="37.889864" lon="-121.930938"><ele>629.25</ele></trkpt>
   <trkpt lat="37.889691" lon="-121.930505"><ele>634.5</ele></trkpt>
   <trkpt lat="37.889623" lon="-121.930379"><ele>635.5</ele></trkpt>
   <trkpt lat="37.889575" lon="-121.930321"><ele>635.75</ele></trkpt>
   <trkpt lat="37.889538" lon="-121.930294"><ele>635.75</ele></trkpt>
   <trkpt lat="37.889501" lon="-121.930284"><ele>635.75</ele></trkpt>
   <trkpt lat="37.889437" lon="-121.930299"><ele>635.5</ele></trkpt>
   <trkpt lat="37.889413" lon="-121.930323"><ele>635.5</ele></trkpt>
   <trkpt lat="37.889387" lon="-121.930374"><ele>635.5</ele></trkpt>
   <trkpt lat="37.889345" lon="-121.930526"><ele>636</ele></trkpt>
   <trkpt lat="37.889318" lon="-121.930895"><ele>637.25</ele></trkpt>
   <trkpt lat="37.889379" lon="-121.931324"><ele>637.75</ele></trkpt>
   <trkpt lat="37.889393" lon="-121.931616"><ele>638.5</ele></trkpt>
   <trkpt lat="37.889339" lon="-121.931933"><ele>640.25</ele></trkpt>
   <trkpt lat="37.889108" lon="-121.932234"><ele>646.75</ele></trkpt>
   <trkpt lat="37.888932" lon="-121.932551"><ele>651.25</ele></trkpt>
   <trkpt lat="37.888892" lon="-121.932826"><ele>652.75</ele></trkpt>
   <trkpt lat="37.888824" lon="-121.933058"><ele>654.25</ele></trkpt>
   <trkpt lat="37.888695" lon="-121.933341"><ele>655.25</ele></trkpt>
   <trkpt lat="37.888741" lon="-121.933863"><ele>654</ele></trkpt>
   <trkpt lat="37.888865" lon="-121.934036"><ele>653</ele></trkpt>
   <trkpt lat="37.889108" lon="-121.934268"><ele>650.5</ele></trkpt>
   <trkpt lat="37.889345" lon="-121.934482"><ele>642.25</ele></trkpt>
   <trkpt lat="37.889467" lon="-121.934714"><ele>636.5</ele></trkpt>
   <trkpt lat="37.889466" lon="-121.934946"><ele>635.25</ele></trkpt>
   <trkpt lat="37.889429" lon="-121.935029"><ele>635.5</ele></trkpt>
   <trkpt lat="37.889223" lon="-121.935776"><ele>629.5</ele></trkpt>
   <trkpt lat="37.889162" lon="-121.935953"><ele>626.5</ele></trkpt>
   <trkpt lat="37.889083" lon="-121.936104"><ele>624</ele></trkpt>
   <trkpt lat="37.889007" lon="-121.936189"><ele>623.5</ele></trkpt>
   <trkpt lat="37.888922" lon="-121.936242"><ele>624</ele></trkpt>
   <trkpt lat="37.888824" lon="-121.936277"><ele>625.75</ele></trkpt>
   <trkpt lat="37.88869" lon="-121.936275"><ele>629</ele></trkpt>
   <trkpt lat="37.88865" lon="-121.936259"><ele>630.25</ele></trkpt>
   <trkpt lat="37.888518" lon="-121.936242"><ele>634</ele></trkpt>
   <trkpt lat="37.888439" lon="-121.936255"><ele>635.75</ele></trkpt>
   <trkpt lat="37.888396" lon="-121.936277"><ele>636.25</ele></trkpt>
   <trkpt lat="37.888359" lon="-121.936321"><ele>636.5</ele></trkpt>
   <trkpt lat="37.88834" lon="-121.936382"><ele>635.75</ele></trkpt>
   <trkpt lat="37.88829" lon="-121.936819"><ele>631.5</ele></trkpt>
   <trkpt lat="37.888298" lon="-121.936895"><ele>630.5</ele></trkpt>
   <trkpt lat="37.888384" lon="-121.937195"><ele>624.5</ele></trkpt>
   <trkpt lat="37.888585" lon="-121.937779"><ele>611.75</ele></trkpt>
   <trkpt lat="37.888646" lon="-121.937997"><ele>608.75</ele></trkpt>
   <trkpt lat="37.888663" lon="-121.938101"><ele>607.75</ele></trkpt>
   <trkpt lat="37.888665" lon="-121.938215"><ele>607.5</ele></trkpt>
   <trkpt lat="37.888648" lon="-121.938459"><ele>607.75</ele></trkpt>
   <trkpt lat="37.888659" lon="-121.938518"><ele>607.25</ele></trkpt>
   <trkpt lat="37.88868" lon="-121.938553"><ele>606.25</ele></trkpt>
   <trkpt lat="37.888702" lon="-121.938574"><ele>605</ele></trkpt>
   <trkpt lat="37.888847" lon="-121.938663"><ele>598.25</ele></trkpt>
   <trkpt lat="37.888873" lon="-121.938702"><ele>597</ele></trkpt>
   <trkpt lat="37.888894" lon="-121.938767"><ele>596</ele></trkpt>
   <trkpt lat="37.888895" lon="-121.938834"><ele>595.75</ele></trkpt>
   <trkpt lat="37.888874" lon="-121.938913"><ele>596.5</ele></trkpt>
   <trkpt lat="37.888786" lon="-121.939065"><ele>600.25</ele></trkpt>
   <trkpt lat="37.88875" lon="-121.939174"><ele>601.75</ele></trkpt>
   <trkpt lat="37.888743" lon="-121.939276"><ele>602.25</ele></trkpt>
   <trkpt lat="37.888756" lon="-121.939361"><ele>601.5</ele></trkpt>
   <trkpt lat="37.888771" lon="-121.939409"><ele>600.75</ele></trkpt>
   <trkpt lat="37.888813" lon="-121.939493"><ele>598.75</ele></trkpt>
   <trkpt lat="37.888933" lon="-121.939648"><ele>593.25</ele></trkpt>
   <trkpt lat="37.889009" lon="-121.939774"><ele>589.75</ele></trkpt>
   <trkpt lat="37.889047" lon="-121.939859"><ele>588</ele></trkpt>
   <trkpt lat="37.889133" lon="-121.940119"><ele>586</ele></trkpt>
   <trkpt lat="37.889205" lon="-121.940269"><ele>585.5</ele></trkpt>
   <trkpt lat="37.889236" lon="-121.940314"><ele>585.25</ele></trkpt>
   <trkpt lat="37.88929" lon="-121.940378"><ele>584.5</ele></trkpt>
   <trkpt lat="37.889415" lon="-121.940485"><ele>582.75</ele></trkpt>
   <trkpt lat="37.889587" lon="-121.940549"><ele>579</ele></trkpt>
   <trkpt lat="37.889681" lon="-121.94055"><ele>576.5</ele></trkpt>
   <trkpt lat="37.889867" lon="-121.940524"><ele>571.25</ele></trkpt>
   <trkpt lat="37.889995" lon="-121.940467"><ele>567.25</ele></trkpt>
   <trkpt lat="37.890033" lon="-121.940461"><ele>566.25</ele></trkpt>
   <trkpt lat="37.890111" lon="-121.940424"><ele>563.75</ele></trkpt>
   <trkpt lat="37.890145" lon="-121.940418"><ele>563</ele></trkpt>
   <trkpt lat="37.890308" lon="-121.940336"><ele>558</ele></trkpt>
   <trkpt lat="37.890531" lon="-121.940183"><ele>551</ele></trkpt>
   <trkpt lat="37.890595" lon="-121.940118"><ele>548.75</ele></trkpt>
   <trkpt lat="37.890649" lon="-121.940032"><ele>546.5</ele></trkpt>
   <trkpt lat="37.890684" lon="-121.939928"><ele>544.75</ele></trkpt>
   <trkpt lat="37.89069" lon="-121.939838"><ele>544</ele></trkpt>
   <trkpt lat="37.890673" lon="-121.939755"><ele>544</ele></trkpt>
   <trkpt lat="37.890626" lon="-121.939672"><ele>544.5</ele></trkpt>
   <trkpt lat="37.890597" lon="-121.939649"><ele>545</ele></trkpt>
   <trkpt lat="37.890484" lon="-121.939587"><ele>547</ele></trkpt>
   <trkpt lat="37.890415" lon="-121.93956"><ele>548.25</ele></trkpt>
   <trkpt lat="37.890311" lon="-121.939476"><ele>549.75</ele></trkpt>
   <trkpt lat="37.890256" lon="-121.93937"><ele>550.25</ele></trkpt>
   <trkpt lat="37.890286" lon="-121.93922"><ele>548.5</ele></trkpt>
   <trkpt lat="37.890337" lon="-121.939173"><ele>547</ele></trkpt>
   <trkpt lat="37.890375" lon="-121.939154"><ele>546.25</ele></trkpt>
   <trkpt lat="37.890503" lon="-121.939157"><ele>543.75</ele></trkpt>
   <trkpt lat="37.890534" lon="-121.939173"><ele>543</ele></trkpt>
   <trkpt lat="37.890567" lon="-121.939178"><ele>542.5</ele></trkpt>
   <trkpt lat="37.890685" lon="-121.939241"><ele>540.5</ele></trkpt>
   <trkpt lat="37.890764" lon="-121.939307"><ele>539.25</ele></trkpt>
   <trkpt lat="37.890999" lon="-121.939564"><ele>533.5</ele></trkpt>
   <trkpt lat="37.89103" lon="-121.939582"><ele>532.75</ele></trkpt>
   <trkpt lat="37.891073" lon="-121.939579"><ele>531.25</ele></trkpt>
   <trkpt lat="37.891095" lon="-121.93954"><ele>530</ele></trkpt>
   <trkpt lat="37.891103" lon="-121.939492"><ele>529.5</ele></trkpt>
   <trkpt lat="37.891114" lon="-121.939249"><ele>527.25</ele></trkpt>
   <trkpt lat="37.891181" lon="-121.938941"><ele>525.5</ele></trkpt>
   <trkpt lat="37.891231" lon="-121.938793"><ele>524.5</ele></trkpt>
   <trkpt lat="37.891296" lon="-121.938662"><ele>522.5</ele></trkpt>
   <trkpt lat="37.891519" lon="-121.93838"><ele>514.75</ele></trkpt>
   <trkpt lat="37.891578" lon="-121.938297"><ele>513</ele></trkpt>
   <trkpt lat="37.891659" lon="-121.938144"><ele>512</ele></trkpt>
   <trkpt lat="37.89169" lon="-121.938104"><ele>511.75</ele></trkpt>
   <trkpt lat="37.891725" lon="-121.938083"><ele>510.75</ele></trkpt>
   <trkpt lat="37.89179" lon="-121.938086"><ele>508.5</ele></trkpt>
   <trkpt lat="37.891807" lon="-121.938104"><ele>507.5</ele></trkpt>
   <trkpt lat="37.891826" lon="-121.938156"><ele>506</ele></trkpt>
   <trkpt lat="37.891831" lon="-121.938372"><ele>503</ele></trkpt>
   <trkpt lat="37.89185" lon="-121.938485"><ele>501.75</ele></trkpt>
   <trkpt lat="37.891952" lon="-121.938835"><ele>496.25</ele></trkpt>
   <trkpt lat="37.892018" lon="-121.93917"><ele>491.75</ele></trkpt>
   <trkpt lat="37.89205" lon="-121.939222"><ele>490.75</ele></trkpt>
   <trkpt lat="37.892107" lon="-121.939218"><ele>488.25</ele></trkpt>
   <trkpt lat="37.892123" lon="-121.939187"><ele>487.25</ele></trkpt>
   <trkpt lat="37.892166" lon="-121.939005"><ele>486.5</ele></trkpt>
   <trkpt lat="37.892218" lon="-121.938881"><ele>485.25</ele></trkpt>
   <trkpt lat="37.892303" lon="-121.938709"><ele>483.5</ele></trkpt>
   <trkpt lat="37.892329" lon="-121.938682"><ele>482.75</ele></trkpt>
   <trkpt lat="37.892402" lon="-121.938642"><ele>480.25</ele></trkpt>
   <trkpt lat="37.892441" lon="-121.938643"><ele>478.75</ele></trkpt>
   <trkpt lat="37.89251" lon="-121.938686"><ele>475.75</ele></trkpt>
   <trkpt lat="37.892569" lon="-121.938771"><ele>472.75</ele></trkpt>
   <trkpt lat="37.892703" lon="-121.939014"><ele>465.5</ele></trkpt>
   <trkpt lat="37.892753" lon="-121.939119"><ele>462.5</ele></trkpt>
   <trkpt lat="37.892767" lon="-121.939168"><ele>461.5</ele></trkpt>
   <trkpt lat="37.892774" lon="-121.939261"><ele>461.25</ele></trkpt>
   <trkpt lat="37.892766" lon="-121.939309"><ele>461.25</ele></trkpt>
   <trkpt lat="37.892713" lon="-121.939456"><ele>463.25</ele></trkpt>
   <trkpt lat="37.89271" lon="-121.9395"><ele>463.5</ele></trkpt>
   <trkpt lat="37.892728" lon="-121.939541"><ele>462.75</ele></trkpt>
   <trkpt lat="37.892787" lon="-121.939543"><ele>460</ele></trkpt>
   <trkpt lat="37.892826" lon="-121.939509"><ele>458.5</ele></trkpt>
   <trkpt lat="37.892944" lon="-121.939352"><ele>454.25</ele></trkpt>
   <trkpt lat="37.89321" lon="-121.939076"><ele>447.25</ele></trkpt>
   <trkpt lat="37.893248" lon="-121.939068"><ele>446</ele></trkpt>
   <trkpt lat="37.893291" lon="-121.939072"><ele>444.5</ele></trkpt>
   <trkpt lat="37.893309" lon="-121.939095"><ele>443.75</ele></trkpt>
   <trkpt lat="37.893316" lon="-121.939178"><ele>442.25</ele></trkpt>
   <trkpt lat="37.893257" lon="-121.939469"><ele>440.25</ele></trkpt>
   <trkpt lat="37.893257" lon="-121.939572"><ele>439</ele></trkpt>
   <trkpt lat="37.893271" lon="-121.939623"><ele>437.5</ele></trkpt>
   <trkpt lat="37.8933" lon="-121.939673"><ele>435.5</ele></trkpt>
   <trkpt lat="37.893343" lon="-121.939717"><ele>433</ele></trkpt>
   <trkpt lat="37.893426" lon="-121.93976"><ele>430</ele></trkpt>
   <trkpt lat="37.893476" lon="-121.939757"><ele>428.5</ele></trkpt>
   <trkpt lat="37.893518" lon="-121.939718"><ele>428</ele></trkpt>
   <trkpt lat="37.893543" lon="-121.939682"><ele>427.75</ele></trkpt>
   <trkpt lat="37.893615" lon="-121.939527"><ele>428</ele></trkpt>
   <trkpt lat="37.89371" lon="-121.939394"><ele>427</ele></trkpt>
   <trkpt lat="37.893748" lon="-121.939354"><ele>426.25</ele></trkpt>
   <trkpt lat="37.893925" lon="-121.939216"><ele>422.75</ele></trkpt>
   <trkpt lat="37.894" lon="-121.939173"><ele>421</ele></trkpt>
   <trkpt lat="37.89415" lon="-121.939103"><ele>417</ele></trkpt>
   <trkpt lat="37.894216" lon="-121.939048"><ele>415.75</ele></trkpt>
   <trkpt lat="37.894267" lon="-121.938907"><ele>415.5</ele></trkpt>
   <trkpt lat="37.894295" lon="-121.938768"><ele>416</ele></trkpt>
   <trkpt lat="37.894316" lon="-121.938442"><ele>417.75</ele></trkpt>
   <trkpt lat="37.894314" lon="-121.93805"><ele>419.75</ele></trkpt>
   <trkpt lat="37.894323" lon="-121.937974"><ele>419.75</ele></trkpt>
   <trkpt lat="37.894337" lon="-121.937945"><ele>419.5</ele></trkpt>
   <trkpt lat="37.894368" lon="-121.93791"><ele>418.75</ele></trkpt>
   <trkpt lat="37.894462" lon="-121.937907"><ele>416</ele></trkpt>
   <trkpt lat="37.894511" lon="-121.937949"><ele>414</ele></trkpt>
   <trkpt lat="37.894531" lon="-121.937991"><ele>413.25</ele></trkpt>
   <trkpt lat="37.894546" lon="-121.938063"><ele>412.25</ele></trkpt>
   <trkpt lat="37.894566" lon="-121.938342"><ele>409.5</ele></trkpt>
   <trkpt lat="37.894598" lon="-121.938489"><ele>407.75</ele></trkpt>
   <trkpt lat="37.894736" lon="-121.938855"><ele>402.75</ele></trkpt>
   <trkpt lat="37.894798" lon="-121.938981"><ele>400.75</ele></trkpt>
   <trkpt lat="37.894832" lon="-121.939024"><ele>400</ele></trkpt>
   <trkpt lat="37.894928" lon="-121.939085"><ele>397.5</ele></trkpt>
   <trkpt lat="37.895177" lon="-121.939092"><ele>394</ele></trkpt>
   <trkpt lat="37.895261" lon="-121.939129"><ele>393</ele></trkpt>
   <trkpt lat="37.895327" lon="-121.939178"><ele>391.75</ele></trkpt>
   <trkpt lat="37.895372" lon="-121.939263"><ele>390.25</ele></trkpt>
   <trkpt lat="37.895391" lon="-121.939368"><ele>388.75</ele></trkpt>
   <trkpt lat="37.895388" lon="-121.939541"><ele>386.75</ele></trkpt>
   <trkpt lat="37.895355" lon="-121.939777"><ele>384.5</ele></trkpt>
   <trkpt lat="37.89533" lon="-121.939888"><ele>383.5</ele></trkpt>
   <trkpt lat="37.895295" lon="-121.939968"><ele>383.25</ele></trkpt>
   <trkpt lat="37.895254" lon="-121.940014"><ele>383.25</ele></trkpt>
   <trkpt lat="37.895053" lon="-121.940124"><ele>384.25</ele></trkpt>
   <trkpt lat="37.895028" lon="-121.940163"><ele>383.75</ele></trkpt>
   <trkpt lat="37.895006" lon="-121.940243"><ele>382.25</ele></trkpt>
   <trkpt lat="37.895009" lon="-121.940279"><ele>381.25</ele></trkpt>
   <trkpt lat="37.895046" lon="-121.940391"><ele>378.25</ele></trkpt>
   <trkpt lat="37.895143" lon="-121.940541"><ele>373.5</ele></trkpt>
   <trkpt lat="37.895294" lon="-121.9407"><ele>368.25</ele></trkpt>
   <trkpt lat="37.895349" lon="-121.94078"><ele>365.75</ele></trkpt>
   <trkpt lat="37.895387" lon="-121.940858"><ele>363.75</ele></trkpt>
   <trkpt lat="37.89541" lon="-121.940966"><ele>361.75</ele></trkpt>
   <trkpt lat="37.895407" lon="-121.941032"><ele>360.75</ele></trkpt>
   <trkpt lat="37.895391" lon="-121.941119"><ele>359.5</ele></trkpt>
   <trkpt lat="37.895348" lon="-121.941259"><ele>358</ele></trkpt>
   <trkpt lat="37.895312" lon="-121.941344"><ele>357.5</ele></trkpt>
   <trkpt lat="37.895256" lon="-121.941422"><ele>357.25</ele></trkpt>
   <trkpt lat="37.895159" lon="-121.941495"><ele>358</ele></trkpt>
   <trkpt lat="37.895076" lon="-121.941579"><ele>358.5</ele></trkpt>
   <trkpt lat="37.895038" lon="-121.941649"><ele>358.25</ele></trkpt>
   <trkpt lat="37.895035" lon="-121.941706"><ele>358.5</ele></trkpt>
   <trkpt lat="37.895059" lon="-121.941751"><ele>358</ele></trkpt>
   <trkpt lat="37.89509" lon="-121.941787"><ele>357.75</ele></trkpt>
   <trkpt lat="37.89526" lon="-121.941882"><ele>354.25</ele></trkpt>
   <trkpt lat="37.895729" lon="-121.942204"><ele>342.75</ele></trkpt>
   <trkpt lat="37.895767" lon="-121.942239"><ele>341.5</ele></trkpt>
   <trkpt lat="37.895841" lon="-121.942276"><ele>339.75</ele></trkpt>
   <trkpt lat="37.896099" lon="-121.942576"><ele>337</ele></trkpt>
   <trkpt lat="37.896261" lon="-121.942834"><ele>335</ele></trkpt>
   <trkpt lat="37.896326" lon="-121.943033"><ele>333.5</ele></trkpt>
   <trkpt lat="37.896339" lon="-121.943213"><ele>332.75</ele></trkpt>
   <trkpt lat="37.896343" lon="-121.943898"><ele>330.25</ele></trkpt>
   <trkpt lat="37.896389" lon="-121.944078"><ele>327.5</ele></trkpt>
   <trkpt lat="37.896527" lon="-121.944441"><ele>322.25</ele></trkpt>
   <trkpt lat="37.896626" lon="-121.944601"><ele>318.5</ele></trkpt>
   <trkpt lat="37.896996" lon="-121.945009"><ele>317</ele></trkpt>
   <trkpt lat="37.897094" lon="-121.945138"><ele>316.5</ele></trkpt>
   <trkpt lat="37.8972" lon="-121.94532"><ele>314.75</ele></trkpt>
   <trkpt lat="37.897502" lon="-121.946009"><ele>302.5</ele></trkpt>
   <trkpt lat="37.897568" lon="-121.946116"><ele>304</ele></trkpt>
   <trkpt lat="37.89768" lon="-121.946244"><ele>305.75</ele></trkpt>
   <trkpt lat="37.898015" lon="-121.946546"><ele>304.75</ele></trkpt>
   <trkpt lat="37.898187" lon="-121.946758"><ele>302.5</ele></trkpt>
   <trkpt lat="37.898531" lon="-121.947277"><ele>301.75</ele></trkpt>
   <trkpt lat="37.898662" lon="-121.947394"><ele>300.25</ele></trkpt>
   <trkpt lat="37.898857" lon="-121.947535"><ele>297.75</ele></trkpt>
   <trkpt lat="37.898976" lon="-121.947653"><ele>297.75</ele></trkpt>
   <trkpt lat="37.899194" lon="-121.947997"><ele>297.25</ele></trkpt>
   <trkpt lat="37.899377" lon="-121.948196"><ele>295.75</ele></trkpt>
   <trkpt lat="37.899535" lon="-121.948324"><ele>292.75</ele></trkpt>
   <trkpt lat="37.899649" lon="-121.948385"><ele>292</ele></trkpt>
   <trkpt lat="37.899986" lon="-121.948505"><ele>288.5</ele></trkpt>
   <trkpt lat="37.900461" lon="-121.948746"><ele>289.75</ele></trkpt>
   <trkpt lat="37.900591" lon="-121.948788"><ele>289.25</ele></trkpt>
   <trkpt lat="37.900955" lon="-121.94885"><ele>287.5</ele></trkpt>
   <trkpt lat="37.901056" lon="-121.948897"><ele>287</ele></trkpt>
   <trkpt lat="37.901477" lon="-121.949204"><ele>282.75</ele></trkpt>
   <trkpt lat="37.901587" lon="-121.949248"><ele>283</ele></trkpt>
   <trkpt lat="37.9018" lon="-121.949269"><ele>282.25</ele></trkpt>
   <trkpt lat="37.901997" lon="-121.949258"><ele>280.5</ele></trkpt>
   <trkpt lat="37.902319" lon="-121.949276"><ele>279</ele></trkpt>
   <trkpt lat="37.903211" lon="-121.949386"><ele>271.75</ele></trkpt>
   <trkpt lat="37.903441" lon="-121.949476"><ele>270.25</ele></trkpt>
   <trkpt lat="37.903899" lon="-121.949809"><ele>267.25</ele></trkpt>
   <trkpt lat="37.904248" lon="-121.949907"><ele>263.75</ele></trkpt>
   <trkpt lat="37.904528" lon="-121.950057"><ele>265.75</ele></trkpt>
   <trkpt lat="37.904659" lon="-121.950094"><ele>267.25</ele></trkpt>
   <trkpt lat="37.904797" lon="-121.950063"><ele>266.5</ele></trkpt>
   <trkpt lat="37.90498" lon="-121.949922"><ele>265.5</ele></trkpt>
   <trkpt lat="37.905077" lon="-121.949869"><ele>266</ele></trkpt>
   <trkpt lat="37.9052" lon="-121.949867"><ele>266</ele></trkpt>
   <trkpt lat="37.90551" lon="-121.94995"><ele>265.75</ele></trkpt>
   <trkpt lat="37.905686" lon="-121.949961"><ele>265.75</ele></trkpt>
   <trkpt lat="37.906398" lon="-121.949917"><ele>263.75</ele></trkpt>
   <trkpt lat="37.906511" lon="-121.949893"><ele>263.25</ele></trkpt>
   <trkpt lat="37.90666" lon="-121.949795"><ele>262.5</ele></trkpt>
   <trkpt lat="37.906823" lon="-121.949512"><ele>260.25</ele></trkpt>
   <trkpt lat="37.906878" lon="-121.949457"><ele>259.75</ele></trkpt>
   <trkpt lat="37.906963" lon="-121.949431"><ele>259</ele></trkpt>
   <trkpt lat="37.907014" lon="-121.949441"><ele>258.5</ele></trkpt>
   <trkpt lat="37.907084" lon="-121.949486"><ele>258</ele></trkpt>
   <trkpt lat="37.907323" lon="-121.949791"><ele>256</ele></trkpt>
   <trkpt lat="37.907421" lon="-121.949867"><ele>254.75</ele></trkpt>
   <trkpt lat="37.907515" lon="-121.949896"><ele>253.75</ele></trkpt>
   <trkpt lat="37.907687" lon="-121.949884"><ele>251</ele></trkpt>
   <trkpt lat="37.907801" lon="-121.949875"><ele>251</ele></trkpt>
   <trkpt lat="37.907891" lon="-121.949912"><ele>249.25</ele></trkpt>
   <trkpt lat="37.90795" lon="-121.949977"><ele>247.25</ele></trkpt>
   <trkpt lat="37.908062" lon="-121.950196"><ele>248.5</ele></trkpt>
   <trkpt lat="37.908157" lon="-121.950294"><ele>248.25</ele></trkpt>
   <trkpt lat="37.908259" lon="-121.950333"><ele>246.75</ele></trkpt>
   <trkpt lat="37.908499" lon="-121.950362"><ele>245</ele></trkpt>
   <trkpt lat="37.908776" lon="-121.950336"><ele>243.75</ele></trkpt>
   <trkpt lat="37.909291" lon="-121.950181"><ele>239.5</ele></trkpt>
   <trkpt lat="37.909762" lon="-121.950197"><ele>242.5</ele></trkpt>
   <trkpt lat="37.910227" lon="-121.950167"><ele>242.5</ele></trkpt>
   <trkpt lat="37.910438" lon="-121.950125"><ele>240.5</ele></trkpt>
   <trkpt lat="37.910601" lon="-121.950031"><ele>237</ele></trkpt>
   <trkpt lat="37.910719" lon="-121.949928"><ele>235.75</ele></trkpt>
   <trkpt lat="37.911057" lon="-121.949576"><ele>236</ele></trkpt>
   <trkpt lat="37.911239" lon="-121.949361"><ele>234.75</ele></trkpt>
   <trkpt lat="37.911377" lon="-121.949087"><ele>234</ele></trkpt>
   <trkpt lat="37.911453" lon="-121.949013"><ele>234.75</ele></trkpt>
   <trkpt lat="37.911561" lon="-121.948961"><ele>233.75</ele></trkpt>
   <trkpt lat="37.911693" lon="-121.948936"><ele>232.25</ele></trkpt>
   <trkpt lat="37.911834" lon="-121.94895"><ele>231.75</ele></trkpt>
   <trkpt lat="37.911925" lon="-121.948995"><ele>231</ele></trkpt>
   <trkpt lat="37.912159" lon="-121.949182"><ele>228.5</ele></trkpt>
   <trkpt lat="37.912308" lon="-121.949254"><ele>230</ele></trkpt>
   <trkpt lat="37.912547" lon="-121.949295"><ele>231</ele></trkpt>
   <trkpt lat="37.912759" lon="-121.94928"><ele>230.5</ele></trkpt>
   <trkpt lat="37.913046" lon="-121.949193"><ele>227.75</ele></trkpt>
   <trkpt lat="37.913228" lon="-121.949096"><ele>227.25</ele></trkpt>
   <trkpt lat="37.913739" lon="-121.948739"><ele>227.25</ele></trkpt>
   <trkpt lat="37.913936" lon="-121.948542"><ele>225.5</ele></trkpt>
   <trkpt lat="37.914017" lon="-121.948463"><ele>224.5</ele></trkpt>
   <trkpt lat="37.914093" lon="-121.948389"><ele>223</ele></trkpt>
   <trkpt lat="37.914114" lon="-121.948368"><ele>222.75</ele></trkpt>
   <trkpt lat="37.914193" lon="-121.948319"><ele>222.25</ele></trkpt>
   <trkpt lat="37.914447" lon="-121.948255"><ele>223</ele></trkpt>
   <trkpt lat="37.914557" lon="-121.948209"><ele>223.5</ele></trkpt>
   <trkpt lat="37.914673" lon="-121.948126"><ele>224.5</ele></trkpt>
   <trkpt lat="37.915012" lon="-121.947853"><ele>225.5</ele></trkpt>
   <trkpt lat="37.915451" lon="-121.947424"><ele>224</ele></trkpt>
   <trkpt lat="37.915672" lon="-121.947273"><ele>223.5</ele></trkpt>
   <trkpt lat="37.915851" lon="-121.947206"><ele>220.75</ele></trkpt>
   <trkpt lat="37.916128" lon="-121.947215"><ele>215.25</ele></trkpt>
   <trkpt lat="37.916216" lon="-121.947199"><ele>213.75</ele></trkpt>
   <trkpt lat="37.916303" lon="-121.947113"><ele>213</ele></trkpt>
   <trkpt lat="37.916386" lon="-121.946865"><ele>213.75</ele></trkpt>
   <trkpt lat="37.916488" lon="-121.946669"><ele>212.5</ele></trkpt>
   <trkpt lat="37.916603" lon="-121.946565"><ele>211</ele></trkpt>
   <trkpt lat="37.916783" lon="-121.946463"><ele>210.25</ele></trkpt>
   <trkpt lat="37.916908" lon="-121.946342"><ele>210.75</ele></trkpt>
   <trkpt lat="37.917" lon="-121.946207"><ele>211.25</ele></trkpt>
   <trkpt lat="37.917115" lon="-121.946001"><ele>208.25</ele></trkpt>
   <trkpt lat="37.917287" lon="-121.945691"><ele>208.25</ele></trkpt>
   <trkpt lat="37.917821" lon="-121.944801"><ele>206.5</ele></trkpt>
   <trkpt lat="37.917984" lon="-121.944476"><ele>206.75</ele></trkpt>
   <trkpt lat="37.918163" lon="-121.94418"><ele>204.5</ele></trkpt>
   <trkpt lat="37.918389" lon="-121.94364"><ele>201.5</ele></trkpt>
   <trkpt lat="37.918712" lon="-121.943126"><ele>199</ele></trkpt>
   <trkpt lat="37.918929" lon="-121.942873"><ele>196.25</ele></trkpt>
   <trkpt lat="37.919416" lon="-121.942176"><ele>193.5</ele></trkpt>
   <trkpt lat="37.919508" lon="-121.942105"><ele>193.25</ele></trkpt>
   <trkpt lat="37.919769" lon="-121.941951"><ele>191.75</ele></trkpt>
   <trkpt lat="37.919896" lon="-121.941907"><ele>190.5</ele></trkpt>
   <trkpt lat="37.920122" lon="-121.941905"><ele>188.5</ele></trkpt>
   <trkpt lat="37.920208" lon="-121.941892"><ele>188</ele></trkpt>
   <trkpt lat="37.920276" lon="-121.941833"><ele>188</ele></trkpt>
   <trkpt lat="37.920364" lon="-121.941707"><ele>187.75</ele></trkpt>
  </trkseg>
 </trk>
</gpx>