<?xml version="1.0" encoding="UTF-8"?>
<!-- track-length = 6641 filtered ascend = 132 plain-ascend = -169 cost=58321 energy=.0kwh time=26m 32s -->
<gpx 
 xmlns="http://www.topografix.com/GPX/1/1" 
 xmlns:xsi="http://www.w3.org/2001/XMLSchema-instance" 
 xsi:schemaLocation="http://www.topografix.com/GPX/1/1 http://www.topografix.com/GPX/1/1/gpx.xsd" 
 creator="BRouter-1.7.0" version="1.1">
 <trk>
  <name>lafayetteridgetrail</name>
  <trkseg>
   <trkpt lon="-122.140430" lat="37.909948"><ele>283.5</ele></trkpt>
   <trkpt lon="-122.140458" lat="37.909972"><ele>283.75</ele></trkpt>
   <trkpt lon="-122.140342" lat="37.910051"><ele>286.75</ele></trkpt>
   <trkpt lon="-122.140300" lat="37.910110"><ele>288.75</ele></trkpt>
   <trkpt lon="-122.140135" lat="37.910458"><ele>299.0</ele></trkpt>
   <trkpt lon="-122.139921" lat="37.910880"><ele>305.75</ele></trkpt>
   <trkpt lon="-122.139932" lat="37.911010"><ele>306.5</ele></trkpt>
   <trkpt lon="-122.140005" lat="37.911131"><ele>309.25</ele></trkpt>
   <trkpt lon="-122.140271" lat="37.911293"><ele>312.25</ele></trkpt>
   <trkpt lon="-122.140889" lat="37.911903"><ele>329.75</ele></trkpt>
   <trkpt lon="-122.140953" lat="37.912061"><ele>331.5</ele></trkpt>
   <trkpt lon="-122.140984" lat="37.912248"><ele>334.25</ele></trkpt>
   <trkpt lon="-122.141036" lat="37.912373"><ele>336.0</ele></trkpt>
   <trkpt lon="-122.141171" lat="37.912754"><ele>340.5</ele></trkpt>
   <trkpt lon="-122.141154" lat="37.912932"><ele>343.0</ele></trkpt>
   <trkpt lon="-122.141152" lat="37.912952"><ele>343.0</ele></trkpt>
   <trkpt lon="-122.141087" lat="37.913115"><ele>346.0</ele></trkpt>
   <trkpt lon="-122.140829" lat="37.913521"><ele>354.0</ele></trkpt>
   <trkpt lon="-122.140803" lat="37.913717"><ele>353.5</ele></trkpt>
   <trkpt lon="-122.140889" lat="37.913982"><ele>353.75</ele></trkpt>
   <trkpt lon="-122.141069" lat="37.914334"><ele>349.5</ele></trkpt>
   <trkpt lon="-122.141179" lat="37.914451"><ele>348.0</ele></trkpt>
   <trkpt lon="-122.141283" lat="37.914521"><ele>347.5</ele></trkpt>
   <trkpt lon="-122.141511" lat="37.914622"><ele>348.25</ele></trkpt>
   <trkpt lon="-122.141590" lat="37.914781"><ele>350.75</ele></trkpt>
   <trkpt lon="-122.141658" lat="37.914960"><ele>354.0</ele></trkpt>
   <trkpt lon="-122.141666" lat="37.915761"><ele>368.5</ele></trkpt>
   <trkpt lon="-122.141642" lat="37.916086"><ele>372.75</ele></trkpt>
   <trkpt lon="-122.141564" lat="37.916371"><ele>375.75</ele></trkpt>
   <trkpt lon="-122.141485" lat="37.916562"><ele>378.25</ele></trkpt>
   <trkpt lon="-122.141287" lat="37.916744"><ele>379.0</ele></trkpt>
   <trkpt lon="-122.141078" lat="37.916778"><ele>378.5</ele></trkpt>
   <trkpt lon="-122.140872" lat="37.916778"><ele>378.25</ele></trkpt>
   <trkpt lon="-122.140712" lat="37.916815"><ele>377.5</ele></trkpt>
   <trkpt lon="-122.140605" lat="37.916840"><ele>377.5</ele></trkpt>
   <trkpt lon="-122.140386" lat="37.916942"><ele>378.5</ele></trkpt>
   <trkpt lon="-122.140213" lat="37.917050"><ele>381.0</ele></trkpt>
   <trkpt lon="-122.140162" lat="37.917349"><ele>389.5</ele></trkpt>
   <trkpt lon="-122.140086" lat="37.917432"><ele>393.25</ele></trkpt>
   <trkpt lon="-122.139748" lat="37.917747"><ele>389.5</ele></trkpt>
   <trkpt lon="-122.139533" lat="37.917841"><ele>386.25</ele></trkpt>
   <trkpt lon="-122.139275" lat="37.917760"><ele>385.0</ele></trkpt>
   <trkpt lon="-122.138975" lat="37.917611"><ele>381.75</ele></trkpt>
   <trkpt lon="-122.138673" lat="37.917449"><ele>375.75</ele></trkpt>
   <trkpt lon="-122.138423" lat="37.917383"><ele>368.75</ele></trkpt>
   <trkpt lon="-122.138182" lat="37.917364"><ele>365.25</ele></trkpt>
   <trkpt lon="-122.137756" lat="37.917381"><ele>362.75</ele></trkpt>
   <trkpt lon="-122.137369" lat="37.917388"><ele>362.25</ele></trkpt>
   <trkpt lon="-122.137143" lat="37.917422"><ele>365.25</ele></trkpt>
   <trkpt lon="-122.136984" lat="37.917482"><ele>368.5</ele></trkpt>
   <trkpt lon="-122.136500" lat="37.917727"><ele>368.5</ele></trkpt>
   <trkpt lon="-122.136447" lat="37.917774"><ele>368.0</ele></trkpt>
   <trkpt lon="-122.136323" lat="37.917658"><ele>367.75</ele></trkpt>
   <trkpt lon="-122.136235" lat="37.917533"><ele>367.25</ele></trkpt>
   <trkpt lon="-122.136197" lat="37.917448"><ele>365.25</ele></trkpt>
   <trkpt lon="-122.136173" lat="37.917333"><ele>361.5</ele></trkpt>
   <trkpt lon="-122.136200" lat="37.917130"><ele>355.5</ele></trkpt>
   <trkpt lon="-122.136223" lat="37.916904"><ele>348.75</ele></trkpt>
   <trkpt lon="-122.136202" lat="37.916764"><ele>344.25</ele></trkpt>
   <trkpt lon="-122.136135" lat="37.916633"><ele>340.5</ele></trkpt>
   <trkpt lon="-122.135945" lat="37.916431"><ele>336.25</ele></trkpt>
   <trkpt lon="-122.135695" lat="37.916058"><ele>329.75</ele></trkpt>
   <trkpt lon="-122.135567" lat="37.915889"><ele>328.0</ele></trkpt>
   <trkpt lon="-122.135497" lat="37.915831"><ele>327.75</ele></trkpt>
   <trkpt lon="-122.135291" lat="37.915711"><ele>327.75</ele></trkpt>
   <trkpt lon="-122.135207" lat="37.915641"><ele>328.0</ele></trkpt>
   <trkpt lon="-122.134888" lat="37.915296"><ele>329.75</ele></trkpt>
   <trkpt lon="-122.134760" lat="37.915186"><ele>330.0</ele></trkpt>
   <trkpt lon="-122.134646" lat="37.915124"><ele>330.75</ele></trkpt>
   <trkpt lon="-122.134567" lat="37.915060"><ele>331.25</ele></trkpt>
   <trkpt lon="-122.134537" lat="37.914994"><ele>331.5</ele></trkpt>
   <trkpt lon="-122.134537" lat="37.914949"><ele>331.5</ele></trkpt>
   <trkpt lon="-122.134538" lat="37.914921"><ele>331.25</ele></trkpt>
   <trkpt lon="-122.134538" lat="37.914890"><ele>331.0</ele></trkpt>
   <trkpt lon="-122.134629" lat="37.914679"><ele>329.75</ele></trkpt>
   <trkpt lon="-122.134769" lat="37.914510"><ele>328.75</ele></trkpt>
   <trkpt lon="-122.134860" lat="37.914367"><ele>328.25</ele></trkpt>
   <trkpt lon="-122.134875" lat="37.914290"><ele>328.0</ele></trkpt>
   <trkpt lon="-122.134842" lat="37.914022"><ele>328.0</ele></trkpt>
   <trkpt lon="-122.134776" lat="37.913732"><ele>328.75</ele></trkpt>
   <trkpt lon="-122.134720" lat="37.913637"><ele>329.5</ele></trkpt>
   <trkpt lon="-122.134694" lat="37.913616"><ele>329.75</ele></trkpt>
   <trkpt lon="-122.134393" lat="37.913373"><ele>333.5</ele></trkpt>
   <trkpt lon="-122.134334" lat="37.913334"><ele>334.25</ele></trkpt>
   <trkpt lon="-122.134186" lat="37.913254"><ele>333.75</ele></trkpt>
   <trkpt lon="-122.134040" lat="37.913240"><ele>334.25</ele></trkpt>
   <trkpt lon="-122.133452" lat="37.913221"><ele>337.0</ele></trkpt>
   <trkpt lon="-122.133266" lat="37.913166"><ele>337.0</ele></trkpt>
   <trkpt lon="-122.132691" lat="37.912753"><ele>339.5</ele></trkpt>
   <trkpt lon="-122.132401" lat="37.912456"><ele>345.25</ele></trkpt>
   <trkpt lon="-122.132074" lat="37.912148"><ele>344.0</ele></trkpt>
   <trkpt lon="-122.132010" lat="37.912094"><ele>344.0</ele></trkpt>
   <trkpt lon="-122.131819" lat="37.911990"><ele>344.5</ele></trkpt>
   <trkpt lon="-122.131718" lat="37.911972"><ele>345.0</ele></trkpt>
   <trkpt lon="-122.131554" lat="37.911981"><ele>343.75</ele></trkpt>
   <trkpt lon="-122.131379" lat="37.912015"><ele>342.0</ele></trkpt>
   <trkpt lon="-122.130976" lat="37.912168"><ele>339.0</ele></trkpt>
   <trkpt lon="-122.130889" lat="37.912175"><ele>338.5</ele></trkpt>
   <trkpt lon="-122.130768" lat="37.912157"><ele>337.25</ele></trkpt>
   <trkpt lon="-122.130566" lat="37.912101"><ele>335.0</ele></trkpt>
   <trkpt lon="-122.130388" lat="37.912064"><ele>333.5</ele></trkpt>
   <trkpt lon="-122.129920" lat="37.911968"><ele>330.0</ele></trkpt>
   <trkpt lon="-122.129709" lat="37.911903"><ele>327.75</ele></trkpt>
   <trkpt lon="-122.129515" lat="37.911788"><ele>323.75</ele></trkpt>
   <trkpt lon="-122.129266" lat="37.911642"><ele>323.75</ele></trkpt>
   <trkpt lon="-122.128341" lat="37.911295"><ele>300.5</ele></trkpt>
   <trkpt lon="-122.128133" lat="37.911267"><ele>301.0</ele></trkpt>
   <trkpt lon="-122.127918" lat="37.911274"><ele>301.75</ele></trkpt>
   <trkpt lon="-122.127736" lat="37.911239"><ele>302.75</ele></trkpt>
   <trkpt lon="-122.127663" lat="37.911200"><ele>303.75</ele></trkpt>
   <trkpt lon="-122.127438" lat="37.910957"><ele>308.25</ele></trkpt>
   <trkpt lon="-122.127283" lat="37.910827"><ele>309.75</ele></trkpt>
   <trkpt lon="-122.127013" lat="37.910637"><ele>307.25</ele></trkpt>
   <trkpt lon="-122.126816" lat="37.910528"><ele>307.0</ele></trkpt>
   <trkpt lon="-122.126764" lat="37.910511"><ele>307.0</ele></trkpt>
   <trkpt lon="-122.126393" lat="37.910596"><ele>308.75</ele></trkpt>
   <trkpt lon="-122.126303" lat="37.910598"><ele>309.25</ele></trkpt>
   <trkpt lon="-122.126218" lat="37.910582"><ele>309.5</ele></trkpt>
   <trkpt lon="-122.125958" lat="37.910493"><ele>310.75</ele></trkpt>
   <trkpt lon="-122.125837" lat="37.910483"><ele>311.25</ele></trkpt>
   <trkpt lon="-122.125752" lat="37.910501"><ele>311.75</ele></trkpt>
   <trkpt lon="-122.125495" lat="37.910598"><ele>314.5</ele></trkpt>
   <trkpt lon="-122.125409" lat="37.910621"><ele>315.25</ele></trkpt>
   <trkpt lon="-122.125309" lat="37.910625"><ele>316.0</ele></trkpt>
   <trkpt lon="-122.125163" lat="37.910582"><ele>317.0</ele></trkpt>
   <trkpt lon="-122.125023" lat="37.910501"><ele>317.0</ele></trkpt>
   <trkpt lon="-122.124914" lat="37.910426"><ele>315.75</ele></trkpt>
   <trkpt lon="-122.124786" lat="37.910356"><ele>314.5</ele></trkpt>
   <trkpt lon="-122.124586" lat="37.910197"><ele>313.75</ele></trkpt>
   <trkpt lon="-122.124423" lat="37.910146"><ele>313.75</ele></trkpt>
   <trkpt lon="-122.124060" lat="37.910055"><ele>315.0</ele></trkpt>
   <trkpt lon="-122.123827" lat="37.910036"><ele>315.0</ele></trkpt>
   <trkpt lon="-122.123743" lat="37.910042"><ele>314.75</ele></trkpt>
   <trkpt lon="-122.123456" lat="37.910133"><ele>312.5</ele></trkpt>
   <trkpt lon="-122.123302" lat="37.910141"><ele>312.25</ele></trkpt>
   <trkpt lon="-122.122794" lat="37.910095"><ele>316.5</ele></trkpt>
   <trkpt lon="-122.122585" lat="37.910092"><ele>317.75</ele></trkpt>
   <trkpt lon="-122.121964" lat="37.910220"><ele>318.75</ele></trkpt>
   <trkpt lon="-122.121762" lat="37.910234"><ele>319.5</ele></trkpt>
   <trkpt lon="-122.121619" lat="37.910212"><ele>319.75</ele></trkpt>
   <trkpt lon="-122.121372" lat="37.910091"><ele>319.25</ele></trkpt>
   <trkpt lon="-122.121298" lat="37.910003"><ele>320.75</ele></trkpt>
   <trkpt lon="-122.121222" lat="37.909848"><ele>317.75</ele></trkpt>
   <trkpt lon="-122.121148" lat="37.909759"><ele>316.0</ele></trkpt>
   <trkpt lon="-122.121064" lat="37.909701"><ele>315.25</ele></trkpt>
   <trkpt lon="-122.120848" lat="37.909632"><ele>314.75</ele></trkpt>
   <trkpt lon="-122.120385" lat="37.909578"><ele>312.75</ele></trkpt>
   <trkpt lon="-122.120275" lat="37.909536"><ele>312.75</ele></trkpt>
   <trkpt lon="-122.120104" lat="37.909424"><ele>313.5</ele></trkpt>
   <trkpt lon="-122.119954" lat="37.909410"><ele>313.25</ele></trkpt>
   <trkpt lon="-122.119696" lat="37.909416"><ele>311.5</ele></trkpt>
   <trkpt lon="-122.119576" lat="37.909399"><ele>311.0</ele></trkpt>
   <trkpt lon="-122.119482" lat="37.909354"><ele>311.0</ele></trkpt>
   <trkpt lon="-122.119280" lat="37.909174"><ele>311.5</ele></trkpt>
   <trkpt lon="-122.119059" lat="37.909008"><ele>308.0</ele></trkpt>
   <trkpt lon="-122.118741" lat="37.908816"><ele>304.5</ele></trkpt>
   <trkpt lon="-122.118294" lat="37.908590"><ele>303.0</ele></trkpt>
   <trkpt lon="-122.118088" lat="37.908515"><ele>300.25</ele></trkpt>
   <trkpt lon="-122.118015" lat="37.908455"><ele>299.75</ele></trkpt>
   <trkpt lon="-122.117989" lat="37.908421"><ele>299.5</ele></trkpt>
   <trkpt lon="-122.117902" lat="37.908314"><ele>299.5</ele></trkpt>
   <trkpt lon="-122.117845" lat="37.908194"><ele>297.25</ele></trkpt>
   <trkpt lon="-122.117877" lat="37.908070"><ele>295.75</ele></trkpt>
   <trkpt lon="-122.117864" lat="37.908030"><ele>295.0</ele></trkpt>
   <trkpt lon="-122.117841" lat="37.907996"><ele>294.5</ele></trkpt>
   <trkpt lon="-122.117808" lat="37.907969"><ele>294.0</ele></trkpt>
   <trkpt lon="-122.117743" lat="37.907954"><ele>293.75</ele></trkpt>
   <trkpt lon="-122.117581" lat="37.907964"><ele>293.5</ele></trkpt>
   <trkpt lon="-122.117478" lat="37.907963"><ele>293.25</ele></trkpt>
   <trkpt lon="-122.117390" lat="37.907916"><ele>292.5</ele></trkpt>
   <trkpt lon="-122.117236" lat="37.907747"><ele>292.0</ele></trkpt>
   <trkpt lon="-122.116969" lat="37.907508"><ele>293.0</ele></trkpt>
   <trkpt lon="-122.116728" lat="37.907152"><ele>288.75</ele></trkpt>
   <trkpt lon="-122.116681" lat="37.907129"><ele>288.5</ele></trkpt>
   <trkpt lon="-122.116637" lat="37.907125"><ele>288.5</ele></trkpt>
   <trkpt lon="-122.116579" lat="37.907129"><ele>288.5</ele></trkpt>
   <trkpt lon="-122.116494" lat="37.907159"><ele>289.0</ele></trkpt>
   <trkpt lon="-122.116290" lat="37.907279"><ele>291.25</ele></trkpt>
   <trkpt lon="-122.116237" lat="37.907308"><ele>291.75</ele></trkpt>
   <trkpt lon="-122.116118" lat="37.907328"><ele>292.25</ele></trkpt>
   <trkpt lon="-122.115880" lat="37.907398"><ele>293.75</ele></trkpt>
   <trkpt lon="-122.115827" lat="37.907408"><ele>294.0</ele></trkpt>
   <trkpt lon="-122.115756" lat="37.907409"><ele>294.25</ele></trkpt>
   <trkpt lon="-122.115679" lat="37.907398"><ele>294.5</ele></trkpt>
   <trkpt lon="-122.115629" lat="37.907383"><ele>294.5</ele></trkpt>
   <trkpt lon="-122.115569" lat="37.907346"><ele>294.0</ele></trkpt>
   <trkpt lon="-122.115299" lat="37.907165"><ele>292.25</ele></trkpt>
   <trkpt lon="-122.115164" lat="37.907135"><ele>292.5</ele></trkpt>
   <trkpt lon="-122.114977" lat="37.907139"><ele>294.0</ele></trkpt>
   <trkpt lon="-122.114907" lat="37.907118"><ele>294.5</ele></trkpt>
   <trkpt lon="-122.114732" lat="37.906996"><ele>295.25</ele></trkpt>
   <trkpt lon="-122.114600" lat="37.906940"><ele>296.5</ele></trkpt>
   <trkpt lon="-122.114482" lat="37.906915"><ele>298.0</ele></trkpt>
   <trkpt lon="-122.114399" lat="37.906876"><ele>299.0</ele></trkpt>
   <trkpt lon="-122.114004" lat="37.906546"><ele>301.5</ele></trkpt>
   <trkpt lon="-122.113914" lat="37.906471"><ele>301.5</ele></trkpt>
   <trkpt lon="-122.113872" lat="37.906401"><ele>300.75</ele></trkpt>
   <trkpt lon="-122.113860" lat="37.906352"><ele>300.0</ele></trkpt>
   <trkpt lon="-122.113865" lat="37.906313"><ele>299.25</ele></trkpt>
   <trkpt lon="-122.113891" lat="37.906267"><ele>298.25</ele></trkpt>
   <trkpt lon="-122.114069" lat="37.906048"><ele>294.5</ele></trkpt>
   <trkpt lon="-122.114116" lat="37.906003"><ele>293.75</ele></trkpt>
   <trkpt lon="-122.114173" lat="37.905961"><ele>293.25</ele></trkpt>
   <trkpt lon="-122.114066" lat="37.905919"><ele>292.75</ele></trkpt>
   <trkpt lon="-122.113802" lat="37.905894"><ele>292.0</ele></trkpt>
   <trkpt lon="-122.113561" lat="37.905925"><ele>292.5</ele></trkpt>
   <trkpt lon="-122.113405" lat="37.905972"><ele>293.75</ele></trkpt>
   <trkpt lon="-122.113161" lat="37.906079"><ele>298.25</ele></trkpt>
   <trkpt lon="-122.112973" lat="37.906119"><ele>300.5</ele></trkpt>
   <trkpt lon="-122.112832" lat="37.906201"><ele>303.25</ele></trkpt>
   <trkpt lon="-122.112746" lat="37.906201"><ele>303.75</ele></trkpt>
   <trkpt lon="-122.112691" lat="37.906157"><ele>303.5</ele></trkpt>
   <trkpt lon="-122.112642" lat="37.906039"><ele>302.0</ele></trkpt>
   <trkpt lon="-122.112646" lat="37.905963"><ele>300.75</ele></trkpt>
   <trkpt lon="-122.112719" lat="37.905828"><ele>298.0</ele></trkpt>
   <trkpt lon="-122.112707" lat="37.905724"><ele>296.75</ele></trkpt>
   <trkpt lon="-122.112629" lat="37.905628"><ele>296.75</ele></trkpt>
   <trkpt lon="-122.112613" lat="37.905575"><ele>296.25</ele></trkpt>
   <trkpt lon="-122.112624" lat="37.905530"><ele>295.75</ele></trkpt>
   <trkpt lon="-122.112712" lat="37.905428"><ele>293.0</ele></trkpt>
   <trkpt lon="-122.112926" lat="37.905238"><ele>287.0</ele></trkpt>
   <trkpt lon="-122.112955" lat="37.905182"><ele>285.75</ele></trkpt>
   <trkpt lon="-122.112948" lat="37.905082"><ele>284.5</ele></trkpt>
   <trkpt lon="-122.112891" lat="37.905030"><ele>284.75</ele></trkpt>
   <trkpt lon="-122.112799" lat="37.904987"><ele>285.75</ele></trkpt>
   <trkpt lon="-122.112727" lat="37.904961"><ele>286.5</ele></trkpt>
   <trkpt lon="-122.112394" lat="37.904886"><ele>289.75</ele></trkpt>
   <trkpt lon="-122.112224" lat="37.904811"><ele>289.5</ele></trkpt>
   <trkpt lon="-122.112068" lat="37.904787"><ele>290.25</ele></trkpt>
   <trkpt lon="-122.111748" lat="37.904779"><ele>293.25</ele></trkpt>
   <trkpt lon="-122.111574" lat="37.904805"><ele>294.25</ele></trkpt>
   <trkpt lon="-122.111150" lat="37.904889"><ele>294.0</ele></trkpt>
   <trkpt lon="-122.111041" lat="37.904897"><ele>293.5</ele></trkpt>
   <trkpt lon="-122.110974" lat="37.904879"><ele>292.75</ele></trkpt>
   <trkpt lon="-122.110549" lat="37.904638"><ele>285.0</ele></trkpt>
   <trkpt lon="-122.110517" lat="37.904625"><ele>284.5</ele></trkpt>
   <trkpt lon="-122.110282" lat="37.904533"><ele>282.0</ele></trkpt>
   <trkpt lon="-122.110090" lat="37.904489"><ele>280.75</ele></trkpt>
   <trkpt lon="-122.109338" lat="37.904380"><ele>275.25</ele></trkpt>
   <trkpt lon="-122.108874" lat="37.904227"><ele>273.25</ele></trkpt>
   <trkpt lon="-122.108697" lat="37.904201"><ele>271.5</ele></trkpt>
   <trkpt lon="-122.108428" lat="37.904187"><ele>268.75</ele></trkpt>
   <trkpt lon="-122.108320" lat="37.904182"><ele>267.5</ele></trkpt>
   <trkpt lon="-122.108110" lat="37.904216"><ele>264.0</ele></trkpt>
   <trkpt lon="-122.107990" lat="37.904261"><ele>261.75</ele></trkpt>
   <trkpt lon="-122.107836" lat="37.904363"><ele>259.0</ele></trkpt>
   <trkpt lon="-122.107693" lat="37.904490"><ele>256.75</ele></trkpt>
   <trkpt lon="-122.107571" lat="37.904548"><ele>255.5</ele></trkpt>
   <trkpt lon="-122.107405" lat="37.904565"><ele>254.0</ele></trkpt>
   <trkpt lon="-122.107284" lat="37.904553"><ele>253.0</ele></trkpt>
   <trkpt lon="-122.106877" lat="37.904468"><ele>249.5</ele></trkpt>
   <trkpt lon="-122.106625" lat="37.904430"><ele>246.75</ele></trkpt>
   <trkpt lon="-122.105959" lat="37.904431"><ele>235.0</ele></trkpt>
   <trkpt lon="-122.105696" lat="37.904403"><ele>225.75</ele></trkpt>
   <trkpt lon="-122.105414" lat="37.904374"><ele>225.75</ele></trkpt>
   <trkpt lon="-122.105269" lat="37.904322"><ele>224.0</ele></trkpt>
   <trkpt lon="-122.105088" lat="37.904257"><ele>221.75</ele></trkpt>
   <trkpt lon="-122.104973" lat="37.904163"><ele>221.25</ele></trkpt>
   <trkpt lon="-122.104920" lat="37.904065"><ele>219.0</ele></trkpt>
   <trkpt lon="-122.104863" lat="37.903880"><ele>216.0</ele></trkpt>
   <trkpt lon="-122.104813" lat="37.903720"><ele>213.5</ele></trkpt>
   <trkpt lon="-122.104765" lat="37.903292"><ele>209.75</ele></trkpt>
   <trkpt lon="-122.104712" lat="37.903189"><ele>209.25</ele></trkpt>
   <trkpt lon="-122.104629" lat="37.903197"><ele>207.75</ele></trkpt>
   <trkpt lon="-122.104536" lat="37.903234"><ele>206.0</ele></trkpt>
   <trkpt lon="-122.104484" lat="37.903301"><ele>204.75</ele></trkpt>
   <trkpt lon="-122.104432" lat="37.903399"><ele>204.0</ele></trkpt>
   <trkpt lon="-122.104385" lat="37.903577"><ele>203.75</ele></trkpt>
   <trkpt lon="-122.104349" lat="37.903845"><ele>204.25</ele></trkpt>
   <trkpt lon="-122.104303" lat="37.903894"><ele>203.25</ele></trkpt>
   <trkpt lon="-122.104294" lat="37.903895"><ele>203.25</ele></trkpt>
   <trkpt lon="-122.104238" lat="37.903904"><ele>202.0</ele></trkpt>
   <trkpt lon="-122.104200" lat="37.903894"><ele>201.0</ele></trkpt>
   <trkpt lon="-122.104181" lat="37.903864"><ele>200.5</ele></trkpt>
   <trkpt lon="-122.104169" lat="37.903845"><ele>200.25</ele></trkpt>
   <trkpt lon="-122.104160" lat="37.903775"><ele>199.75</ele></trkpt>
   <trkpt lon="-122.104115" lat="37.903694"><ele>199.0</ele></trkpt>
   <trkpt lon="-122.104065" lat="37.903645"><ele>198.25</ele></trkpt>
   <trkpt lon="-122.103990" lat="37.903609"><ele>197.0</ele></trkpt>
   <trkpt lon="-122.103896" lat="37.903605"><ele>195.75</ele></trkpt>
   <trkpt lon="-122.103805" lat="37.903619"><ele>194.5</ele></trkpt>
   <trkpt lon="-122.103607" lat="37.903735"><ele>192.5</ele></trkpt>
   <trkpt lon="-122.103501" lat="37.903732"><ele>191.0</ele></trkpt>
   <trkpt lon="-122.103377" lat="37.903675"><ele>189.0</ele></trkpt>
   <trkpt lon="-122.103181" lat="37.903538"><ele>186.0</ele></trkpt>
   <trkpt lon="-122.103036" lat="37.903470"><ele>184.0</ele></trkpt>
   <trkpt lon="-122.102739" lat="37.903415"><ele>180.75</ele></trkpt>
   <trkpt lon="-122.102378" lat="37.903386"><ele>175.5</ele></trkpt>
   <trkpt lon="-122.102241" lat="37.903387"><ele>172.5</ele></trkpt>
   <trkpt lon="-122.102107" lat="37.903427"><ele>169.75</ele></trkpt>
   <trkpt lon="-122.102058" lat="37.903474"><ele>168.75</ele></trkpt>
   <trkpt lon="-122.102029" lat="37.903566"><ele>168.25</ele></trkpt>
   <trkpt lon="-122.102051" lat="37.903658"><ele>169.0</ele></trkpt>
   <trkpt lon="-122.102115" lat="37.903734"><ele>171.0</ele></trkpt>
   <trkpt lon="-122.102199" lat="37.903791"><ele>173.25</ele></trkpt>
   <trkpt lon="-122.102255" lat="37.903847"><ele>175.0</ele></trkpt>
   <trkpt lon="-122.102269" lat="37.903901"><ele>175.75</ele></trkpt>
   <trkpt lon="-122.102271" lat="37.903963"><ele>176.0</ele></trkpt>
   <trkpt lon="-122.102213" lat="37.904171"><ele>175.25</ele></trkpt>
   <trkpt lon="-122.102204" lat="37.904359"><ele>173.25</ele></trkpt>
   <trkpt lon="-122.102183" lat="37.904445"><ele>172.0</ele></trkpt>
   <trkpt lon="-122.102156" lat="37.904506"><ele>170.75</ele></trkpt>
   <trkpt lon="-122.102116" lat="37.904551"><ele>169.5</ele></trkpt>
   <trkpt lon="-122.102066" lat="37.904581"><ele>168.0</ele></trkpt>
   <trkpt lon="-122.101946" lat="37.904618"><ele>165.0</ele></trkpt>
   <trkpt lon="-122.101893" lat="37.904625"><ele>163.75</ele></trkpt>
   <trkpt lon="-122.101801" lat="37.904620"><ele>161.5</ele></trkpt>
   <trkpt lon="-122.101652" lat="37.904597"><ele>158.0</ele></trkpt>
   <trkpt lon="-122.101349" lat="37.904492"><ele>153.0</ele></trkpt>
   <trkpt lon="-122.101308" lat="37.904477"><ele>152.5</ele></trkpt>
   <trkpt lon="-122.101246" lat="37.904472"><ele>151.5</ele></trkpt>
   <trkpt lon="-122.101204" lat="37.904495"><ele>150.75</ele></trkpt>
   <trkpt lon="-122.101176" lat="37.904522"><ele>150.0</ele></trkpt>
   <trkpt lon="-122.101163" lat="37.904580"><ele>149.25</ele></trkpt>
   <trkpt lon="-122.101186" lat="37.904697"><ele>149.0</ele></trkpt>
   <trkpt lon="-122.101281" lat="37.904796"><ele>150.25</ele></trkpt>
   <trkpt lon="-122.101620" lat="37.905014"><ele>156.5</ele></trkpt>
   <trkpt lon="-122.101817" lat="37.905305"><ele>151.25</ele></trkpt>
   <trkpt lon="-122.102101" lat="37.905684"><ele>143.0</ele></trkpt>
   <trkpt lon="-122.102232" lat="37.905930"><ele>137.25</ele></trkpt>
   <trkpt lon="-122.102255" lat="37.905943"><ele>137.25</ele></trkpt>
   <trkpt lon="-122.102287" lat="37.905961"><ele>137.0</ele></trkpt>
   <trkpt lon="-122.102337" lat="37.905970"><ele>137.25</ele></trkpt>
   <trkpt lon="-122.102384" lat="37.905969"><ele>137.75</ele></trkpt>
   <trkpt lon="-122.102590" lat="37.905900"><ele>140.75</ele></trkpt>
   <trkpt lon="-122.102854" lat="37.905836"><ele>143.5</ele></trkpt>
   <trkpt lon="-122.103035" lat="37.905835"><ele>144.5</ele></trkpt>
   <trkpt lon="-122.103242" lat="37.905860"><ele>144.75</ele></trkpt>
   <trkpt lon="-122.103474" lat="37.905996"><ele>144.5</ele></trkpt>
   <trkpt lon="-122.103474" lat="37.906095"><ele>142.25</ele></trkpt>
   <trkpt lon="-122.103488" lat="37.906130"><ele>141.75</ele></trkpt>
   <trkpt lon="-122.103546" lat="37.906215"><ele>140.75</ele></trkpt>
   <trkpt lon="-122.103706" lat="37.906443"><ele>138.5</ele></trkpt>
   <trkpt lon="-122.103738" lat="37.906525"><ele>137.25</ele></trkpt>
   <trkpt lon="-122.103788" lat="37.906649"><ele>135.25</ele></trkpt>
   <trkpt lon="-122.103769" lat="37.906729"><ele>134.0</ele></trkpt>
   <trkpt lon="-122.103732" lat="37.906758"><ele>133.25</ele></trkpt>
   <trkpt lon="-122.103689" lat="37.906774"><ele>132.5</ele></trkpt>
   <trkpt lon="-122.103628" lat="37.906773"><ele>131.5</ele></trkpt>
   <trkpt lon="-122.103594" lat="37.906761"><ele>131.25</ele></trkpt>
   <trkpt lon="-122.103371" lat="37.906646"><ele>129.0</ele></trkpt>
   <trkpt lon="-122.103236" lat="37.906536"><ele>130.25</ele></trkpt>
   <trkpt lon="-122.103130" lat="37.906450"><ele>131.5</ele></trkpt>
   <trkpt lon="-122.102974" lat="37.906382"><ele>132.0</ele></trkpt>
   <trkpt lon="-122.102959" lat="37.906375"><ele>132.0</ele></trkpt>
   <trkpt lon="-122.102897" lat="37.906367"><ele>132.0</ele></trkpt>
   <trkpt lon="-122.102800" lat="37.906386"><ele>131.0</ele></trkpt>
   <trkpt lon="-122.102401" lat="37.906572"><ele>124.5</ele></trkpt>
   <trkpt lon="-122.102251" lat="37.906628"><ele>122.5</ele></trkpt>
   <trkpt lon="-122.102203" lat="37.906646"><ele>122.0</ele></trkpt>
   <trkpt lon="-122.101972" lat="37.906646"><ele>120.75</ele></trkpt>
   <trkpt lon="-122.101809" lat="37.906538"><ele>122.0</ele></trkpt>
   <trkpt lon="-122.101534" lat="37.906170"><ele>126.0</ele></trkpt>
   <trkpt lon="-122.101261" lat="37.905976"><ele>125.0</ele></trkpt>
   <trkpt lon="-122.100886" lat="37.905731"><ele>123.25</ele></trkpt>
   <trkpt lon="-122.100825" lat="37.905713"><ele>122.5</ele></trkpt>
   <trkpt lon="-122.100792" lat="37.905714"><ele>122.0</ele></trkpt>
   <trkpt lon="-122.100707" lat="37.905735"><ele>120.0</ele></trkpt>
   <trkpt lon="-122.100696" lat="37.905746"><ele>119.5</ele></trkpt>
   <trkpt lon="-122.100686" lat="37.905755"><ele>119.25</ele></trkpt>
   <trkpt lon="-122.100638" lat="37.905790"><ele>117.75</ele></trkpt>
   <trkpt lon="-122.100589" lat="37.905869"><ele>115.75</ele></trkpt>
   <trkpt lon="-122.100587" lat="37.905952"><ele>115.25</ele></trkpt>
   <trkpt lon="-122.100663" lat="37.906190"><ele>114.75</ele></trkpt>
   <trkpt lon="-122.100667" lat="37.906296"><ele>113.5</ele></trkpt>
  </trkseg>
 </trk>
</gpx>
