<?xml version="1.0" encoding="UTF-8"?>
<!-- track-length = 6005 filtered ascend = 589 plain-ascend = 553 cost=7848 energy=0.1kwh time=1h 34m 1s -->
<gpx 
 xmlns="http://www.topografix.com/GPX/1/1" 
 xmlns:xsi="http://www.w3.org/2001/XMLSchema-instance" 
 xsi:schemaLocation="http://www.topografix.com/GPX/1/1 http://www.topografix.com/GPX/1/1/gpx.xsd" 
 version="1.1" 
 creator="BRouter-Web 0.18.1">
 <trk>
  <name>montaranorthpeakeast</name>
  <trkseg>
   <trkpt lat="37.553855" lon="-122.512431"><ele>22.75</ele></trkpt>
   <trkpt lat="37.553862" lon="-122.512393"><ele>23.25</ele></trkpt>
   <trkpt lat="37.553849" lon="-122.512292"><ele>24</ele></trkpt>
   <trkpt lat="37.553831" lon="-122.512221"><ele>24.5</ele></trkpt>
   <trkpt lat="37.553819" lon="-122.512177"><ele>24.5</ele></trkpt>
   <trkpt lat="37.55373" lon="-122.511975"><ele>25</ele></trkpt>
   <trkpt lat="37.55369" lon="-122.511749"><ele>26</ele></trkpt>
   <trkpt lat="37.553677" lon="-122.511287"><ele>27.75</ele></trkpt>
   <trkpt lat="37.553687" lon="-122.511102"><ele>28.5</ele></trkpt>
   <trkpt lat="37.553828" lon="-122.51048"><ele>31.25</ele></trkpt>
   <trkpt lat="37.553952" lon="-122.51021"><ele>32.5</ele></trkpt>
   <trkpt lat="37.554012" lon="-122.51008"><ele>32.75</ele></trkpt>
   <trkpt lat="37.554067" lon="-122.50986"><ele>33.25</ele></trkpt>
   <trkpt lat="37.554052" lon="-122.509631"><ele>33.5</ele></trkpt>
   <trkpt lat="37.553953" lon="-122.509233"><ele>33.5</ele></trkpt>
   <trkpt lat="37.553824" lon="-122.5088"><ele>35.5</ele></trkpt>
   <trkpt lat="37.5538" lon="-122.508618"><ele>36.75</ele></trkpt>
   <trkpt lat="37.553897" lon="-122.508211"><ele>39</ele></trkpt>
   <trkpt lat="37.553884" lon="-122.508158"><ele>39.25</ele></trkpt>
   <trkpt lat="37.553867" lon="-122.507733"><ele>40</ele></trkpt>
   <trkpt lat="37.553849" lon="-122.507712"><ele>40.25</ele></trkpt>
   <trkpt lat="37.553867" lon="-122.507733"><ele>40</ele></trkpt>
   <trkpt lat="37.554066" lon="-122.507492"><ele>40.75</ele></trkpt>
   <trkpt lat="37.554273" lon="-122.507277"><ele>41.75</ele></trkpt>
   <trkpt lat="37.554379" lon="-122.507185"><ele>42.5</ele></trkpt>
   <trkpt lat="37.554521" lon="-122.507058"><ele>43.5</ele></trkpt>
   <trkpt lat="37.554731" lon="-122.506906"><ele>44.75</ele></trkpt>
   <trkpt lat="37.554938" lon="-122.506802"><ele>45.75</ele></trkpt>
   <trkpt lat="37.55515" lon="-122.50672"><ele>47.5</ele></trkpt>
   <trkpt lat="37.555875" lon="-122.506498"><ele>55.25</ele></trkpt>
   <trkpt lat="37.556013" lon="-122.506422"><ele>57.25</ele></trkpt>
   <trkpt lat="37.556059" lon="-122.506396"><ele>57.25</ele></trkpt>
   <trkpt lat="37.556314" lon="-122.506255"><ele>60.25</ele></trkpt>
   <trkpt lat="37.557018" lon="-122.505967"><ele>71</ele></trkpt>
   <trkpt lat="37.55714" lon="-122.505917"><ele>74.75</ele></trkpt>
   <trkpt lat="37.557243" lon="-122.505875"><ele>74.75</ele></trkpt>
   <trkpt lat="37.55771" lon="-122.505736"><ele>81.75</ele></trkpt>
   <trkpt lat="37.558301" lon="-122.505625"><ele>91</ele></trkpt>
   <trkpt lat="37.558454" lon="-122.505563"><ele>93.25</ele></trkpt>
   <trkpt lat="37.558735" lon="-122.50542"><ele>102.25</ele></trkpt>
   <trkpt lat="37.55901" lon="-122.505281"><ele>102.25</ele></trkpt>
   <trkpt lat="37.559105" lon="-122.505252"><ele>104</ele></trkpt>
   <trkpt lat="37.559863" lon="-122.505194"><ele>116.25</ele></trkpt>
   <trkpt lat="37.560037" lon="-122.505149"><ele>119.75</ele></trkpt>
   <trkpt lat="37.560358" lon="-122.505015"><ele>132.25</ele></trkpt>
   <trkpt lat="37.560564" lon="-122.504929"><ele>132.25</ele></trkpt>
   <trkpt lat="37.560777" lon="-122.504813"><ele>137.75</ele></trkpt>
   <trkpt lat="37.560922" lon="-122.504703"><ele>142</ele></trkpt>
   <trkpt lat="37.560942" lon="-122.504705"><ele>142.5</ele></trkpt>
   <trkpt lat="37.560964" lon="-122.504742"><ele>142.5</ele></trkpt>
   <trkpt lat="37.561048" lon="-122.504653"><ele>145.5</ele></trkpt>
   <trkpt lat="37.561273" lon="-122.504503"><ele>152.75</ele></trkpt>
   <trkpt lat="37.561312" lon="-122.504427"><ele>154.75</ele></trkpt>
   <trkpt lat="37.561318" lon="-122.504382"><ele>155.5</ele></trkpt>
   <trkpt lat="37.561299" lon="-122.504295"><ele>156.25</ele></trkpt>
   <trkpt lat="37.561193" lon="-122.504171"><ele>155.25</ele></trkpt>
   <trkpt lat="37.560899" lon="-122.504"><ele>150.25</ele></trkpt>
   <trkpt lat="37.560862" lon="-122.503978"><ele>150.25</ele></trkpt>
   <trkpt lat="37.560769" lon="-122.503904"><ele>149.25</ele></trkpt>
   <trkpt lat="37.560579" lon="-122.50369"><ele>148.75</ele></trkpt>
   <trkpt lat="37.560427" lon="-122.503563"><ele>147.25</ele></trkpt>
   <trkpt lat="37.560337" lon="-122.503452"><ele>147.25</ele></trkpt>
   <trkpt lat="37.560434" lon="-122.503442"><ele>149.75</ele></trkpt>
   <trkpt lat="37.56048" lon="-122.503442"><ele>151</ele></trkpt>
   <trkpt lat="37.560532" lon="-122.503461"><ele>151.75</ele></trkpt>
   <trkpt lat="37.560644" lon="-122.50354"><ele>153.25</ele></trkpt>
   <trkpt lat="37.560711" lon="-122.503649"><ele>152.75</ele></trkpt>
   <trkpt lat="37.560829" lon="-122.503757"><ele>153.5</ele></trkpt>
   <trkpt lat="37.560997" lon="-122.503845"><ele>156.5</ele></trkpt>
   <trkpt lat="37.561139" lon="-122.503877"><ele>160</ele></trkpt>
   <trkpt lat="37.561371" lon="-122.50387"><ele>167</ele></trkpt>
   <trkpt lat="37.561394" lon="-122.503869"><ele>167</ele></trkpt>
   <trkpt lat="37.561679" lon="-122.503808"><ele>176.25</ele></trkpt>
   <trkpt lat="37.561849" lon="-122.50373"><ele>181.5</ele></trkpt>
   <trkpt lat="37.561921" lon="-122.503724"><ele>183.25</ele></trkpt>
   <trkpt lat="37.56195" lon="-122.503746"><ele>183.5</ele></trkpt>
   <trkpt lat="37.561969" lon="-122.503783"><ele>183</ele></trkpt>
   <trkpt lat="37.561987" lon="-122.503919"><ele>181</ele></trkpt>
   <trkpt lat="37.561948" lon="-122.504046"><ele>177.5</ele></trkpt>
   <trkpt lat="37.56186" lon="-122.504192"><ele>172.5</ele></trkpt>
   <trkpt lat="37.561828" lon="-122.504274"><ele>170.25</ele></trkpt>
   <trkpt lat="37.561824" lon="-122.504306"><ele>169.5</ele></trkpt>
   <trkpt lat="37.5618" lon="-122.504499"><ele>165.25</ele></trkpt>
   <trkpt lat="37.561809" lon="-122.50459"><ele>164</ele></trkpt>
   <trkpt lat="37.561826" lon="-122.504666"><ele>163</ele></trkpt>
   <trkpt lat="37.561857" lon="-122.504701"><ele>163</ele></trkpt>
   <trkpt lat="37.56189" lon="-122.504737"><ele>163</ele></trkpt>
   <trkpt lat="37.561955" lon="-122.504775"><ele>163.5</ele></trkpt>
   <trkpt lat="37.562099" lon="-122.504777"><ele>166.25</ele></trkpt>
   <trkpt lat="37.562383" lon="-122.504699"><ele>174</ele></trkpt>
   <trkpt lat="37.56267" lon="-122.504652"><ele>182.25</ele></trkpt>
   <trkpt lat="37.563033" lon="-122.504628"><ele>195</ele></trkpt>
   <trkpt lat="37.563104" lon="-122.504623"><ele>195</ele></trkpt>
   <trkpt lat="37.563177" lon="-122.50463"><ele>196.75</ele></trkpt>
   <trkpt lat="37.563208" lon="-122.504651"><ele>197.25</ele></trkpt>
   <trkpt lat="37.563245" lon="-122.504728"><ele>197</ele></trkpt>
   <trkpt lat="37.563243" lon="-122.504819"><ele>195.25</ele></trkpt>
   <trkpt lat="37.563219" lon="-122.504906"><ele>193</ele></trkpt>
   <trkpt lat="37.56308" lon="-122.505227"><ele>185.25</ele></trkpt>
   <trkpt lat="37.563053" lon="-122.505359"><ele>183.5</ele></trkpt>
   <trkpt lat="37.563055" lon="-122.505451"><ele>183</ele></trkpt>
   <trkpt lat="37.56308" lon="-122.505536"><ele>183.25</ele></trkpt>
   <trkpt lat="37.563152" lon="-122.505639"><ele>185</ele></trkpt>
   <trkpt lat="37.563405" lon="-122.505821"><ele>191</ele></trkpt>
   <trkpt lat="37.563442" lon="-122.5059"><ele>190.75</ele></trkpt>
   <trkpt lat="37.563443" lon="-122.505991"><ele>189.75</ele></trkpt>
   <trkpt lat="37.563397" lon="-122.506114"><ele>188.25</ele></trkpt>
   <trkpt lat="37.563337" lon="-122.506186"><ele>187</ele></trkpt>
   <trkpt lat="37.563235" lon="-122.506279"><ele>184</ele></trkpt>
   <trkpt lat="37.563175" lon="-122.506359"><ele>182.25</ele></trkpt>
   <trkpt lat="37.563123" lon="-122.506474"><ele>180.75</ele></trkpt>
   <trkpt lat="37.563064" lon="-122.506665"><ele>179.75</ele></trkpt>
   <trkpt lat="37.563008" lon="-122.506772"><ele>178</ele></trkpt>
   <trkpt lat="37.562869" lon="-122.506987"><ele>175.5</ele></trkpt>
   <trkpt lat="37.562855" lon="-122.507137"><ele>174.75</ele></trkpt>
   <trkpt lat="37.562865" lon="-122.507169"><ele>174.75</ele></trkpt>
   <trkpt lat="37.563025" lon="-122.507022"><ele>175.75</ele></trkpt>
   <trkpt lat="37.563097" lon="-122.506936"><ele>177</ele></trkpt>
   <trkpt lat="37.563261" lon="-122.506673"><ele>182</ele></trkpt>
   <trkpt lat="37.563329" lon="-122.506582"><ele>183.5</ele></trkpt>
   <trkpt lat="37.563414" lon="-122.506504"><ele>184.5</ele></trkpt>
   <trkpt lat="37.563505" lon="-122.506456"><ele>185.5</ele></trkpt>
   <trkpt lat="37.563592" lon="-122.506444"><ele>186</ele></trkpt>
   <trkpt lat="37.563711" lon="-122.506313"><ele>188.5</ele></trkpt>
   <trkpt lat="37.563819" lon="-122.506167"><ele>191.5</ele></trkpt>
   <trkpt lat="37.563797" lon="-122.505972"><ele>194.25</ele></trkpt>
   <trkpt lat="37.563781" lon="-122.505883"><ele>195.5</ele></trkpt>
   <trkpt lat="37.563745" lon="-122.505753"><ele>196</ele></trkpt>
   <trkpt lat="37.563646" lon="-122.505509"><ele>195.75</ele></trkpt>
   <trkpt lat="37.563631" lon="-122.505374"><ele>196.25</ele></trkpt>
   <trkpt lat="37.563647" lon="-122.505285"><ele>196.75</ele></trkpt>
   <trkpt lat="37.56378" lon="-122.505012"><ele>199</ele></trkpt>
   <trkpt lat="37.563866" lon="-122.50476"><ele>202.25</ele></trkpt>
   <trkpt lat="37.563881" lon="-122.504533"><ele>204.25</ele></trkpt>
   <trkpt lat="37.563873" lon="-122.504495"><ele>204.5</ele></trkpt>
   <trkpt lat="37.563821" lon="-122.504344"><ele>206</ele></trkpt>
   <trkpt lat="37.563621" lon="-122.5043"><ele>206.5</ele></trkpt>
   <trkpt lat="37.563589" lon="-122.504292"><ele>206.5</ele></trkpt>
   <trkpt lat="37.563489" lon="-122.50425"><ele>207.25</ele></trkpt>
   <trkpt lat="37.563403" lon="-122.504191"><ele>208.25</ele></trkpt>
   <trkpt lat="37.563335" lon="-122.504118"><ele>209.5</ele></trkpt>
   <trkpt lat="37.563304" lon="-122.504066"><ele>209.5</ele></trkpt>
   <trkpt lat="37.563287" lon="-122.503988"><ele>210</ele></trkpt>
   <trkpt lat="37.563299" lon="-122.503929"><ele>211</ele></trkpt>
   <trkpt lat="37.563375" lon="-122.503818"><ele>213</ele></trkpt>
   <trkpt lat="37.563818" lon="-122.503379"><ele>216.5</ele></trkpt>
   <trkpt lat="37.563904" lon="-122.503242"><ele>219</ele></trkpt>
   <trkpt lat="37.563925" lon="-122.503123"><ele>221.75</ele></trkpt>
   <trkpt lat="37.563919" lon="-122.503023"><ele>224</ele></trkpt>
   <trkpt lat="37.563878" lon="-122.502915"><ele>226.25</ele></trkpt>
   <trkpt lat="37.563674" lon="-122.502699"><ele>229.75</ele></trkpt>
   <trkpt lat="37.563633" lon="-122.502627"><ele>230.75</ele></trkpt>
   <trkpt lat="37.563609" lon="-122.50254"><ele>232</ele></trkpt>
   <trkpt lat="37.56362" lon="-122.502477"><ele>233.25</ele></trkpt>
   <trkpt lat="37.56364" lon="-122.502442"><ele>234</ele></trkpt>
   <trkpt lat="37.563669" lon="-122.50241"><ele>235</ele></trkpt>
   <trkpt lat="37.563703" lon="-122.502394"><ele>235.5</ele></trkpt>
   <trkpt lat="37.563869" lon="-122.502353"><ele>238.75</ele></trkpt>
   <trkpt lat="37.563982" lon="-122.502295"><ele>242</ele></trkpt>
   <trkpt lat="37.564029" lon="-122.502239"><ele>244.5</ele></trkpt>
   <trkpt lat="37.564053" lon="-122.502146"><ele>247.5</ele></trkpt>
   <trkpt lat="37.564065" lon="-122.502025"><ele>251</ele></trkpt>
   <trkpt lat="37.564149" lon="-122.501665"><ele>264.25</ele></trkpt>
   <trkpt lat="37.564155" lon="-122.501589"><ele>265.75</ele></trkpt>
   <trkpt lat="37.564152" lon="-122.501536"><ele>266.75</ele></trkpt>
   <trkpt lat="37.564138" lon="-122.501489"><ele>267</ele></trkpt>
   <trkpt lat="37.564112" lon="-122.501439"><ele>266.75</ele></trkpt>
   <trkpt lat="37.564068" lon="-122.501398"><ele>266</ele></trkpt>
   <trkpt lat="37.563893" lon="-122.501275"><ele>261</ele></trkpt>
   <trkpt lat="37.563869" lon="-122.501235"><ele>260.75</ele></trkpt>
   <trkpt lat="37.563855" lon="-122.501198"><ele>260.75</ele></trkpt>
   <trkpt lat="37.563861" lon="-122.501118"><ele>262.5</ele></trkpt>
   <trkpt lat="37.563887" lon="-122.50106"><ele>264.5</ele></trkpt>
   <trkpt lat="37.563929" lon="-122.500994"><ele>267.25</ele></trkpt>
   <trkpt lat="37.563977" lon="-122.500966"><ele>269.75</ele></trkpt>
   <trkpt lat="37.564025" lon="-122.500966"><ele>271.75</ele></trkpt>
   <trkpt lat="37.564076" lon="-122.500995"><ele>273.25</ele></trkpt>
   <trkpt lat="37.564199" lon="-122.501106"><ele>275.25</ele></trkpt>
   <trkpt lat="37.564324" lon="-122.501192"><ele>274.75</ele></trkpt>
   <trkpt lat="37.564455" lon="-122.501221"><ele>275.25</ele></trkpt>
   <trkpt lat="37.564519" lon="-122.501209"><ele>276</ele></trkpt>
   <trkpt lat="37.564583" lon="-122.501173"><ele>277.5</ele></trkpt>
   <trkpt lat="37.564674" lon="-122.501077"><ele>281</ele></trkpt>
   <trkpt lat="37.564853" lon="-122.500792"><ele>290.5</ele></trkpt>
   <trkpt lat="37.564987" lon="-122.500642"><ele>293</ele></trkpt>
   <trkpt lat="37.565102" lon="-122.500545"><ele>296.25</ele></trkpt>
   <trkpt lat="37.565144" lon="-122.500423"><ele>298.25</ele></trkpt>
   <trkpt lat="37.565227" lon="-122.500119"><ele>303.25</ele></trkpt>
   <trkpt lat="37.565289" lon="-122.49997"><ele>306</ele></trkpt>
   <trkpt lat="37.565377" lon="-122.499895"><ele>308.25</ele></trkpt>
   <trkpt lat="37.56563" lon="-122.499775"><ele>317</ele></trkpt>
   <trkpt lat="37.56591" lon="-122.499591"><ele>325.5</ele></trkpt>
   <trkpt lat="37.566235" lon="-122.499464"><ele>335.25</ele></trkpt>
   <trkpt lat="37.566308" lon="-122.499416"><ele>337.75</ele></trkpt>
   <trkpt lat="37.566413" lon="-122.499315"><ele>341.75</ele></trkpt>
   <trkpt lat="37.566478" lon="-122.499208"><ele>344.5</ele></trkpt>
   <trkpt lat="37.566517" lon="-122.499085"><ele>345.25</ele></trkpt>
   <trkpt lat="37.566564" lon="-122.498747"><ele>342.5</ele></trkpt>
   <trkpt lat="37.5666" lon="-122.4986"><ele>342.25</ele></trkpt>
   <trkpt lat="37.566639" lon="-122.498527"><ele>343</ele></trkpt>
   <trkpt lat="37.566726" lon="-122.498426"><ele>344.25</ele></trkpt>
   <trkpt lat="37.566846" lon="-122.49836"><ele>345.75</ele></trkpt>
   <trkpt lat="37.567099" lon="-122.498274"><ele>350.5</ele></trkpt>
   <trkpt lat="37.567295" lon="-122.498221"><ele>354.75</ele></trkpt>
   <trkpt lat="37.567355" lon="-122.498192"><ele>356.25</ele></trkpt>
   <trkpt lat="37.567411" lon="-122.498147"><ele>358</ele></trkpt>
   <trkpt lat="37.567669" lon="-122.497893"><ele>360.5</ele></trkpt>
   <trkpt lat="37.567804" lon="-122.497735"><ele>361.25</ele></trkpt>
   <trkpt lat="37.567852" lon="-122.497666"><ele>362</ele></trkpt>
   <trkpt lat="37.567891" lon="-122.497578"><ele>363</ele></trkpt>
   <trkpt lat="37.567961" lon="-122.497353"><ele>365.75</ele></trkpt>
   <trkpt lat="37.568068" lon="-122.496841"><ele>372.5</ele></trkpt>
   <trkpt lat="37.568128" lon="-122.496627"><ele>374.75</ele></trkpt>
   <trkpt lat="37.568253" lon="-122.496354"><ele>376.75</ele></trkpt>
   <trkpt lat="37.568304" lon="-122.496166"><ele>378.5</ele></trkpt>
   <trkpt lat="37.568305" lon="-122.496035"><ele>380</ele></trkpt>
   <trkpt lat="37.568208" lon="-122.49569"><ele>382.75</ele></trkpt>
   <trkpt lat="37.568124" lon="-122.495505"><ele>383.5</ele></trkpt>
   <trkpt lat="37.567964" lon="-122.495267"><ele>385.25</ele></trkpt>
   <trkpt lat="37.567911" lon="-122.495123"><ele>386.25</ele></trkpt>
   <trkpt lat="37.567853" lon="-122.49491"><ele>387</ele></trkpt>
   <trkpt lat="37.56781" lon="-122.494673"><ele>387.5</ele></trkpt>
   <trkpt lat="37.567769" lon="-122.494309"><ele>388.25</ele></trkpt>
   <trkpt lat="37.567732" lon="-122.494139"><ele>389.25</ele></trkpt>
   <trkpt lat="37.56767" lon="-122.493895"><ele>392</ele></trkpt>
   <trkpt lat="37.567516" lon="-122.49343"><ele>399.75</ele></trkpt>
   <trkpt lat="37.56749" lon="-122.493277"><ele>401.25</ele></trkpt>
   <trkpt lat="37.567467" lon="-122.492874"><ele>405.5</ele></trkpt>
   <trkpt lat="37.567475" lon="-122.492763"><ele>406.75</ele></trkpt>
   <trkpt lat="37.567516" lon="-122.492596"><ele>408</ele></trkpt>
   <trkpt lat="37.567601" lon="-122.492418"><ele>406</ele></trkpt>
   <trkpt lat="37.567742" lon="-122.4922"><ele>402.5</ele></trkpt>
   <trkpt lat="37.567792" lon="-122.492082"><ele>402</ele></trkpt>
   <trkpt lat="37.567857" lon="-122.491864"><ele>402.25</ele></trkpt>
   <trkpt lat="37.567873" lon="-122.491755"><ele>403.25</ele></trkpt>
   <trkpt lat="37.567864" lon="-122.491509"><ele>405.5</ele></trkpt>
   <trkpt lat="37.567814" lon="-122.491368"><ele>408.25</ele></trkpt>
   <trkpt lat="37.567679" lon="-122.491146"><ele>414.25</ele></trkpt>
   <trkpt lat="37.567548" lon="-122.490829"><ele>418.25</ele></trkpt>
   <trkpt lat="37.567472" lon="-122.490721"><ele>420.25</ele></trkpt>
   <trkpt lat="37.567353" lon="-122.490606"><ele>419.75</ele></trkpt>
   <trkpt lat="37.567331" lon="-122.490585"><ele>419.5</ele></trkpt>
   <trkpt lat="37.567293" lon="-122.490515"><ele>419.5</ele></trkpt>
   <trkpt lat="37.567286" lon="-122.490432"><ele>420</ele></trkpt>
   <trkpt lat="37.567308" lon="-122.490347"><ele>420.75</ele></trkpt>
   <trkpt lat="37.567394" lon="-122.490216"><ele>422</ele></trkpt>
   <trkpt lat="37.567569" lon="-122.490025"><ele>421.5</ele></trkpt>
   <trkpt lat="37.567614" lon="-122.489913"><ele>420.5</ele></trkpt>
   <trkpt lat="37.567602" lon="-122.489818"><ele>421.5</ele></trkpt>
   <trkpt lat="37.567514" lon="-122.489662"><ele>424.75</ele></trkpt>
   <trkpt lat="37.567421" lon="-122.489579"><ele>425.5</ele></trkpt>
   <trkpt lat="37.567244" lon="-122.489488"><ele>431.5</ele></trkpt>
   <trkpt lat="37.56691" lon="-122.489314"><ele>431.5</ele></trkpt>
   <trkpt lat="37.566758" lon="-122.489167"><ele>435.75</ele></trkpt>
   <trkpt lat="37.566612" lon="-122.488956"><ele>438</ele></trkpt>
   <trkpt lat="37.566498" lon="-122.488755"><ele>438.25</ele></trkpt>
   <trkpt lat="37.566368" lon="-122.48845"><ele>439.75</ele></trkpt>
   <trkpt lat="37.566337" lon="-122.488311"><ele>441</ele></trkpt>
   <trkpt lat="37.566329" lon="-122.4882"><ele>442.5</ele></trkpt>
   <trkpt lat="37.566343" lon="-122.488026"><ele>445.5</ele></trkpt>
   <trkpt lat="37.566498" lon="-122.487684"><ele>451.75</ele></trkpt>
   <trkpt lat="37.566496" lon="-122.487546"><ele>453.5</ele></trkpt>
   <trkpt lat="37.566425" lon="-122.487342"><ele>456</ele></trkpt>
   <trkpt lat="37.566413" lon="-122.487266"><ele>457</ele></trkpt>
   <trkpt lat="37.566419" lon="-122.487167"><ele>458.5</ele></trkpt>
   <trkpt lat="37.566488" lon="-122.486925"><ele>461.75</ele></trkpt>
   <trkpt lat="37.56651" lon="-122.486795"><ele>463.25</ele></trkpt>
   <trkpt lat="37.566513" lon="-122.486353"><ele>463.5</ele></trkpt>
   <trkpt lat="37.566504" lon="-122.486266"><ele>463</ele></trkpt>
   <trkpt lat="37.566477" lon="-122.486187"><ele>463</ele></trkpt>
   <trkpt lat="37.566411" lon="-122.486117"><ele>463.25</ele></trkpt>
   <trkpt lat="37.566344" lon="-122.486092"><ele>463.75</ele></trkpt>
   <trkpt lat="37.566255" lon="-122.486094"><ele>464.75</ele></trkpt>
   <trkpt lat="37.56604" lon="-122.486161"><ele>467.25</ele></trkpt>
   <trkpt lat="37.56568" lon="-122.486218"><ele>469.75</ele></trkpt>
   <trkpt lat="37.565525" lon="-122.48626"><ele>470</ele></trkpt>
   <trkpt lat="37.565448" lon="-122.486265"><ele>470</ele></trkpt>
   <trkpt lat="37.565381" lon="-122.486247"><ele>470.5</ele></trkpt>
   <trkpt lat="37.565335" lon="-122.486214"><ele>471.25</ele></trkpt>
   <trkpt lat="37.565277" lon="-122.486134"><ele>472.75</ele></trkpt>
   <trkpt lat="37.565251" lon="-122.486051"><ele>474.5</ele></trkpt>
   <trkpt lat="37.56524" lon="-122.485917"><ele>477.25</ele></trkpt>
   <trkpt lat="37.565253" lon="-122.485717"><ele>477.5</ele></trkpt>
   <trkpt lat="37.565218" lon="-122.485513"><ele>476</ele></trkpt>
   <trkpt lat="37.565179" lon="-122.485462"><ele>476.5</ele></trkpt>
   <trkpt lat="37.565107" lon="-122.48544"><ele>477.75</ele></trkpt>
   <trkpt lat="37.565003" lon="-122.485477"><ele>480.25</ele></trkpt>
   <trkpt lat="37.564892" lon="-122.48557"><ele>483.75</ele></trkpt>
   <trkpt lat="37.564706" lon="-122.485812"><ele>489.5</ele></trkpt>
   <trkpt lat="37.564653" lon="-122.485869"><ele>490</ele></trkpt>
   <trkpt lat="37.564581" lon="-122.485907"><ele>491</ele></trkpt>
   <trkpt lat="37.564493" lon="-122.485917"><ele>492.75</ele></trkpt>
   <trkpt lat="37.564361" lon="-122.485891"><ele>496.5</ele></trkpt>
   <trkpt lat="37.564047" lon="-122.485743"><ele>503.75</ele></trkpt>
   <trkpt lat="37.563973" lon="-122.485686"><ele>505.25</ele></trkpt>
   <trkpt lat="37.563931" lon="-122.485617"><ele>506.25</ele></trkpt>
   <trkpt lat="37.563915" lon="-122.485512"><ele>507.25</ele></trkpt>
   <trkpt lat="37.564009" lon="-122.485141"><ele>507.25</ele></trkpt>
   <trkpt lat="37.564024" lon="-122.48485"><ele>508.75</ele></trkpt>
   <trkpt lat="37.564135" lon="-122.484535"><ele>508.5</ele></trkpt>
   <trkpt lat="37.564156" lon="-122.48444"><ele>508.75</ele></trkpt>
   <trkpt lat="37.564147" lon="-122.484322"><ele>510</ele></trkpt>
   <trkpt lat="37.564099" lon="-122.484202"><ele>512.25</ele></trkpt>
   <trkpt lat="37.564054" lon="-122.484134"><ele>513.5</ele></trkpt>
   <trkpt lat="37.563839" lon="-122.483885"><ele>517.5</ele></trkpt>
   <trkpt lat="37.563724" lon="-122.483694"><ele>519.25</ele></trkpt>
   <trkpt lat="37.563704" lon="-122.483587"><ele>519</ele></trkpt>
   <trkpt lat="37.563714" lon="-122.483287"><ele>517.5</ele></trkpt>
   <trkpt lat="37.563666" lon="-122.483162"><ele>519.75</ele></trkpt>
   <trkpt lat="37.56357" lon="-122.48308"><ele>522</ele></trkpt>
   <trkpt lat="37.563503" lon="-122.483048"><ele>523.5</ele></trkpt>
   <trkpt lat="37.563349" lon="-122.483003"><ele>526.25</ele></trkpt>
   <trkpt lat="37.562992" lon="-122.482953"><ele>526.5</ele></trkpt>
   <trkpt lat="37.562859" lon="-122.482917"><ele>526.5</ele></trkpt>
   <trkpt lat="37.562503" lon="-122.482782"><ele>527.75</ele></trkpt>
   <trkpt lat="37.56201" lon="-122.482491"><ele>530.5</ele></trkpt>
   <trkpt lat="37.562065" lon="-122.482278"><ele>535</ele></trkpt>
   <trkpt lat="37.562128" lon="-122.482085"><ele>539.5</ele></trkpt>
   <trkpt lat="37.562175" lon="-122.482026"><ele>541</ele></trkpt>
   <trkpt lat="37.562265" lon="-122.481941"><ele>543.5</ele></trkpt>
   <trkpt lat="37.562324" lon="-122.481873"><ele>545.5</ele></trkpt>
   <trkpt lat="37.562334" lon="-122.481825"><ele>546.75</ele></trkpt>
   <trkpt lat="37.562329" lon="-122.481767"><ele>548</ele></trkpt>
   <trkpt lat="37.562194" lon="-122.481425"><ele>550</ele></trkpt>
   <trkpt lat="37.562107" lon="-122.48129"><ele>550</ele></trkpt>
   <trkpt lat="37.562162" lon="-122.481233"><ele>550.5</ele></trkpt>
   <trkpt lat="37.561753" lon="-122.480364"><ele>549.25</ele></trkpt>
   <trkpt lat="37.561537" lon="-122.48006"><ele>549</ele></trkpt>
   <trkpt lat="37.561434" lon="-122.479102"><ele>544.5</ele></trkpt>
   <trkpt lat="37.56141" lon="-122.478653"><ele>549</ele></trkpt>
   <trkpt lat="37.561385" lon="-122.478513"><ele>550.5</ele></trkpt>
   <trkpt lat="37.561337" lon="-122.478408"><ele>551.5</ele></trkpt>
   <trkpt lat="37.561277" lon="-122.478341"><ele>552.25</ele></trkpt>
   <trkpt lat="37.561188" lon="-122.478291"><ele>552.75</ele></trkpt>
   <trkpt lat="37.561037" lon="-122.478268"><ele>553.25</ele></trkpt>
   <trkpt lat="37.560958" lon="-122.478225"><ele>553.75</ele></trkpt>
   <trkpt lat="37.560941" lon="-122.478148"><ele>554.5</ele></trkpt>
   <trkpt lat="37.561016" lon="-122.478032"><ele>555.25</ele></trkpt>
   <trkpt lat="37.56102" lon="-122.477997"><ele>555.5</ele></trkpt>
   <trkpt lat="37.560984" lon="-122.477963"><ele>555.75</ele></trkpt>
   <trkpt lat="37.560916" lon="-122.477954"><ele>556.25</ele></trkpt>
   <trkpt lat="37.560842" lon="-122.477961"><ele>556.5</ele></trkpt>
   <trkpt lat="37.560791" lon="-122.477939"><ele>555.25</ele></trkpt>
   <trkpt lat="37.560783" lon="-122.47791"><ele>555.25</ele></trkpt>
  </trkseg>
 </trk>
</gpx>