<?xml version="1.0" encoding="UTF-8"?>
<!-- track-length = 34603 filtered ascend = 594 plain-ascend = 463 cost=1676959 energy=6.6kwh time=17h 15m 37s -->
<gpx 
 xmlns="http://www.topografix.com/GPX/1/1" 
 xmlns:xsi="http://www.w3.org/2001/XMLSchema-instance" 
 xsi:schemaLocation="http://www.topografix.com/GPX/1/1 http://www.topografix.com/GPX/1/1/gpx.xsd" 
 version="1.1" 
 creator="BRouter-Web 0.18.1">
 <trk>
  <name>newidria</name>
  <trkseg>
   <trkpt lat="36.595115" lon="-120.828747"><ele>370</ele></trkpt>
   <trkpt lat="36.595099" lon="-120.828708"><ele>370</ele></trkpt>
   <trkpt lat="36.594829" lon="-120.827831"><ele>369.75</ele></trkpt>
   <trkpt lat="36.594792" lon="-120.82771"><ele>369.75</ele></trkpt>
   <trkpt lat="36.594664" lon="-120.827214"><ele>368.5</ele></trkpt>
   <trkpt lat="36.594579" lon="-120.826982"><ele>367.75</ele></trkpt>
   <trkpt lat="36.594516" lon="-120.826867"><ele>367.5</ele></trkpt>
   <trkpt lat="36.594285" lon="-120.826576"><ele>367</ele></trkpt>
   <trkpt lat="36.593439" lon="-120.825713"><ele>364.25</ele></trkpt>
   <trkpt lat="36.592608" lon="-120.824821"><ele>364.25</ele></trkpt>
   <trkpt lat="36.592455" lon="-120.824579"><ele>364.25</ele></trkpt>
   <trkpt lat="36.592334" lon="-120.824207"><ele>364.25</ele></trkpt>
   <trkpt lat="36.592244" lon="-120.823839"><ele>365</ele></trkpt>
   <trkpt lat="36.592184" lon="-120.823418"><ele>365.5</ele></trkpt>
   <trkpt lat="36.59217" lon="-120.823211"><ele>365.5</ele></trkpt>
   <trkpt lat="36.592165" lon="-120.822688"><ele>364.25</ele></trkpt>
   <trkpt lat="36.592195" lon="-120.821852"><ele>363</ele></trkpt>
   <trkpt lat="36.592166" lon="-120.821619"><ele>363</ele></trkpt>
   <trkpt lat="36.592053" lon="-120.821323"><ele>363.5</ele></trkpt>
   <trkpt lat="36.591845" lon="-120.821023"><ele>364.25</ele></trkpt>
   <trkpt lat="36.591551" lon="-120.820743"><ele>365.25</ele></trkpt>
   <trkpt lat="36.591364" lon="-120.820616"><ele>365.75</ele></trkpt>
   <trkpt lat="36.590459" lon="-120.819887"><ele>363.75</ele></trkpt>
   <trkpt lat="36.590106" lon="-120.819563"><ele>363</ele></trkpt>
   <trkpt lat="36.590041" lon="-120.819503"><ele>362.75</ele></trkpt>
   <trkpt lat="36.589833" lon="-120.819312"><ele>362.75</ele></trkpt>
   <trkpt lat="36.589584" lon="-120.819022"><ele>362.5</ele></trkpt>
   <trkpt lat="36.589025" lon="-120.818278"><ele>362.25</ele></trkpt>
   <trkpt lat="36.588648" lon="-120.817864"><ele>363</ele></trkpt>
   <trkpt lat="36.58836" lon="-120.817637"><ele>363</ele></trkpt>
   <trkpt lat="36.587797" lon="-120.817236"><ele>363</ele></trkpt>
   <trkpt lat="36.587427" lon="-120.817005"><ele>362.5</ele></trkpt>
   <trkpt lat="36.586889" lon="-120.816742"><ele>360.75</ele></trkpt>
   <trkpt lat="36.58664" lon="-120.816586"><ele>359.75</ele></trkpt>
   <trkpt lat="36.586357" lon="-120.816245"><ele>360.75</ele></trkpt>
   <trkpt lat="36.586072" lon="-120.815973"><ele>361.75</ele></trkpt>
   <trkpt lat="36.585898" lon="-120.815838"><ele>362.5</ele></trkpt>
   <trkpt lat="36.585404" lon="-120.815572"><ele>364.5</ele></trkpt>
   <trkpt lat="36.584541" lon="-120.814951"><ele>361.25</ele></trkpt>
   <trkpt lat="36.584278" lon="-120.814801"><ele>361.75</ele></trkpt>
   <trkpt lat="36.58413" lon="-120.814692"><ele>361.25</ele></trkpt>
   <trkpt lat="36.583867" lon="-120.814409"><ele>359.75</ele></trkpt>
   <trkpt lat="36.583401" lon="-120.813795"><ele>358.25</ele></trkpt>
   <trkpt lat="36.583268" lon="-120.813652"><ele>358</ele></trkpt>
   <trkpt lat="36.58318" lon="-120.813575"><ele>357.75</ele></trkpt>
   <trkpt lat="36.582882" lon="-120.813379"><ele>357.75</ele></trkpt>
   <trkpt lat="36.582745" lon="-120.813345"><ele>358</ele></trkpt>
   <trkpt lat="36.582574" lon="-120.813389"><ele>359</ele></trkpt>
   <trkpt lat="36.582436" lon="-120.813464"><ele>359.5</ele></trkpt>
   <trkpt lat="36.581687" lon="-120.81404"><ele>359.75</ele></trkpt>
   <trkpt lat="36.581209" lon="-120.814378"><ele>361.25</ele></trkpt>
   <trkpt lat="36.580529" lon="-120.814611"><ele>361.25</ele></trkpt>
   <trkpt lat="36.580438" lon="-120.814666"><ele>361.25</ele></trkpt>
   <trkpt lat="36.580278" lon="-120.814784"><ele>361.75</ele></trkpt>
   <trkpt lat="36.580029" lon="-120.815015"><ele>363</ele></trkpt>
   <trkpt lat="36.579872" lon="-120.81521"><ele>363.75</ele></trkpt>
   <trkpt lat="36.57972" lon="-120.815444"><ele>364.25</ele></trkpt>
   <trkpt lat="36.579561" lon="-120.815906"><ele>365.5</ele></trkpt>
   <trkpt lat="36.5793" lon="-120.816803"><ele>365</ele></trkpt>
   <trkpt lat="36.579118" lon="-120.817265"><ele>365.25</ele></trkpt>
   <trkpt lat="36.578976" lon="-120.817512"><ele>366</ele></trkpt>
   <trkpt lat="36.578591" lon="-120.818078"><ele>369.25</ele></trkpt>
   <trkpt lat="36.578394" lon="-120.818301"><ele>369.25</ele></trkpt>
   <trkpt lat="36.578155" lon="-120.818509"><ele>369.75</ele></trkpt>
   <trkpt lat="36.576525" lon="-120.819695"><ele>372</ele></trkpt>
   <trkpt lat="36.576139" lon="-120.81993"><ele>371</ele></trkpt>
   <trkpt lat="36.575886" lon="-120.820123"><ele>369.75</ele></trkpt>
   <trkpt lat="36.575772" lon="-120.820235"><ele>370</ele></trkpt>
   <trkpt lat="36.575115" lon="-120.820984"><ele>371.75</ele></trkpt>
   <trkpt lat="36.574513" lon="-120.821768"><ele>374</ele></trkpt>
   <trkpt lat="36.574312" lon="-120.822079"><ele>373.75</ele></trkpt>
   <trkpt lat="36.574036" lon="-120.822549"><ele>373.75</ele></trkpt>
   <trkpt lat="36.573782" lon="-120.822921"><ele>376</ele></trkpt>
   <trkpt lat="36.572818" lon="-120.824249"><ele>376</ele></trkpt>
   <trkpt lat="36.572668" lon="-120.824425"><ele>377.75</ele></trkpt>
   <trkpt lat="36.572465" lon="-120.824617"><ele>379.5</ele></trkpt>
   <trkpt lat="36.571757" lon="-120.825146"><ele>378.75</ele></trkpt>
   <trkpt lat="36.571561" lon="-120.825327"><ele>379</ele></trkpt>
   <trkpt lat="36.570207" lon="-120.826833"><ele>380.25</ele></trkpt>
   <trkpt lat="36.569086" lon="-120.827977"><ele>382.25</ele></trkpt>
   <trkpt lat="36.567893" lon="-120.829112"><ele>382.75</ele></trkpt>
   <trkpt lat="36.565323" lon="-120.831788"><ele>388.25</ele></trkpt>
   <trkpt lat="36.564686" lon="-120.832451"><ele>386.75</ele></trkpt>
   <trkpt lat="36.564485" lon="-120.832696"><ele>387.75</ele></trkpt>
   <trkpt lat="36.564267" lon="-120.832998"><ele>389</ele></trkpt>
   <trkpt lat="36.564037" lon="-120.833413"><ele>391</ele></trkpt>
   <trkpt lat="36.56359" lon="-120.834309"><ele>392</ele></trkpt>
   <trkpt lat="36.563042" lon="-120.835258"><ele>392</ele></trkpt>
   <trkpt lat="36.562979" lon="-120.83536"><ele>392.5</ele></trkpt>
   <trkpt lat="36.562809" lon="-120.835547"><ele>393</ele></trkpt>
   <trkpt lat="36.562659" lon="-120.835654"><ele>392.75</ele></trkpt>
   <trkpt lat="36.56193" lon="-120.836035"><ele>393.75</ele></trkpt>
   <trkpt lat="36.561699" lon="-120.836243"><ele>394.5</ele></trkpt>
   <trkpt lat="36.561646" lon="-120.836324"><ele>394.75</ele></trkpt>
   <trkpt lat="36.561579" lon="-120.836377"><ele>394.75</ele></trkpt>
   <trkpt lat="36.561521" lon="-120.83645"><ele>395</ele></trkpt>
   <trkpt lat="36.561297" lon="-120.836756"><ele>395.5</ele></trkpt>
   <trkpt lat="36.561189" lon="-120.836966"><ele>396</ele></trkpt>
   <trkpt lat="36.561143" lon="-120.837227"><ele>397</ele></trkpt>
   <trkpt lat="36.561143" lon="-120.838087"><ele>398.25</ele></trkpt>
   <trkpt lat="36.561112" lon="-120.838273"><ele>398</ele></trkpt>
   <trkpt lat="36.561037" lon="-120.838492"><ele>397.75</ele></trkpt>
   <trkpt lat="36.560913" lon="-120.838724"><ele>397.25</ele></trkpt>
   <trkpt lat="36.560608" lon="-120.839167"><ele>399.75</ele></trkpt>
   <trkpt lat="36.560371" lon="-120.839458"><ele>403.5</ele></trkpt>
   <trkpt lat="36.560292" lon="-120.83953"><ele>404.5</ele></trkpt>
   <trkpt lat="36.560231" lon="-120.839572"><ele>405</ele></trkpt>
   <trkpt lat="36.559969" lon="-120.839684"><ele>406.25</ele></trkpt>
   <trkpt lat="36.559098" lon="-120.839942"><ele>405.5</ele></trkpt>
   <trkpt lat="36.558869" lon="-120.840119"><ele>406.75</ele></trkpt>
   <trkpt lat="36.558579" lon="-120.840412"><ele>408.25</ele></trkpt>
   <trkpt lat="36.558507" lon="-120.840465"><ele>408</ele></trkpt>
   <trkpt lat="36.558335" lon="-120.84056"><ele>406.5</ele></trkpt>
   <trkpt lat="36.557991" lon="-120.840697"><ele>405.25</ele></trkpt>
   <trkpt lat="36.557898" lon="-120.840719"><ele>404.75</ele></trkpt>
   <trkpt lat="36.557707" lon="-120.840741"><ele>403.5</ele></trkpt>
   <trkpt lat="36.557468" lon="-120.840709"><ele>403</ele></trkpt>
   <trkpt lat="36.557235" lon="-120.840566"><ele>405.75</ele></trkpt>
   <trkpt lat="36.556725" lon="-120.840159"><ele>409</ele></trkpt>
   <trkpt lat="36.556555" lon="-120.840107"><ele>409.75</ele></trkpt>
   <trkpt lat="36.556362" lon="-120.840102"><ele>410.5</ele></trkpt>
   <trkpt lat="36.556113" lon="-120.840117"><ele>411.75</ele></trkpt>
   <trkpt lat="36.55573" lon="-120.840187"><ele>413.75</ele></trkpt>
   <trkpt lat="36.555557" lon="-120.840166"><ele>414.75</ele></trkpt>
   <trkpt lat="36.555498" lon="-120.840129"><ele>414.75</ele></trkpt>
   <trkpt lat="36.555413" lon="-120.840021"><ele>415</ele></trkpt>
   <trkpt lat="36.555327" lon="-120.839813"><ele>416.5</ele></trkpt>
   <trkpt lat="36.555092" lon="-120.839129"><ele>421.25</ele></trkpt>
   <trkpt lat="36.554929" lon="-120.83876"><ele>428.25</ele></trkpt>
   <trkpt lat="36.554826" lon="-120.83858"><ele>430.5</ele></trkpt>
   <trkpt lat="36.554618" lon="-120.8383"><ele>432.25</ele></trkpt>
   <trkpt lat="36.554473" lon="-120.838155"><ele>437.25</ele></trkpt>
   <trkpt lat="36.554368" lon="-120.838096"><ele>438</ele></trkpt>
   <trkpt lat="36.554241" lon="-120.838076"><ele>436.25</ele></trkpt>
   <trkpt lat="36.554105" lon="-120.838087"><ele>435</ele></trkpt>
   <trkpt lat="36.553876" lon="-120.838138"><ele>436</ele></trkpt>
   <trkpt lat="36.553761" lon="-120.838182"><ele>435.75</ele></trkpt>
   <trkpt lat="36.553485" lon="-120.838355"><ele>432.5</ele></trkpt>
   <trkpt lat="36.553077" lon="-120.838831"><ele>429.25</ele></trkpt>
   <trkpt lat="36.552967" lon="-120.838881"><ele>428.75</ele></trkpt>
   <trkpt lat="36.552854" lon="-120.838873"><ele>429.5</ele></trkpt>
   <trkpt lat="36.552394" lon="-120.838642"><ele>438.5</ele></trkpt>
   <trkpt lat="36.552253" lon="-120.838622"><ele>437.5</ele></trkpt>
   <trkpt lat="36.552128" lon="-120.838645"><ele>435.25</ele></trkpt>
   <trkpt lat="36.552047" lon="-120.838682"><ele>433.5</ele></trkpt>
   <trkpt lat="36.551937" lon="-120.838773"><ele>430.25</ele></trkpt>
   <trkpt lat="36.551821" lon="-120.838835"><ele>428</ele></trkpt>
   <trkpt lat="36.551695" lon="-120.838862"><ele>426.75</ele></trkpt>
   <trkpt lat="36.551635" lon="-120.838854"><ele>426.75</ele></trkpt>
   <trkpt lat="36.551542" lon="-120.838782"><ele>427.25</ele></trkpt>
   <trkpt lat="36.551455" lon="-120.838642"><ele>428.75</ele></trkpt>
   <trkpt lat="36.551297" lon="-120.838312"><ele>430.75</ele></trkpt>
   <trkpt lat="36.551247" lon="-120.83816"><ele>431.25</ele></trkpt>
   <trkpt lat="36.551178" lon="-120.837805"><ele>432.75</ele></trkpt>
   <trkpt lat="36.551094" lon="-120.837471"><ele>433.25</ele></trkpt>
   <trkpt lat="36.550981" lon="-120.837215"><ele>435</ele></trkpt>
   <trkpt lat="36.55087" lon="-120.837062"><ele>434.25</ele></trkpt>
   <trkpt lat="36.550649" lon="-120.836885"><ele>435.5</ele></trkpt>
   <trkpt lat="36.550431" lon="-120.836799"><ele>436</ele></trkpt>
   <trkpt lat="36.550243" lon="-120.8368"><ele>435.25</ele></trkpt>
   <trkpt lat="36.550132" lon="-120.836825"><ele>434.25</ele></trkpt>
   <trkpt lat="36.549579" lon="-120.837006"><ele>432.25</ele></trkpt>
   <trkpt lat="36.549437" lon="-120.836987"><ele>432.75</ele></trkpt>
   <trkpt lat="36.549324" lon="-120.836929"><ele>433.5</ele></trkpt>
   <trkpt lat="36.549037" lon="-120.836708"><ele>435.5</ele></trkpt>
   <trkpt lat="36.548764" lon="-120.836541"><ele>436.25</ele></trkpt>
   <trkpt lat="36.548487" lon="-120.836274"><ele>437.75</ele></trkpt>
   <trkpt lat="36.548389" lon="-120.836162"><ele>438</ele></trkpt>
   <trkpt lat="36.548151" lon="-120.835717"><ele>442.25</ele></trkpt>
   <trkpt lat="36.548051" lon="-120.835568"><ele>446</ele></trkpt>
   <trkpt lat="36.547863" lon="-120.835375"><ele>449.5</ele></trkpt>
   <trkpt lat="36.547735" lon="-120.835281"><ele>450.25</ele></trkpt>
   <trkpt lat="36.547672" lon="-120.835257"><ele>450.25</ele></trkpt>
   <trkpt lat="36.547558" lon="-120.835263"><ele>448.5</ele></trkpt>
   <trkpt lat="36.547492" lon="-120.835296"><ele>447</ele></trkpt>
   <trkpt lat="36.547007" lon="-120.835772"><ele>436.75</ele></trkpt>
   <trkpt lat="36.546661" lon="-120.836015"><ele>435.75</ele></trkpt>
   <trkpt lat="36.546261" lon="-120.836206"><ele>437.75</ele></trkpt>
   <trkpt lat="36.54599" lon="-120.836242"><ele>439</ele></trkpt>
   <trkpt lat="36.545814" lon="-120.8362"><ele>440.75</ele></trkpt>
   <trkpt lat="36.545709" lon="-120.836145"><ele>442.25</ele></trkpt>
   <trkpt lat="36.545456" lon="-120.835959"><ele>445.25</ele></trkpt>
   <trkpt lat="36.544132" lon="-120.835178"><ele>461.5</ele></trkpt>
   <trkpt lat="36.544044" lon="-120.835165"><ele>462</ele></trkpt>
   <trkpt lat="36.543964" lon="-120.835176"><ele>462.25</ele></trkpt>
   <trkpt lat="36.542915" lon="-120.835459"><ele>454.5</ele></trkpt>
   <trkpt lat="36.542655" lon="-120.835452"><ele>453</ele></trkpt>
   <trkpt lat="36.542171" lon="-120.835181"><ele>453.5</ele></trkpt>
   <trkpt lat="36.54182" lon="-120.835006"><ele>450.75</ele></trkpt>
   <trkpt lat="36.541735" lon="-120.834951"><ele>450.5</ele></trkpt>
   <trkpt lat="36.541652" lon="-120.834832"><ele>451.25</ele></trkpt>
   <trkpt lat="36.541492" lon="-120.834717"><ele>454.5</ele></trkpt>
   <trkpt lat="36.541329" lon="-120.834636"><ele>457.75</ele></trkpt>
   <trkpt lat="36.541076" lon="-120.834559"><ele>462.75</ele></trkpt>
   <trkpt lat="36.540844" lon="-120.834562"><ele>465.5</ele></trkpt>
   <trkpt lat="36.540691" lon="-120.834608"><ele>465</ele></trkpt>
   <trkpt lat="36.540559" lon="-120.834683"><ele>463.25</ele></trkpt>
   <trkpt lat="36.539973" lon="-120.835307"><ele>454.5</ele></trkpt>
   <trkpt lat="36.539899" lon="-120.835356"><ele>453.5</ele></trkpt>
   <trkpt lat="36.539802" lon="-120.835373"><ele>453.25</ele></trkpt>
   <trkpt lat="36.539729" lon="-120.835347"><ele>453.5</ele></trkpt>
   <trkpt lat="36.539479" lon="-120.835043"><ele>456</ele></trkpt>
   <trkpt lat="36.539416" lon="-120.834999"><ele>456</ele></trkpt>
   <trkpt lat="36.539271" lon="-120.834975"><ele>455.75</ele></trkpt>
   <trkpt lat="36.539107" lon="-120.834984"><ele>455.25</ele></trkpt>
   <trkpt lat="36.538838" lon="-120.835037"><ele>455</ele></trkpt>
   <trkpt lat="36.537148" lon="-120.834934"><ele>458</ele></trkpt>
   <trkpt lat="36.536845" lon="-120.834892"><ele>458.25</ele></trkpt>
   <trkpt lat="36.536344" lon="-120.83479"><ele>459.5</ele></trkpt>
   <trkpt lat="36.536135" lon="-120.834651"><ele>461.25</ele></trkpt>
   <trkpt lat="36.535884" lon="-120.834433"><ele>464.25</ele></trkpt>
   <trkpt lat="36.535809" lon="-120.834396"><ele>465</ele></trkpt>
   <trkpt lat="36.53569" lon="-120.834379"><ele>465.75</ele></trkpt>
   <trkpt lat="36.53561" lon="-120.834393"><ele>466</ele></trkpt>
   <trkpt lat="36.535351" lon="-120.834524"><ele>465.5</ele></trkpt>
   <trkpt lat="36.5351" lon="-120.834605"><ele>465.5</ele></trkpt>
   <trkpt lat="36.534747" lon="-120.834633"><ele>467.25</ele></trkpt>
   <trkpt lat="36.534659" lon="-120.834673"><ele>467.25</ele></trkpt>
   <trkpt lat="36.534584" lon="-120.834747"><ele>467.25</ele></trkpt>
   <trkpt lat="36.5345" lon="-120.834884"><ele>466.5</ele></trkpt>
   <trkpt lat="36.534292" lon="-120.835526"><ele>465.75</ele></trkpt>
   <trkpt lat="36.534018" lon="-120.836245"><ele>464</ele></trkpt>
   <trkpt lat="36.533964" lon="-120.836345"><ele>463.5</ele></trkpt>
   <trkpt lat="36.533855" lon="-120.836463"><ele>463.25</ele></trkpt>
   <trkpt lat="36.533714" lon="-120.836548"><ele>463.25</ele></trkpt>
   <trkpt lat="36.533553" lon="-120.836599"><ele>463.5</ele></trkpt>
   <trkpt lat="36.533366" lon="-120.836608"><ele>464.5</ele></trkpt>
   <trkpt lat="36.533193" lon="-120.836573"><ele>464.5</ele></trkpt>
   <trkpt lat="36.533075" lon="-120.836503"><ele>464.75</ele></trkpt>
   <trkpt lat="36.532982" lon="-120.836414"><ele>465.5</ele></trkpt>
   <trkpt lat="36.53285" lon="-120.83625"><ele>468</ele></trkpt>
   <trkpt lat="36.532727" lon="-120.836094"><ele>468</ele></trkpt>
   <trkpt lat="36.532603" lon="-120.835998"><ele>468.5</ele></trkpt>
   <trkpt lat="36.532492" lon="-120.835968"><ele>468.5</ele></trkpt>
   <trkpt lat="36.532175" lon="-120.835991"><ele>468</ele></trkpt>
   <trkpt lat="36.53207" lon="-120.835971"><ele>468.25</ele></trkpt>
   <trkpt lat="36.531936" lon="-120.835884"><ele>469.25</ele></trkpt>
   <trkpt lat="36.531682" lon="-120.835655"><ele>473.75</ele></trkpt>
   <trkpt lat="36.531586" lon="-120.835608"><ele>475</ele></trkpt>
   <trkpt lat="36.531483" lon="-120.835584"><ele>475.75</ele></trkpt>
   <trkpt lat="36.531097" lon="-120.835582"><ele>477.25</ele></trkpt>
   <trkpt lat="36.530734" lon="-120.835634"><ele>477</ele></trkpt>
   <trkpt lat="36.530415" lon="-120.835734"><ele>476</ele></trkpt>
   <trkpt lat="36.530184" lon="-120.835905"><ele>473.75</ele></trkpt>
   <trkpt lat="36.529701" lon="-120.836146"><ele>471.5</ele></trkpt>
   <trkpt lat="36.529561" lon="-120.836186"><ele>471</ele></trkpt>
   <trkpt lat="36.529403" lon="-120.836161"><ele>471.25</ele></trkpt>
   <trkpt lat="36.528292" lon="-120.835705"><ele>477.75</ele></trkpt>
   <trkpt lat="36.527863" lon="-120.835445"><ele>479.75</ele></trkpt>
   <trkpt lat="36.527197" lon="-120.835251"><ele>478.75</ele></trkpt>
   <trkpt lat="36.527005" lon="-120.835146"><ele>478.25</ele></trkpt>
   <trkpt lat="36.526858" lon="-120.835043"><ele>477.75</ele></trkpt>
   <trkpt lat="36.526401" lon="-120.834649"><ele>482.75</ele></trkpt>
   <trkpt lat="36.526099" lon="-120.834306"><ele>484.25</ele></trkpt>
   <trkpt lat="36.525913" lon="-120.834167"><ele>481.75</ele></trkpt>
   <trkpt lat="36.525666" lon="-120.834097"><ele>480.5</ele></trkpt>
   <trkpt lat="36.52538" lon="-120.834034"><ele>481</ele></trkpt>
   <trkpt lat="36.52481" lon="-120.833943"><ele>481.5</ele></trkpt>
   <trkpt lat="36.524174" lon="-120.833803"><ele>484.75</ele></trkpt>
   <trkpt lat="36.524038" lon="-120.833741"><ele>485.5</ele></trkpt>
   <trkpt lat="36.523764" lon="-120.833556"><ele>487.75</ele></trkpt>
   <trkpt lat="36.523607" lon="-120.833422"><ele>489.25</ele></trkpt>
   <trkpt lat="36.523414" lon="-120.833208"><ele>494.75</ele></trkpt>
   <trkpt lat="36.523364" lon="-120.83317"><ele>496.25</ele></trkpt>
   <trkpt lat="36.523257" lon="-120.833139"><ele>497.5</ele></trkpt>
   <trkpt lat="36.523073" lon="-120.833153"><ele>497.25</ele></trkpt>
   <trkpt lat="36.522615" lon="-120.833284"><ele>493.25</ele></trkpt>
   <trkpt lat="36.522498" lon="-120.833298"><ele>493</ele></trkpt>
   <trkpt lat="36.522337" lon="-120.833289"><ele>492.5</ele></trkpt>
   <trkpt lat="36.522028" lon="-120.833143"><ele>494.5</ele></trkpt>
   <trkpt lat="36.521487" lon="-120.833129"><ele>492.75</ele></trkpt>
   <trkpt lat="36.521303" lon="-120.833177"><ele>492.5</ele></trkpt>
   <trkpt lat="36.521148" lon="-120.833244"><ele>492</ele></trkpt>
   <trkpt lat="36.520777" lon="-120.833452"><ele>491</ele></trkpt>
   <trkpt lat="36.520623" lon="-120.833487"><ele>490.75</ele></trkpt>
   <trkpt lat="36.520275" lon="-120.833453"><ele>491</ele></trkpt>
   <trkpt lat="36.520153" lon="-120.833421"><ele>491.25</ele></trkpt>
   <trkpt lat="36.519849" lon="-120.833251"><ele>492.75</ele></trkpt>
   <trkpt lat="36.519366" lon="-120.832864"><ele>496.5</ele></trkpt>
   <trkpt lat="36.519253" lon="-120.832828"><ele>496.5</ele></trkpt>
   <trkpt lat="36.518302" lon="-120.8327"><ele>496.25</ele></trkpt>
   <trkpt lat="36.517601" lon="-120.832639"><ele>497.5</ele></trkpt>
   <trkpt lat="36.516782" lon="-120.832631"><ele>498.25</ele></trkpt>
   <trkpt lat="36.515791" lon="-120.832721"><ele>501</ele></trkpt>
   <trkpt lat="36.515203" lon="-120.832813"><ele>500</ele></trkpt>
   <trkpt lat="36.514971" lon="-120.832859"><ele>500</ele></trkpt>
   <trkpt lat="36.514584" lon="-120.832937"><ele>501.25</ele></trkpt>
   <trkpt lat="36.514196" lon="-120.832952"><ele>502.5</ele></trkpt>
   <trkpt lat="36.51316" lon="-120.832663"><ele>505.25</ele></trkpt>
   <trkpt lat="36.512821" lon="-120.83247"><ele>506.75</ele></trkpt>
   <trkpt lat="36.512603" lon="-120.83232"><ele>507.75</ele></trkpt>
   <trkpt lat="36.512405" lon="-120.832126"><ele>507.75</ele></trkpt>
   <trkpt lat="36.511857" lon="-120.831499"><ele>508</ele></trkpt>
   <trkpt lat="36.511424" lon="-120.831059"><ele>509.25</ele></trkpt>
   <trkpt lat="36.510991" lon="-120.830484"><ele>510.25</ele></trkpt>
   <trkpt lat="36.510759" lon="-120.830229"><ele>511</ele></trkpt>
   <trkpt lat="36.510631" lon="-120.829983"><ele>511.25</ele></trkpt>
   <trkpt lat="36.509738" lon="-120.828674"><ele>512.75</ele></trkpt>
   <trkpt lat="36.508342" lon="-120.826826"><ele>519.25</ele></trkpt>
   <trkpt lat="36.507545" lon="-120.825741"><ele>524.25</ele></trkpt>
   <trkpt lat="36.506933" lon="-120.82496"><ele>525.25</ele></trkpt>
   <trkpt lat="36.50569" lon="-120.823247"><ele>530.5</ele></trkpt>
   <trkpt lat="36.505031" lon="-120.822475"><ele>533.75</ele></trkpt>
   <trkpt lat="36.504161" lon="-120.821611"><ele>538</ele></trkpt>
   <trkpt lat="36.503917" lon="-120.821386"><ele>538.5</ele></trkpt>
   <trkpt lat="36.503617" lon="-120.821153"><ele>539</ele></trkpt>
   <trkpt lat="36.501627" lon="-120.819909"><ele>539</ele></trkpt>
   <trkpt lat="36.501013" lon="-120.81959"><ele>540.25</ele></trkpt>
   <trkpt lat="36.500386" lon="-120.819315"><ele>543.25</ele></trkpt>
   <trkpt lat="36.500016" lon="-120.819172"><ele>545.75</ele></trkpt>
   <trkpt lat="36.499921" lon="-120.819101"><ele>546</ele></trkpt>
   <trkpt lat="36.499831" lon="-120.819003"><ele>546.25</ele></trkpt>
   <trkpt lat="36.499765" lon="-120.818904"><ele>546.5</ele></trkpt>
   <trkpt lat="36.499649" lon="-120.818668"><ele>546.5</ele></trkpt>
   <trkpt lat="36.499527" lon="-120.8185"><ele>546.25</ele></trkpt>
   <trkpt lat="36.49941" lon="-120.818409"><ele>545.75</ele></trkpt>
   <trkpt lat="36.499126" lon="-120.818246"><ele>545.5</ele></trkpt>
   <trkpt lat="36.49878" lon="-120.818099"><ele>547.75</ele></trkpt>
   <trkpt lat="36.49812" lon="-120.81762"><ele>549.25</ele></trkpt>
   <trkpt lat="36.498022" lon="-120.81758"><ele>549.25</ele></trkpt>
   <trkpt lat="36.497668" lon="-120.817506"><ele>549.75</ele></trkpt>
   <trkpt lat="36.497082" lon="-120.817288"><ele>552.25</ele></trkpt>
   <trkpt lat="36.49667" lon="-120.817202"><ele>552.25</ele></trkpt>
   <trkpt lat="36.496484" lon="-120.817145"><ele>553</ele></trkpt>
   <trkpt lat="36.496334" lon="-120.817043"><ele>553.75</ele></trkpt>
   <trkpt lat="36.496265" lon="-120.816909"><ele>554.25</ele></trkpt>
   <trkpt lat="36.496028" lon="-120.816254"><ele>557.25</ele></trkpt>
   <trkpt lat="36.495396" lon="-120.814725"><ele>561.25</ele></trkpt>
   <trkpt lat="36.495246" lon="-120.814306"><ele>562</ele></trkpt>
   <trkpt lat="36.494951" lon="-120.81338"><ele>564</ele></trkpt>
   <trkpt lat="36.494837" lon="-120.813088"><ele>565.25</ele></trkpt>
   <trkpt lat="36.494211" lon="-120.811675"><ele>568.75</ele></trkpt>
   <trkpt lat="36.493552" lon="-120.810383"><ele>572.5</ele></trkpt>
   <trkpt lat="36.493402" lon="-120.809995"><ele>574</ele></trkpt>
   <trkpt lat="36.493318" lon="-120.809731"><ele>575.25</ele></trkpt>
   <trkpt lat="36.493243" lon="-120.809397"><ele>576.75</ele></trkpt>
   <trkpt lat="36.493229" lon="-120.80926"><ele>577.5</ele></trkpt>
   <trkpt lat="36.493215" lon="-120.809118"><ele>578</ele></trkpt>
   <trkpt lat="36.493174" lon="-120.808923"><ele>578.25</ele></trkpt>
   <trkpt lat="36.492943" lon="-120.80833"><ele>578.75</ele></trkpt>
   <trkpt lat="36.492742" lon="-120.807761"><ele>578.75</ele></trkpt>
   <trkpt lat="36.491837" lon="-120.805361"><ele>580.5</ele></trkpt>
   <trkpt lat="36.491558" lon="-120.804531"><ele>581</ele></trkpt>
   <trkpt lat="36.49131" lon="-120.803794"><ele>581</ele></trkpt>
   <trkpt lat="36.491073" lon="-120.803166"><ele>582.25</ele></trkpt>
   <trkpt lat="36.490615" lon="-120.802058"><ele>586</ele></trkpt>
   <trkpt lat="36.489841" lon="-120.799987"><ele>588.5</ele></trkpt>
   <trkpt lat="36.48959" lon="-120.799365"><ele>587</ele></trkpt>
   <trkpt lat="36.489331" lon="-120.798655"><ele>585.25</ele></trkpt>
   <trkpt lat="36.489161" lon="-120.79819"><ele>584.25</ele></trkpt>
   <trkpt lat="36.489047" lon="-120.797975"><ele>585.25</ele></trkpt>
   <trkpt lat="36.488677" lon="-120.797416"><ele>587.75</ele></trkpt>
   <trkpt lat="36.487681" lon="-120.796067"><ele>590.75</ele></trkpt>
   <trkpt lat="36.487496" lon="-120.795869"><ele>590.75</ele></trkpt>
   <trkpt lat="36.487022" lon="-120.795487"><ele>591.75</ele></trkpt>
   <trkpt lat="36.485063" lon="-120.794001"><ele>599.25</ele></trkpt>
   <trkpt lat="36.484062" lon="-120.793196"><ele>604.25</ele></trkpt>
   <trkpt lat="36.483001" lon="-120.792278"><ele>608.5</ele></trkpt>
   <trkpt lat="36.482645" lon="-120.791953"><ele>609.25</ele></trkpt>
   <trkpt lat="36.482116" lon="-120.79142"><ele>611.5</ele></trkpt>
   <trkpt lat="36.482038" lon="-120.791335"><ele>611.75</ele></trkpt>
   <trkpt lat="36.48188" lon="-120.791104"><ele>612</ele></trkpt>
   <trkpt lat="36.481546" lon="-120.790364"><ele>611</ele></trkpt>
   <trkpt lat="36.481042" lon="-120.789124"><ele>607.75</ele></trkpt>
   <trkpt lat="36.480739" lon="-120.788019"><ele>602.75</ele></trkpt>
   <trkpt lat="36.480154" lon="-120.78611"><ele>596.5</ele></trkpt>
   <trkpt lat="36.480046" lon="-120.785657"><ele>596.75</ele></trkpt>
   <trkpt lat="36.479805" lon="-120.784589"><ele>596.75</ele></trkpt>
   <trkpt lat="36.479317" lon="-120.782038"><ele>594.75</ele></trkpt>
   <trkpt lat="36.479182" lon="-120.781436"><ele>594</ele></trkpt>
   <trkpt lat="36.478991" lon="-120.780776"><ele>591.75</ele></trkpt>
   <trkpt lat="36.477411" lon="-120.77689"><ele>583</ele></trkpt>
   <trkpt lat="36.476894" lon="-120.775656"><ele>583.25</ele></trkpt>
   <trkpt lat="36.476894" lon="-120.775654"><ele>583.25</ele></trkpt>
   <trkpt lat="36.476513" lon="-120.774646"><ele>577.75</ele></trkpt>
   <trkpt lat="36.47617" lon="-120.773809"><ele>574.75</ele></trkpt>
   <trkpt lat="36.476068" lon="-120.773494"><ele>574.5</ele></trkpt>
   <trkpt lat="36.47603" lon="-120.773317"><ele>574.5</ele></trkpt>
   <trkpt lat="36.476027" lon="-120.77279"><ele>573.75</ele></trkpt>
   <trkpt lat="36.476132" lon="-120.771362"><ele>571.5</ele></trkpt>
   <trkpt lat="36.476206" lon="-120.770507"><ele>570.25</ele></trkpt>
   <trkpt lat="36.476564" lon="-120.767"><ele>563.25</ele></trkpt>
   <trkpt lat="36.476737" lon="-120.765063"><ele>559.75</ele></trkpt>
   <trkpt lat="36.47687" lon="-120.76399"><ele>557.5</ele></trkpt>
   <trkpt lat="36.477234" lon="-120.761516"><ele>552</ele></trkpt>
   <trkpt lat="36.477704" lon="-120.758558"><ele>547.25</ele></trkpt>
   <trkpt lat="36.477744" lon="-120.758365"><ele>547.5</ele></trkpt>
   <trkpt lat="36.477927" lon="-120.757747"><ele>548.5</ele></trkpt>
   <trkpt lat="36.477934" lon="-120.757686"><ele>548.75</ele></trkpt>
   <trkpt lat="36.477541" lon="-120.756433"><ele>548</ele></trkpt>
   <trkpt lat="36.475979" lon="-120.751258"><ele>540.25</ele></trkpt>
   <trkpt lat="36.474614" lon="-120.746869"><ele>536</ele></trkpt>
   <trkpt lat="36.474076" lon="-120.745077"><ele>533.75</ele></trkpt>
   <trkpt lat="36.473872" lon="-120.744427"><ele>533.25</ele></trkpt>
   <trkpt lat="36.47366" lon="-120.743837"><ele>532.75</ele></trkpt>
   <trkpt lat="36.473506" lon="-120.743534"><ele>532.5</ele></trkpt>
   <trkpt lat="36.47341" lon="-120.743399"><ele>532.25</ele></trkpt>
   <trkpt lat="36.473303" lon="-120.743278"><ele>532</ele></trkpt>
   <trkpt lat="36.472787" lon="-120.74283"><ele>531.25</ele></trkpt>
   <trkpt lat="36.472643" lon="-120.742647"><ele>531.25</ele></trkpt>
   <trkpt lat="36.472516" lon="-120.742387"><ele>531.25</ele></trkpt>
   <trkpt lat="36.470552" lon="-120.737067"><ele>526.75</ele></trkpt>
   <trkpt lat="36.470338" lon="-120.736449"><ele>525.5</ele></trkpt>
   <trkpt lat="36.469517" lon="-120.73428"><ele>525</ele></trkpt>
   <trkpt lat="36.468638" lon="-120.731892"><ele>523.75</ele></trkpt>
   <trkpt lat="36.468466" lon="-120.731387"><ele>523.25</ele></trkpt>
   <trkpt lat="36.468271" lon="-120.730891"><ele>521.75</ele></trkpt>
   <trkpt lat="36.468084" lon="-120.7305"><ele>520.75</ele></trkpt>
   <trkpt lat="36.467409" lon="-120.729644"><ele>518.5</ele></trkpt>
   <trkpt lat="36.466866" lon="-120.729059"><ele>518.5</ele></trkpt>
   <trkpt lat="36.466278" lon="-120.72825"><ele>517.75</ele></trkpt>
   <trkpt lat="36.465666" lon="-120.727366"><ele>516.5</ele></trkpt>
   <trkpt lat="36.463445" lon="-120.723775"><ele>513</ele></trkpt>
   <trkpt lat="36.461258" lon="-120.720163"><ele>507.5</ele></trkpt>
   <trkpt lat="36.460441" lon="-120.718897"><ele>505.75</ele></trkpt>
   <trkpt lat="36.459913" lon="-120.71795"><ele>504.75</ele></trkpt>
   <trkpt lat="36.459817" lon="-120.717817"><ele>505</ele></trkpt>
   <trkpt lat="36.459522" lon="-120.717303"><ele>505.25</ele></trkpt>
   <trkpt lat="36.45947" lon="-120.717189"><ele>505.25</ele></trkpt>
   <trkpt lat="36.459403" lon="-120.716966"><ele>505</ele></trkpt>
   <trkpt lat="36.459373" lon="-120.716653"><ele>504.75</ele></trkpt>
   <trkpt lat="36.459367" lon="-120.716391"><ele>505</ele></trkpt>
   <trkpt lat="36.459388" lon="-120.715649"><ele>505</ele></trkpt>
   <trkpt lat="36.459414" lon="-120.715365"><ele>504.5</ele></trkpt>
   <trkpt lat="36.459461" lon="-120.714176"><ele>500.5</ele></trkpt>
   <trkpt lat="36.459445" lon="-120.713295"><ele>501</ele></trkpt>
   <trkpt lat="36.459421" lon="-120.7128"><ele>502.75</ele></trkpt>
   <trkpt lat="36.459414" lon="-120.712081"><ele>502.5</ele></trkpt>
   <trkpt lat="36.45945" lon="-120.710282"><ele>502.25</ele></trkpt>
   <trkpt lat="36.459455" lon="-120.710036"><ele>502.25</ele></trkpt>
   <trkpt lat="36.459467" lon="-120.709354"><ele>500.25</ele></trkpt>
   <trkpt lat="36.45959" lon="-120.707019"><ele>494.5</ele></trkpt>
   <trkpt lat="36.459848" lon="-120.703301"><ele>488.75</ele></trkpt>
   <trkpt lat="36.459842" lon="-120.702113"><ele>486.25</ele></trkpt>
   <trkpt lat="36.459853" lon="-120.701463"><ele>484.5</ele></trkpt>
   <trkpt lat="36.459833" lon="-120.700262"><ele>486</ele></trkpt>
   <trkpt lat="36.459853" lon="-120.699465"><ele>486.75</ele></trkpt>
   <trkpt lat="36.459976" lon="-120.697818"><ele>484.75</ele></trkpt>
   <trkpt lat="36.460118" lon="-120.695492"><ele>484</ele></trkpt>
   <trkpt lat="36.460166" lon="-120.694927"><ele>483.25</ele></trkpt>
   <trkpt lat="36.460211" lon="-120.694679"><ele>484.25</ele></trkpt>
   <trkpt lat="36.460284" lon="-120.694415"><ele>485</ele></trkpt>
   <trkpt lat="36.460424" lon="-120.694028"><ele>486.5</ele></trkpt>
   <trkpt lat="36.46047" lon="-120.693859"><ele>487</ele></trkpt>
   <trkpt lat="36.460518" lon="-120.69351"><ele>488</ele></trkpt>
   <trkpt lat="36.460512" lon="-120.693252"><ele>488.75</ele></trkpt>
   <trkpt lat="36.46047" lon="-120.693052"><ele>488.5</ele></trkpt>
   <trkpt lat="36.460397" lon="-120.692868"><ele>488.25</ele></trkpt>
   <trkpt lat="36.460348" lon="-120.692784"><ele>488.25</ele></trkpt>
   <trkpt lat="36.460232" lon="-120.692637"><ele>488.5</ele></trkpt>
   <trkpt lat="36.459944" lon="-120.692385"><ele>488.75</ele></trkpt>
   <trkpt lat="36.45965" lon="-120.692006"><ele>489</ele></trkpt>
   <trkpt lat="36.45934" lon="-120.6915"><ele>489.5</ele></trkpt>
   <trkpt lat="36.458439" lon="-120.689911"><ele>488.25</ele></trkpt>
   <trkpt lat="36.457679" lon="-120.688704"><ele>486.5</ele></trkpt>
   <trkpt lat="36.4576" lon="-120.68855"><ele>486</ele></trkpt>
   <trkpt lat="36.457534" lon="-120.68829"><ele>485</ele></trkpt>
   <trkpt lat="36.457528" lon="-120.688108"><ele>485</ele></trkpt>
   <trkpt lat="36.457626" lon="-120.687544"><ele>485.5</ele></trkpt>
   <trkpt lat="36.457663" lon="-120.68681"><ele>483.25</ele></trkpt>
   <trkpt lat="36.457684" lon="-120.686637"><ele>483</ele></trkpt>
   <trkpt lat="36.457741" lon="-120.686431"><ele>482.5</ele></trkpt>
   <trkpt lat="36.457776" lon="-120.685591"><ele>480.5</ele></trkpt>
   <trkpt lat="36.457766" lon="-120.683478"><ele>480.5</ele></trkpt>
   <trkpt lat="36.457755" lon="-120.683332"><ele>480.25</ele></trkpt>
   <trkpt lat="36.457732" lon="-120.683188"><ele>480.5</ele></trkpt>
   <trkpt lat="36.457649" lon="-120.682913"><ele>480.75</ele></trkpt>
   <trkpt lat="36.457058" lon="-120.681782"><ele>481</ele></trkpt>
   <trkpt lat="36.456889" lon="-120.681427"><ele>482</ele></trkpt>
   <trkpt lat="36.456728" lon="-120.68117"><ele>483</ele></trkpt>
   <trkpt lat="36.456491" lon="-120.680916"><ele>483.5</ele></trkpt>
   <trkpt lat="36.456072" lon="-120.680547"><ele>485.25</ele></trkpt>
   <trkpt lat="36.455812" lon="-120.680343"><ele>485.75</ele></trkpt>
   <trkpt lat="36.455262" lon="-120.679962"><ele>486.25</ele></trkpt>
   <trkpt lat="36.455043" lon="-120.679769"><ele>487.25</ele></trkpt>
   <trkpt lat="36.454899" lon="-120.679605"><ele>488.5</ele></trkpt>
   <trkpt lat="36.45477" lon="-120.679424"><ele>489.5</ele></trkpt>
   <trkpt lat="36.454656" lon="-120.679226"><ele>490</ele></trkpt>
   <trkpt lat="36.454536" lon="-120.678952"><ele>490.25</ele></trkpt>
   <trkpt lat="36.454426" lon="-120.678583"><ele>490</ele></trkpt>
   <trkpt lat="36.454376" lon="-120.678459"><ele>489.75</ele></trkpt>
   <trkpt lat="36.45429" lon="-120.678332"><ele>488.75</ele></trkpt>
   <trkpt lat="36.454159" lon="-120.678219"><ele>487.75</ele></trkpt>
   <trkpt lat="36.453602" lon="-120.677867"><ele>490.25</ele></trkpt>
   <trkpt lat="36.453404" lon="-120.677661"><ele>490.75</ele></trkpt>
   <trkpt lat="36.453284" lon="-120.6774"><ele>491</ele></trkpt>
   <trkpt lat="36.453278" lon="-120.677173"><ele>491.25</ele></trkpt>
   <trkpt lat="36.45336" lon="-120.676817"><ele>493.5</ele></trkpt>
   <trkpt lat="36.453467" lon="-120.676354"><ele>493.5</ele></trkpt>
   <trkpt lat="36.453475" lon="-120.6762"><ele>493.75</ele></trkpt>
   <trkpt lat="36.453463" lon="-120.675969"><ele>493.75</ele></trkpt>
   <trkpt lat="36.453426" lon="-120.67572"><ele>494</ele></trkpt>
   <trkpt lat="36.45329" lon="-120.675296"><ele>494.25</ele></trkpt>
   <trkpt lat="36.453025" lon="-120.674647"><ele>496.75</ele></trkpt>
   <trkpt lat="36.452677" lon="-120.673783"><ele>499</ele></trkpt>
   <trkpt lat="36.452434" lon="-120.673272"><ele>500.25</ele></trkpt>
   <trkpt lat="36.452354" lon="-120.67315"><ele>501.25</ele></trkpt>
   <trkpt lat="36.45224" lon="-120.673049"><ele>502</ele></trkpt>
   <trkpt lat="36.452084" lon="-120.672961"><ele>503.25</ele></trkpt>
   <trkpt lat="36.451966" lon="-120.672935"><ele>503.75</ele></trkpt>
   <trkpt lat="36.451664" lon="-120.672941"><ele>504.5</ele></trkpt>
   <trkpt lat="36.451504" lon="-120.672965"><ele>506</ele></trkpt>
   <trkpt lat="36.45143" lon="-120.672987"><ele>506.5</ele></trkpt>
   <trkpt lat="36.450616" lon="-120.673454"><ele>505.5</ele></trkpt>
   <trkpt lat="36.450523" lon="-120.673484"><ele>505.75</ele></trkpt>
   <trkpt lat="36.450363" lon="-120.673493"><ele>506.5</ele></trkpt>
   <trkpt lat="36.450227" lon="-120.673427"><ele>507.25</ele></trkpt>
   <trkpt lat="36.450148" lon="-120.673336"><ele>508.25</ele></trkpt>
   <trkpt lat="36.450026" lon="-120.673051"><ele>513.5</ele></trkpt>
   <trkpt lat="36.44995" lon="-120.672902"><ele>515.75</ele></trkpt>
   <trkpt lat="36.449868" lon="-120.672787"><ele>516.75</ele></trkpt>
   <trkpt lat="36.449245" lon="-120.672352"><ele>515.5</ele></trkpt>
   <trkpt lat="36.449031" lon="-120.672168"><ele>517</ele></trkpt>
   <trkpt lat="36.448863" lon="-120.671991"><ele>518.25</ele></trkpt>
   <trkpt lat="36.448486" lon="-120.671506"><ele>518.75</ele></trkpt>
   <trkpt lat="36.448409" lon="-120.671321"><ele>519</ele></trkpt>
   <trkpt lat="36.448352" lon="-120.671011"><ele>520</ele></trkpt>
   <trkpt lat="36.448265" lon="-120.670356"><ele>521</ele></trkpt>
   <trkpt lat="36.448274" lon="-120.670075"><ele>520.75</ele></trkpt>
   <trkpt lat="36.448363" lon="-120.669793"><ele>521</ele></trkpt>
   <trkpt lat="36.448375" lon="-120.669696"><ele>521.5</ele></trkpt>
   <trkpt lat="36.44836" lon="-120.669501"><ele>521</ele></trkpt>
   <trkpt lat="36.448277" lon="-120.669278"><ele>520.25</ele></trkpt>
   <trkpt lat="36.448129" lon="-120.669067"><ele>521.25</ele></trkpt>
   <trkpt lat="36.447967" lon="-120.668936"><ele>522.75</ele></trkpt>
   <trkpt lat="36.447581" lon="-120.668792"><ele>525.25</ele></trkpt>
   <trkpt lat="36.446843" lon="-120.668559"><ele>529.5</ele></trkpt>
   <trkpt lat="36.446647" lon="-120.668437"><ele>528.75</ele></trkpt>
   <trkpt lat="36.445795" lon="-120.667745"><ele>528.5</ele></trkpt>
   <trkpt lat="36.445413" lon="-120.667348"><ele>530</ele></trkpt>
   <trkpt lat="36.445234" lon="-120.667105"><ele>531.5</ele></trkpt>
   <trkpt lat="36.445097" lon="-120.66684"><ele>532.75</ele></trkpt>
   <trkpt lat="36.445019" lon="-120.666564"><ele>534</ele></trkpt>
   <trkpt lat="36.44492" lon="-120.666111"><ele>537.25</ele></trkpt>
   <trkpt lat="36.444824" lon="-120.665618"><ele>539.75</ele></trkpt>
   <trkpt lat="36.444815" lon="-120.665477"><ele>540.5</ele></trkpt>
   <trkpt lat="36.444775" lon="-120.665367"><ele>540.5</ele></trkpt>
   <trkpt lat="36.444725" lon="-120.665306"><ele>540.5</ele></trkpt>
   <trkpt lat="36.444673" lon="-120.665261"><ele>540.25</ele></trkpt>
   <trkpt lat="36.443866" lon="-120.664779"><ele>541</ele></trkpt>
   <trkpt lat="36.443343" lon="-120.664485"><ele>541.75</ele></trkpt>
   <trkpt lat="36.442843" lon="-120.664323"><ele>542</ele></trkpt>
   <trkpt lat="36.442729" lon="-120.664308"><ele>542</ele></trkpt>
   <trkpt lat="36.442451" lon="-120.664341"><ele>542.5</ele></trkpt>
   <trkpt lat="36.442188" lon="-120.664459"><ele>543.75</ele></trkpt>
   <trkpt lat="36.441963" lon="-120.664612"><ele>545.5</ele></trkpt>
   <trkpt lat="36.441843" lon="-120.664647"><ele>546</ele></trkpt>
   <trkpt lat="36.441775" lon="-120.664642"><ele>546</ele></trkpt>
   <trkpt lat="36.441456" lon="-120.664549"><ele>547</ele></trkpt>
   <trkpt lat="36.441327" lon="-120.664468"><ele>547.5</ele></trkpt>
   <trkpt lat="36.44114" lon="-120.664147"><ele>547.25</ele></trkpt>
   <trkpt lat="36.44087" lon="-120.663539"><ele>547.75</ele></trkpt>
   <trkpt lat="36.44065" lon="-120.663092"><ele>548.5</ele></trkpt>
   <trkpt lat="36.440318" lon="-120.662323"><ele>553.5</ele></trkpt>
   <trkpt lat="36.440091" lon="-120.661919"><ele>556</ele></trkpt>
   <trkpt lat="36.440027" lon="-120.66183"><ele>556.75</ele></trkpt>
   <trkpt lat="36.43991" lon="-120.661692"><ele>559.25</ele></trkpt>
   <trkpt lat="36.439516" lon="-120.661317"><ele>566</ele></trkpt>
   <trkpt lat="36.439454" lon="-120.661195"><ele>566.25</ele></trkpt>
   <trkpt lat="36.439368" lon="-120.660922"><ele>565</ele></trkpt>
   <trkpt lat="36.439257" lon="-120.660676"><ele>564.25</ele></trkpt>
   <trkpt lat="36.438757" lon="-120.659793"><ele>567.5</ele></trkpt>
   <trkpt lat="36.438442" lon="-120.659128"><ele>570.5</ele></trkpt>
   <trkpt lat="36.438269" lon="-120.658794"><ele>570.75</ele></trkpt>
   <trkpt lat="36.438179" lon="-120.658665"><ele>571</ele></trkpt>
   <trkpt lat="36.438075" lon="-120.65858"><ele>571.25</ele></trkpt>
   <trkpt lat="36.437981" lon="-120.658545"><ele>571.5</ele></trkpt>
   <trkpt lat="36.437858" lon="-120.658528"><ele>572.5</ele></trkpt>
   <trkpt lat="36.437736" lon="-120.658534"><ele>573.75</ele></trkpt>
   <trkpt lat="36.436904" lon="-120.658742"><ele>584.75</ele></trkpt>
   <trkpt lat="36.436642" lon="-120.658778"><ele>586.75</ele></trkpt>
   <trkpt lat="36.436003" lon="-120.65878"><ele>585</ele></trkpt>
   <trkpt lat="36.435876" lon="-120.658829"><ele>585.5</ele></trkpt>
   <trkpt lat="36.43567" lon="-120.659022"><ele>588.25</ele></trkpt>
   <trkpt lat="36.435374" lon="-120.659352"><ele>593</ele></trkpt>
   <trkpt lat="36.435246" lon="-120.659455"><ele>593.75</ele></trkpt>
   <trkpt lat="36.434888" lon="-120.659691"><ele>594</ele></trkpt>
   <trkpt lat="36.434751" lon="-120.65984"><ele>595.75</ele></trkpt>
   <trkpt lat="36.434701" lon="-120.65993"><ele>596.5</ele></trkpt>
   <trkpt lat="36.434639" lon="-120.660106"><ele>597.5</ele></trkpt>
   <trkpt lat="36.434617" lon="-120.660303"><ele>598.25</ele></trkpt>
   <trkpt lat="36.434618" lon="-120.660461"><ele>599</ele></trkpt>
   <trkpt lat="36.434584" lon="-120.660633"><ele>599.5</ele></trkpt>
   <trkpt lat="36.434468" lon="-120.660881"><ele>598</ele></trkpt>
   <trkpt lat="36.434323" lon="-120.661343"><ele>595.75</ele></trkpt>
   <trkpt lat="36.434063" lon="-120.662189"><ele>598.75</ele></trkpt>
   <trkpt lat="36.434004" lon="-120.662425"><ele>600.5</ele></trkpt>
   <trkpt lat="36.433932" lon="-120.662739"><ele>604</ele></trkpt>
   <trkpt lat="36.433853" lon="-120.663206"><ele>608.75</ele></trkpt>
   <trkpt lat="36.433769" lon="-120.663518"><ele>609.25</ele></trkpt>
   <trkpt lat="36.43368" lon="-120.664392"><ele>612.5</ele></trkpt>
   <trkpt lat="36.4336" lon="-120.664598"><ele>613.75</ele></trkpt>
   <trkpt lat="36.433329" lon="-120.665063"><ele>613.75</ele></trkpt>
   <trkpt lat="36.433061" lon="-120.665602"><ele>617.75</ele></trkpt>
   <trkpt lat="36.432877" lon="-120.666061"><ele>619</ele></trkpt>
   <trkpt lat="36.432746" lon="-120.666236"><ele>618.75</ele></trkpt>
   <trkpt lat="36.43241" lon="-120.666547"><ele>618.25</ele></trkpt>
   <trkpt lat="36.432315" lon="-120.666692"><ele>619.25</ele></trkpt>
   <trkpt lat="36.432273" lon="-120.666787"><ele>620.25</ele></trkpt>
   <trkpt lat="36.432167" lon="-120.66693"><ele>621.25</ele></trkpt>
   <trkpt lat="36.431924" lon="-120.66713"><ele>622.25</ele></trkpt>
   <trkpt lat="36.431621" lon="-120.667249"><ele>622.25</ele></trkpt>
   <trkpt lat="36.431524" lon="-120.667335"><ele>623</ele></trkpt>
   <trkpt lat="36.431453" lon="-120.667453"><ele>623.5</ele></trkpt>
   <trkpt lat="36.431355" lon="-120.667727"><ele>626</ele></trkpt>
   <trkpt lat="36.43128" lon="-120.667885"><ele>627</ele></trkpt>
   <trkpt lat="36.431175" lon="-120.668062"><ele>627.5</ele></trkpt>
   <trkpt lat="36.43094" lon="-120.668379"><ele>626.75</ele></trkpt>
   <trkpt lat="36.430728" lon="-120.66863"><ele>630</ele></trkpt>
   <trkpt lat="36.430411" lon="-120.668936"><ele>634</ele></trkpt>
   <trkpt lat="36.430303" lon="-120.669271"><ele>635.75</ele></trkpt>
   <trkpt lat="36.430281" lon="-120.669304"><ele>636.25</ele></trkpt>
   <trkpt lat="36.430262" lon="-120.669333"><ele>636.75</ele></trkpt>
   <trkpt lat="36.430201" lon="-120.669398"><ele>637.5</ele></trkpt>
   <trkpt lat="36.430136" lon="-120.669462"><ele>638.5</ele></trkpt>
   <trkpt lat="36.430075" lon="-120.66951"><ele>639.25</ele></trkpt>
   <trkpt lat="36.430028" lon="-120.669468"><ele>638.25</ele></trkpt>
   <trkpt lat="36.42997" lon="-120.669447"><ele>638.25</ele></trkpt>
   <trkpt lat="36.429889" lon="-120.669436"><ele>638.5</ele></trkpt>
   <trkpt lat="36.42979" lon="-120.669439"><ele>639.25</ele></trkpt>
   <trkpt lat="36.429759" lon="-120.66939"><ele>638.5</ele></trkpt>
   <trkpt lat="36.429712" lon="-120.669366"><ele>638.5</ele></trkpt>
   <trkpt lat="36.429484" lon="-120.669409"><ele>640.75</ele></trkpt>
   <trkpt lat="36.429098" lon="-120.669432"><ele>643.75</ele></trkpt>
   <trkpt lat="36.428905" lon="-120.669473"><ele>645.5</ele></trkpt>
   <trkpt lat="36.428441" lon="-120.669499"><ele>648.25</ele></trkpt>
   <trkpt lat="36.428336" lon="-120.669532"><ele>649.25</ele></trkpt>
   <trkpt lat="36.428177" lon="-120.66965"><ele>651.25</ele></trkpt>
   <trkpt lat="36.427981" lon="-120.669949"><ele>653.25</ele></trkpt>
   <trkpt lat="36.427895" lon="-120.670039"><ele>654.5</ele></trkpt>
   <trkpt lat="36.427829" lon="-120.670091"><ele>655.5</ele></trkpt>
   <trkpt lat="36.427716" lon="-120.670135"><ele>656.5</ele></trkpt>
   <trkpt lat="36.427599" lon="-120.670133"><ele>656</ele></trkpt>
   <trkpt lat="36.427516" lon="-120.670103"><ele>654.75</ele></trkpt>
   <trkpt lat="36.427103" lon="-120.669881"><ele>659.5</ele></trkpt>
   <trkpt lat="36.426957" lon="-120.66984"><ele>662.25</ele></trkpt>
   <trkpt lat="36.426655" lon="-120.669847"><ele>667.5</ele></trkpt>
   <trkpt lat="36.42647" lon="-120.669911"><ele>670.5</ele></trkpt>
   <trkpt lat="36.426332" lon="-120.669918"><ele>672.75</ele></trkpt>
   <trkpt lat="36.426204" lon="-120.669855"><ele>674.5</ele></trkpt>
   <trkpt lat="36.425604" lon="-120.669278"><ele>678.5</ele></trkpt>
   <trkpt lat="36.425441" lon="-120.669095"><ele>680.5</ele></trkpt>
   <trkpt lat="36.425181" lon="-120.668698"><ele>684</ele></trkpt>
   <trkpt lat="36.42513" lon="-120.668646"><ele>683.5</ele></trkpt>
   <trkpt lat="36.425008" lon="-120.668586"><ele>681.5</ele></trkpt>
   <trkpt lat="36.424804" lon="-120.668585"><ele>684.75</ele></trkpt>
   <trkpt lat="36.424663" lon="-120.668516"><ele>685.75</ele></trkpt>
   <trkpt lat="36.424557" lon="-120.668382"><ele>684</ele></trkpt>
   <trkpt lat="36.424328" lon="-120.667903"><ele>687.75</ele></trkpt>
   <trkpt lat="36.424164" lon="-120.667765"><ele>685.25</ele></trkpt>
   <trkpt lat="36.423791" lon="-120.667609"><ele>688.25</ele></trkpt>
   <trkpt lat="36.423712" lon="-120.667567"><ele>688.5</ele></trkpt>
   <trkpt lat="36.423453" lon="-120.66743"><ele>690.75</ele></trkpt>
   <trkpt lat="36.423265" lon="-120.667403"><ele>694</ele></trkpt>
   <trkpt lat="36.423045" lon="-120.667447"><ele>700.25</ele></trkpt>
   <trkpt lat="36.422663" lon="-120.667605"><ele>710.5</ele></trkpt>
   <trkpt lat="36.422557" lon="-120.6677"><ele>712.25</ele></trkpt>
   <trkpt lat="36.422448" lon="-120.667899"><ele>711.5</ele></trkpt>
   <trkpt lat="36.422314" lon="-120.668091"><ele>710.75</ele></trkpt>
   <trkpt lat="36.422246" lon="-120.668141"><ele>711</ele></trkpt>
   <trkpt lat="36.422082" lon="-120.66821"><ele>712</ele></trkpt>
   <trkpt lat="36.422015" lon="-120.668256"><ele>711.75</ele></trkpt>
   <trkpt lat="36.421466" lon="-120.668845"><ele>711.5</ele></trkpt>
   <trkpt lat="36.421263" lon="-120.669024"><ele>713</ele></trkpt>
   <trkpt lat="36.421094" lon="-120.669144"><ele>714.25</ele></trkpt>
   <trkpt lat="36.42085" lon="-120.669265"><ele>718.25</ele></trkpt>
   <trkpt lat="36.42014" lon="-120.669546"><ele>730</ele></trkpt>
   <trkpt lat="36.419777" lon="-120.669663"><ele>733.75</ele></trkpt>
   <trkpt lat="36.419166" lon="-120.669818"><ele>739.25</ele></trkpt>
   <trkpt lat="36.418823" lon="-120.669957"><ele>741</ele></trkpt>
   <trkpt lat="36.418505" lon="-120.670124"><ele>745.25</ele></trkpt>
   <trkpt lat="36.418116" lon="-120.670258"><ele>754.5</ele></trkpt>
   <trkpt lat="36.417804" lon="-120.670429"><ele>762.75</ele></trkpt>
   <trkpt lat="36.417357" lon="-120.670473"><ele>772.75</ele></trkpt>
   <trkpt lat="36.417202" lon="-120.670515"><ele>775.25</ele></trkpt>
   <trkpt lat="36.416894" lon="-120.670759"><ele>777.5</ele></trkpt>
   <trkpt lat="36.416495" lon="-120.67095"><ele>782.5</ele></trkpt>
   <trkpt lat="36.415968" lon="-120.670939"><ele>788.25</ele></trkpt>
   <trkpt lat="36.415774" lon="-120.670992"><ele>790.75</ele></trkpt>
   <trkpt lat="36.415675" lon="-120.671034"><ele>792.25</ele></trkpt>
   <trkpt lat="36.415625" lon="-120.671076"><ele>793</ele></trkpt>
   <trkpt lat="36.415549" lon="-120.671189"><ele>793.5</ele></trkpt>
   <trkpt lat="36.415532" lon="-120.671249"><ele>793.25</ele></trkpt>
   <trkpt lat="36.415527" lon="-120.671411"><ele>792</ele></trkpt>
   <trkpt lat="36.415596" lon="-120.672172"><ele>795.25</ele></trkpt>
   <trkpt lat="36.415628" lon="-120.672363"><ele>797.25</ele></trkpt>
   <trkpt lat="36.415666" lon="-120.672449"><ele>798</ele></trkpt>
   <trkpt lat="36.415744" lon="-120.672561"><ele>799</ele></trkpt>
   <trkpt lat="36.41592" lon="-120.672711"><ele>800.5</ele></trkpt>
   <trkpt lat="36.41606" lon="-120.672772"><ele>801</ele></trkpt>
   <trkpt lat="36.416195" lon="-120.672772"><ele>800.75</ele></trkpt>
   <trkpt lat="36.41666" lon="-120.672635"><ele>799.75</ele></trkpt>
   <trkpt lat="36.416786" lon="-120.672635"><ele>799.25</ele></trkpt>
   <trkpt lat="36.416906" lon="-120.672678"><ele>798.75</ele></trkpt>
   <trkpt lat="36.416964" lon="-120.672778"><ele>799.25</ele></trkpt>
   <trkpt lat="36.416998" lon="-120.672908"><ele>800</ele></trkpt>
   <trkpt lat="36.416996" lon="-120.673711"><ele>806.75</ele></trkpt>
   <trkpt lat="36.417017" lon="-120.674119"><ele>811.25</ele></trkpt>
   <trkpt lat="36.417054" lon="-120.674514"><ele>816.5</ele></trkpt>
   <trkpt lat="36.417058" lon="-120.674557"><ele>817.25</ele></trkpt>
   <trkpt lat="36.417058" lon="-120.674786"><ele>820.25</ele></trkpt>
   <trkpt lat="36.41703" lon="-120.675006"><ele>823</ele></trkpt>
   <trkpt lat="36.417019" lon="-120.675041"><ele>828.5</ele></trkpt>
  </trkseg>
 </trk>
</gpx>