<?xml version="1.0" encoding="UTF-8"?>
<!-- track-length = 19945 filtered ascend = 220 plain-ascend = -250 cost=60928 energy=1.3kwh time=35m 56s -->
<gpx 
 xmlns="http://www.topografix.com/GPX/1/1" 
 xmlns:xsi="http://www.w3.org/2001/XMLSchema-instance" 
 xsi:schemaLocation="http://www.topografix.com/GPX/1/1 http://www.topografix.com/GPX/1/1/gpx.xsd" 
 version="1.1" 
 creator="BRouter-Web 0.18.1">
 <trk>
  <name>redwoodrd</name>
  <trkseg>
   <trkpt lat="37.79912" lon="-122.170786"><ele>303</ele></trkpt>
   <trkpt lat="37.799144" lon="-122.170855"><ele>302.75</ele></trkpt>
   <trkpt lat="37.799232" lon="-122.170868"><ele>302.75</ele></trkpt>
   <trkpt lat="37.799251" lon="-122.170869"><ele>302.75</ele></trkpt>
   <trkpt lat="37.799462" lon="-122.170874"><ele>302.5</ele></trkpt>
   <trkpt lat="37.799592" lon="-122.170855"><ele>302.5</ele></trkpt>
   <trkpt lat="37.799685" lon="-122.170833"><ele>302.25</ele></trkpt>
   <trkpt lat="37.799967" lon="-122.170728"><ele>302.5</ele></trkpt>
   <trkpt lat="37.800196" lon="-122.170628"><ele>301.5</ele></trkpt>
   <trkpt lat="37.800829" lon="-122.170276"><ele>296.5</ele></trkpt>
   <trkpt lat="37.801036" lon="-122.170173"><ele>298</ele></trkpt>
   <trkpt lat="37.801246" lon="-122.170099"><ele>299.5</ele></trkpt>
   <trkpt lat="37.801453" lon="-122.170085"><ele>301</ele></trkpt>
   <trkpt lat="37.801663" lon="-122.170122"><ele>302.5</ele></trkpt>
   <trkpt lat="37.801874" lon="-122.170176"><ele>302.25</ele></trkpt>
   <trkpt lat="37.802085" lon="-122.170261"><ele>301.5</ele></trkpt>
   <trkpt lat="37.802283" lon="-122.170364"><ele>301</ele></trkpt>
   <trkpt lat="37.80247" lon="-122.170486"><ele>300</ele></trkpt>
   <trkpt lat="37.80284" lon="-122.170798"><ele>295</ele></trkpt>
   <trkpt lat="37.803173" lon="-122.17105"><ele>292.25</ele></trkpt>
   <trkpt lat="37.803348" lon="-122.171126"><ele>290.5</ele></trkpt>
   <trkpt lat="37.803568" lon="-122.171192"><ele>291</ele></trkpt>
   <trkpt lat="37.803698" lon="-122.171243"><ele>289.5</ele></trkpt>
   <trkpt lat="37.804154" lon="-122.171419"><ele>289.5</ele></trkpt>
   <trkpt lat="37.804343" lon="-122.171456"><ele>291.5</ele></trkpt>
   <trkpt lat="37.804537" lon="-122.171427"><ele>294</ele></trkpt>
   <trkpt lat="37.804699" lon="-122.171383"><ele>296</ele></trkpt>
   <trkpt lat="37.804848" lon="-122.17129"><ele>297.25</ele></trkpt>
   <trkpt lat="37.804971" lon="-122.171167"><ele>297.5</ele></trkpt>
   <trkpt lat="37.805111" lon="-122.170996"><ele>298</ele></trkpt>
   <trkpt lat="37.805225" lon="-122.170836"><ele>297.25</ele></trkpt>
   <trkpt lat="37.805477" lon="-122.170353"><ele>299.25</ele></trkpt>
   <trkpt lat="37.805585" lon="-122.169967"><ele>296.25</ele></trkpt>
   <trkpt lat="37.805667" lon="-122.169818"><ele>294.5</ele></trkpt>
   <trkpt lat="37.805852" lon="-122.169512"><ele>289.25</ele></trkpt>
   <trkpt lat="37.805937" lon="-122.169318"><ele>289</ele></trkpt>
   <trkpt lat="37.805989" lon="-122.169127"><ele>288.5</ele></trkpt>
   <trkpt lat="37.806113" lon="-122.168757"><ele>290.5</ele></trkpt>
   <trkpt lat="37.806181" lon="-122.168569"><ele>290.25</ele></trkpt>
   <trkpt lat="37.806317" lon="-122.168249"><ele>286.75</ele></trkpt>
   <trkpt lat="37.806476" lon="-122.167819"><ele>276.75</ele></trkpt>
   <trkpt lat="37.806543" lon="-122.167518"><ele>270.25</ele></trkpt>
   <trkpt lat="37.806555" lon="-122.167349"><ele>268.25</ele></trkpt>
   <trkpt lat="37.80654" lon="-122.167123"><ele>266.75</ele></trkpt>
   <trkpt lat="37.806508" lon="-122.166946"><ele>266</ele></trkpt>
   <trkpt lat="37.806315" lon="-122.166194"><ele>265.75</ele></trkpt>
   <trkpt lat="37.806184" lon="-122.165844"><ele>264.75</ele></trkpt>
   <trkpt lat="37.806121" lon="-122.165664"><ele>263.25</ele></trkpt>
   <trkpt lat="37.806002" lon="-122.165199"><ele>257.25</ele></trkpt>
   <trkpt lat="37.805941" lon="-122.16505"><ele>254.5</ele></trkpt>
   <trkpt lat="37.805864" lon="-122.164928"><ele>252.75</ele></trkpt>
   <trkpt lat="37.805629" lon="-122.164564"><ele>256.5</ele></trkpt>
   <trkpt lat="37.80551" lon="-122.164282"><ele>255.75</ele></trkpt>
   <trkpt lat="37.805398" lon="-122.164084"><ele>256</ele></trkpt>
   <trkpt lat="37.805272" lon="-122.163954"><ele>257</ele></trkpt>
   <trkpt lat="37.80498" lon="-122.163599"><ele>253</ele></trkpt>
   <trkpt lat="37.804758" lon="-122.163022"><ele>253.5</ele></trkpt>
   <trkpt lat="37.804601" lon="-122.162683"><ele>254</ele></trkpt>
   <trkpt lat="37.804498" lon="-122.162495"><ele>253.25</ele></trkpt>
   <trkpt lat="37.804429" lon="-122.162399"><ele>253.75</ele></trkpt>
   <trkpt lat="37.804386" lon="-122.162338"><ele>253.75</ele></trkpt>
   <trkpt lat="37.804196" lon="-122.162125"><ele>252.75</ele></trkpt>
   <trkpt lat="37.804132" lon="-122.16204"><ele>253.25</ele></trkpt>
   <trkpt lat="37.804089" lon="-122.161964"><ele>254</ele></trkpt>
   <trkpt lat="37.80404" lon="-122.161832"><ele>254.5</ele></trkpt>
   <trkpt lat="37.803981" lon="-122.161561"><ele>253.75</ele></trkpt>
   <trkpt lat="37.803944" lon="-122.161097"><ele>249.75</ele></trkpt>
   <trkpt lat="37.803917" lon="-122.160838"><ele>247.25</ele></trkpt>
   <trkpt lat="37.803853" lon="-122.160647"><ele>247.25</ele></trkpt>
   <trkpt lat="37.803749" lon="-122.160463"><ele>247</ele></trkpt>
   <trkpt lat="37.803478" lon="-122.160159"><ele>243.5</ele></trkpt>
   <trkpt lat="37.803353" lon="-122.159982"><ele>240</ele></trkpt>
   <trkpt lat="37.803239" lon="-122.159802"><ele>241.5</ele></trkpt>
   <trkpt lat="37.803131" lon="-122.159622"><ele>242.5</ele></trkpt>
   <trkpt lat="37.802881" lon="-122.159144"><ele>240</ele></trkpt>
   <trkpt lat="37.802583" lon="-122.158554"><ele>233.5</ele></trkpt>
   <trkpt lat="37.802221" lon="-122.157978"><ele>232.5</ele></trkpt>
   <trkpt lat="37.802008" lon="-122.157665"><ele>230.75</ele></trkpt>
   <trkpt lat="37.801775" lon="-122.15739"><ele>227.75</ele></trkpt>
   <trkpt lat="37.801549" lon="-122.157174"><ele>228</ele></trkpt>
   <trkpt lat="37.801313" lon="-122.156995"><ele>227.25</ele></trkpt>
   <trkpt lat="37.801192" lon="-122.156887"><ele>225.5</ele></trkpt>
   <trkpt lat="37.801077" lon="-122.156772"><ele>222.5</ele></trkpt>
   <trkpt lat="37.800847" lon="-122.156496"><ele>217.5</ele></trkpt>
   <trkpt lat="37.800593" lon="-122.156267"><ele>222.5</ele></trkpt>
   <trkpt lat="37.800356" lon="-122.156018"><ele>222.25</ele></trkpt>
   <trkpt lat="37.800245" lon="-122.155881"><ele>219.5</ele></trkpt>
   <trkpt lat="37.800145" lon="-122.155741"><ele>218</ele></trkpt>
   <trkpt lat="37.799845" lon="-122.155282"><ele>216.75</ele></trkpt>
   <trkpt lat="37.799755" lon="-122.155162"><ele>216.5</ele></trkpt>
   <trkpt lat="37.799464" lon="-122.154872"><ele>215</ele></trkpt>
   <trkpt lat="37.799284" lon="-122.154654"><ele>212.25</ele></trkpt>
   <trkpt lat="37.799204" lon="-122.154523"><ele>209.75</ele></trkpt>
   <trkpt lat="37.799106" lon="-122.154319"><ele>207.5</ele></trkpt>
   <trkpt lat="37.798918" lon="-122.153839"><ele>206.75</ele></trkpt>
   <trkpt lat="37.798521" lon="-122.15284"><ele>204.5</ele></trkpt>
   <trkpt lat="37.798434" lon="-122.152564"><ele>202</ele></trkpt>
   <trkpt lat="37.798407" lon="-122.152354"><ele>200.25</ele></trkpt>
   <trkpt lat="37.798407" lon="-122.152136"><ele>199.25</ele></trkpt>
   <trkpt lat="37.798428" lon="-122.151841"><ele>198.25</ele></trkpt>
   <trkpt lat="37.798431" lon="-122.151805"><ele>198.25</ele></trkpt>
   <trkpt lat="37.798421" lon="-122.151594"><ele>197.5</ele></trkpt>
   <trkpt lat="37.798392" lon="-122.151405"><ele>196.75</ele></trkpt>
   <trkpt lat="37.798304" lon="-122.15111"><ele>195.75</ele></trkpt>
   <trkpt lat="37.798268" lon="-122.150964"><ele>196.5</ele></trkpt>
   <trkpt lat="37.798248" lon="-122.150849"><ele>196.75</ele></trkpt>
   <trkpt lat="37.798239" lon="-122.150756"><ele>196.5</ele></trkpt>
   <trkpt lat="37.798237" lon="-122.150639"><ele>196.25</ele></trkpt>
   <trkpt lat="37.798248" lon="-122.150523"><ele>195.75</ele></trkpt>
   <trkpt lat="37.798279" lon="-122.150388"><ele>194.75</ele></trkpt>
   <trkpt lat="37.79831" lon="-122.150293"><ele>194.25</ele></trkpt>
   <trkpt lat="37.798356" lon="-122.150185"><ele>194.25</ele></trkpt>
   <trkpt lat="37.798431" lon="-122.150029"><ele>195.5</ele></trkpt>
   <trkpt lat="37.798522" lon="-122.149867"><ele>198.75</ele></trkpt>
   <trkpt lat="37.798676" lon="-122.14966"><ele>202.25</ele></trkpt>
   <trkpt lat="37.79908" lon="-122.14937"><ele>200</ele></trkpt>
   <trkpt lat="37.799191" lon="-122.149255"><ele>197.75</ele></trkpt>
   <trkpt lat="37.799278" lon="-122.14911"><ele>199</ele></trkpt>
   <trkpt lat="37.799456" lon="-122.148663"><ele>201.75</ele></trkpt>
   <trkpt lat="37.799543" lon="-122.148518"><ele>201.25</ele></trkpt>
   <trkpt lat="37.799762" lon="-122.148216"><ele>198.25</ele></trkpt>
   <trkpt lat="37.799851" lon="-122.148018"><ele>196.75</ele></trkpt>
   <trkpt lat="37.799902" lon="-122.147707"><ele>194.25</ele></trkpt>
   <trkpt lat="37.799897" lon="-122.147023"><ele>191</ele></trkpt>
   <trkpt lat="37.799919" lon="-122.146706"><ele>188.75</ele></trkpt>
   <trkpt lat="37.799986" lon="-122.146447"><ele>185.25</ele></trkpt>
   <trkpt lat="37.800211" lon="-122.145981"><ele>186.75</ele></trkpt>
   <trkpt lat="37.80026" lon="-122.145767"><ele>186.5</ele></trkpt>
   <trkpt lat="37.800286" lon="-122.145538"><ele>186.75</ele></trkpt>
   <trkpt lat="37.800307" lon="-122.145241"><ele>187</ele></trkpt>
   <trkpt lat="37.800315" lon="-122.144928"><ele>186</ele></trkpt>
   <trkpt lat="37.800317" lon="-122.144452"><ele>181</ele></trkpt>
   <trkpt lat="37.800281" lon="-122.144087"><ele>178.5</ele></trkpt>
   <trkpt lat="37.800223" lon="-122.143911"><ele>179</ele></trkpt>
   <trkpt lat="37.800162" lon="-122.143809"><ele>179</ele></trkpt>
   <trkpt lat="37.800112" lon="-122.143726"><ele>178.75</ele></trkpt>
   <trkpt lat="37.799992" lon="-122.143556"><ele>178</ele></trkpt>
   <trkpt lat="37.799715" lon="-122.143178"><ele>183.5</ele></trkpt>
   <trkpt lat="37.799374" lon="-122.142708"><ele>184.25</ele></trkpt>
   <trkpt lat="37.799244" lon="-122.142551"><ele>181.5</ele></trkpt>
   <trkpt lat="37.798985" lon="-122.142308"><ele>183.75</ele></trkpt>
   <trkpt lat="37.798852" lon="-122.142155"><ele>185.25</ele></trkpt>
   <trkpt lat="37.798686" lon="-122.141915"><ele>184.5</ele></trkpt>
   <trkpt lat="37.798584" lon="-122.141676"><ele>180.75</ele></trkpt>
   <trkpt lat="37.798555" lon="-122.141497"><ele>180.25</ele></trkpt>
   <trkpt lat="37.798538" lon="-122.141225"><ele>179.5</ele></trkpt>
   <trkpt lat="37.798464" lon="-122.140968"><ele>177</ele></trkpt>
   <trkpt lat="37.798376" lon="-122.140845"><ele>174</ele></trkpt>
   <trkpt lat="37.798335" lon="-122.140811"><ele>173</ele></trkpt>
   <trkpt lat="37.798018" lon="-122.140499"><ele>178.5</ele></trkpt>
   <trkpt lat="37.797933" lon="-122.140245"><ele>177</ele></trkpt>
   <trkpt lat="37.797859" lon="-122.139872"><ele>174.75</ele></trkpt>
   <trkpt lat="37.797804" lon="-122.139727"><ele>174.5</ele></trkpt>
   <trkpt lat="37.797725" lon="-122.139593"><ele>174</ele></trkpt>
   <trkpt lat="37.797608" lon="-122.139464"><ele>173</ele></trkpt>
   <trkpt lat="37.797176" lon="-122.139259"><ele>176.25</ele></trkpt>
   <trkpt lat="37.797035" lon="-122.139104"><ele>176.5</ele></trkpt>
   <trkpt lat="37.796996" lon="-122.13904"><ele>176.5</ele></trkpt>
   <trkpt lat="37.796944" lon="-122.138824"><ele>175</ele></trkpt>
   <trkpt lat="37.796926" lon="-122.138324"><ele>169.75</ele></trkpt>
   <trkpt lat="37.796877" lon="-122.138183"><ele>169</ele></trkpt>
   <trkpt lat="37.796741" lon="-122.137937"><ele>167</ele></trkpt>
   <trkpt lat="37.796696" lon="-122.137765"><ele>165.75</ele></trkpt>
   <trkpt lat="37.796665" lon="-122.137448"><ele>163.75</ele></trkpt>
   <trkpt lat="37.796673" lon="-122.136901"><ele>161</ele></trkpt>
   <trkpt lat="37.796645" lon="-122.136585"><ele>160</ele></trkpt>
   <trkpt lat="37.796626" lon="-122.13651"><ele>159.75</ele></trkpt>
   <trkpt lat="37.796603" lon="-122.136411"><ele>159.75</ele></trkpt>
   <trkpt lat="37.796513" lon="-122.136236"><ele>160</ele></trkpt>
   <trkpt lat="37.796371" lon="-122.13607"><ele>160</ele></trkpt>
   <trkpt lat="37.795679" lon="-122.135595"><ele>161.75</ele></trkpt>
   <trkpt lat="37.795488" lon="-122.135387"><ele>162.75</ele></trkpt>
   <trkpt lat="37.795312" lon="-122.135158"><ele>160.75</ele></trkpt>
   <trkpt lat="37.795222" lon="-122.135085"><ele>160.25</ele></trkpt>
   <trkpt lat="37.795125" lon="-122.134991"><ele>158.75</ele></trkpt>
   <trkpt lat="37.795042" lon="-122.134951"><ele>159</ele></trkpt>
   <trkpt lat="37.794796" lon="-122.134764"><ele>162</ele></trkpt>
   <trkpt lat="37.794477" lon="-122.134397"><ele>161.75</ele></trkpt>
   <trkpt lat="37.793848" lon="-122.133582"><ele>158</ele></trkpt>
   <trkpt lat="37.793655" lon="-122.133378"><ele>157.5</ele></trkpt>
   <trkpt lat="37.793557" lon="-122.13332"><ele>158</ele></trkpt>
   <trkpt lat="37.793113" lon="-122.133175"><ele>164.75</ele></trkpt>
   <trkpt lat="37.792885" lon="-122.133046"><ele>167.25</ele></trkpt>
   <trkpt lat="37.792794" lon="-122.132973"><ele>167</ele></trkpt>
   <trkpt lat="37.792532" lon="-122.132833"><ele>167.75</ele></trkpt>
   <trkpt lat="37.792379" lon="-122.132712"><ele>166.25</ele></trkpt>
   <trkpt lat="37.792066" lon="-122.132341"><ele>161.75</ele></trkpt>
   <trkpt lat="37.791935" lon="-122.132235"><ele>162</ele></trkpt>
   <trkpt lat="37.791823" lon="-122.132162"><ele>162</ele></trkpt>
   <trkpt lat="37.791727" lon="-122.132138"><ele>163</ele></trkpt>
   <trkpt lat="37.79161" lon="-122.132151"><ele>165</ele></trkpt>
   <trkpt lat="37.791432" lon="-122.132233"><ele>170.25</ele></trkpt>
   <trkpt lat="37.791362" lon="-122.132235"><ele>171.5</ele></trkpt>
   <trkpt lat="37.791308" lon="-122.132209"><ele>171.75</ele></trkpt>
   <trkpt lat="37.791195" lon="-122.132138"><ele>172</ele></trkpt>
   <trkpt lat="37.791078" lon="-122.132038"><ele>171.5</ele></trkpt>
   <trkpt lat="37.79095" lon="-122.13195"><ele>171.75</ele></trkpt>
   <trkpt lat="37.790719" lon="-122.131823"><ele>174.25</ele></trkpt>
   <trkpt lat="37.790634" lon="-122.131685"><ele>173.5</ele></trkpt>
   <trkpt lat="37.790559" lon="-122.131411"><ele>168.5</ele></trkpt>
   <trkpt lat="37.790515" lon="-122.131306"><ele>166.5</ele></trkpt>
   <trkpt lat="37.790386" lon="-122.131148"><ele>165</ele></trkpt>
   <trkpt lat="37.789981" lon="-122.130847"><ele>162.75</ele></trkpt>
   <trkpt lat="37.789754" lon="-122.13074"><ele>165.25</ele></trkpt>
   <trkpt lat="37.789508" lon="-122.130684"><ele>169</ele></trkpt>
   <trkpt lat="37.789406" lon="-122.130643"><ele>170</ele></trkpt>
   <trkpt lat="37.789218" lon="-122.130512"><ele>169.25</ele></trkpt>
   <trkpt lat="37.78883" lon="-122.130105"><ele>163.75</ele></trkpt>
   <trkpt lat="37.788557" lon="-122.129892"><ele>164.5</ele></trkpt>
   <trkpt lat="37.78845" lon="-122.129771"><ele>164.75</ele></trkpt>
   <trkpt lat="37.788288" lon="-122.129527"><ele>163</ele></trkpt>
   <trkpt lat="37.788205" lon="-122.129439"><ele>162.5</ele></trkpt>
   <trkpt lat="37.78772" lon="-122.129055"><ele>158.5</ele></trkpt>
   <trkpt lat="37.787622" lon="-122.128996"><ele>158.25</ele></trkpt>
   <trkpt lat="37.78751" lon="-122.128953"><ele>158.5</ele></trkpt>
   <trkpt lat="37.787399" lon="-122.128933"><ele>159.75</ele></trkpt>
   <trkpt lat="37.787307" lon="-122.128944"><ele>161.25</ele></trkpt>
   <trkpt lat="37.787211" lon="-122.128978"><ele>163.5</ele></trkpt>
   <trkpt lat="37.787078" lon="-122.12901"><ele>166.5</ele></trkpt>
   <trkpt lat="37.786947" lon="-122.12898"><ele>168</ele></trkpt>
   <trkpt lat="37.786663" lon="-122.128806"><ele>166.5</ele></trkpt>
   <trkpt lat="37.786461" lon="-122.128721"><ele>166</ele></trkpt>
   <trkpt lat="37.786255" lon="-122.128672"><ele>167</ele></trkpt>
   <trkpt lat="37.786149" lon="-122.128631"><ele>166.75</ele></trkpt>
   <trkpt lat="37.786098" lon="-122.128621"><ele>167</ele></trkpt>
   <trkpt lat="37.785822" lon="-122.128601"><ele>169.75</ele></trkpt>
   <trkpt lat="37.785716" lon="-122.128547"><ele>169.75</ele></trkpt>
   <trkpt lat="37.785577" lon="-122.128413"><ele>167.25</ele></trkpt>
   <trkpt lat="37.785444" lon="-122.128265"><ele>165</ele></trkpt>
   <trkpt lat="37.785321" lon="-122.128171"><ele>164.75</ele></trkpt>
   <trkpt lat="37.785247" lon="-122.128126"><ele>165</ele></trkpt>
   <trkpt lat="37.785161" lon="-122.128092"><ele>165.25</ele></trkpt>
   <trkpt lat="37.784885" lon="-122.128021"><ele>169</ele></trkpt>
   <trkpt lat="37.784804" lon="-122.127982"><ele>170</ele></trkpt>
   <trkpt lat="37.78449" lon="-122.127687"><ele>168.25</ele></trkpt>
   <trkpt lat="37.78437" lon="-122.127608"><ele>168.5</ele></trkpt>
   <trkpt lat="37.784144" lon="-122.127501"><ele>169.25</ele></trkpt>
   <trkpt lat="37.784012" lon="-122.127443"><ele>169.75</ele></trkpt>
   <trkpt lat="37.783843" lon="-122.12739"><ele>170.5</ele></trkpt>
   <trkpt lat="37.783681" lon="-122.127398"><ele>173</ele></trkpt>
   <trkpt lat="37.783445" lon="-122.12743"><ele>177</ele></trkpt>
   <trkpt lat="37.78336" lon="-122.127419"><ele>178</ele></trkpt>
   <trkpt lat="37.783276" lon="-122.12739"><ele>179</ele></trkpt>
   <trkpt lat="37.783154" lon="-122.127323"><ele>180</ele></trkpt>
   <trkpt lat="37.783007" lon="-122.127262"><ele>182.25</ele></trkpt>
   <trkpt lat="37.782762" lon="-122.12721"><ele>187.5</ele></trkpt>
   <trkpt lat="37.782678" lon="-122.127182"><ele>189</ele></trkpt>
   <trkpt lat="37.782595" lon="-122.127091"><ele>188.75</ele></trkpt>
   <trkpt lat="37.78256" lon="-122.12696"><ele>186.25</ele></trkpt>
   <trkpt lat="37.782544" lon="-122.126805"><ele>182.25</ele></trkpt>
   <trkpt lat="37.78256" lon="-122.126621"><ele>177.5</ele></trkpt>
   <trkpt lat="37.782556" lon="-122.126515"><ele>176</ele></trkpt>
   <trkpt lat="37.782528" lon="-122.126388"><ele>175</ele></trkpt>
   <trkpt lat="37.782488" lon="-122.12629"><ele>174.75</ele></trkpt>
   <trkpt lat="37.782436" lon="-122.126201"><ele>175.25</ele></trkpt>
   <trkpt lat="37.782345" lon="-122.12609"><ele>176</ele></trkpt>
   <trkpt lat="37.782244" lon="-122.126006"><ele>176.75</ele></trkpt>
   <trkpt lat="37.782141" lon="-122.125987"><ele>178.75</ele></trkpt>
   <trkpt lat="37.781885" lon="-122.126057"><ele>187.5</ele></trkpt>
   <trkpt lat="37.781755" lon="-122.126047"><ele>190.5</ele></trkpt>
   <trkpt lat="37.781669" lon="-122.126012"><ele>191.25</ele></trkpt>
   <trkpt lat="37.7816" lon="-122.125958"><ele>190.5</ele></trkpt>
   <trkpt lat="37.781424" lon="-122.125772"><ele>187</ele></trkpt>
   <trkpt lat="37.781323" lon="-122.125716"><ele>187.25</ele></trkpt>
   <trkpt lat="37.781206" lon="-122.125701"><ele>189</ele></trkpt>
   <trkpt lat="37.780979" lon="-122.125728"><ele>194.25</ele></trkpt>
   <trkpt lat="37.780896" lon="-122.125712"><ele>195.25</ele></trkpt>
   <trkpt lat="37.780749" lon="-122.125615"><ele>195.25</ele></trkpt>
   <trkpt lat="37.780635" lon="-122.125503"><ele>194.5</ele></trkpt>
   <trkpt lat="37.780507" lon="-122.125414"><ele>195.5</ele></trkpt>
   <trkpt lat="37.780279" lon="-122.125304"><ele>199</ele></trkpt>
   <trkpt lat="37.780172" lon="-122.125226"><ele>200</ele></trkpt>
   <trkpt lat="37.780104" lon="-122.125066"><ele>198</ele></trkpt>
   <trkpt lat="37.780042" lon="-122.124811"><ele>193.5</ele></trkpt>
   <trkpt lat="37.779988" lon="-122.124693"><ele>192</ele></trkpt>
   <trkpt lat="37.779894" lon="-122.124538"><ele>190.5</ele></trkpt>
   <trkpt lat="37.779807" lon="-122.124447"><ele>190.5</ele></trkpt>
   <trkpt lat="37.77968" lon="-122.124439"><ele>193.5</ele></trkpt>
   <trkpt lat="37.779414" lon="-122.124443"><ele>200.75</ele></trkpt>
   <trkpt lat="37.779044" lon="-122.124284"><ele>203.75</ele></trkpt>
   <trkpt lat="37.778935" lon="-122.124207"><ele>203.25</ele></trkpt>
   <trkpt lat="37.778736" lon="-122.124017"><ele>200.5</ele></trkpt>
   <trkpt lat="37.778668" lon="-122.123983"><ele>200.75</ele></trkpt>
   <trkpt lat="37.778564" lon="-122.123966"><ele>202.25</ele></trkpt>
   <trkpt lat="37.77848" lon="-122.123974"><ele>203.75</ele></trkpt>
   <trkpt lat="37.778359" lon="-122.124009"><ele>206.75</ele></trkpt>
   <trkpt lat="37.77827" lon="-122.124044"><ele>208.5</ele></trkpt>
   <trkpt lat="37.778083" lon="-122.124183"><ele>211.5</ele></trkpt>
   <trkpt lat="37.777823" lon="-122.12442"><ele>211.25</ele></trkpt>
   <trkpt lat="37.777507" lon="-122.124682"><ele>207.25</ele></trkpt>
   <trkpt lat="37.777448" lon="-122.124719"><ele>206.5</ele></trkpt>
   <trkpt lat="37.77725" lon="-122.124774"><ele>204</ele></trkpt>
   <trkpt lat="37.777109" lon="-122.124738"><ele>203.25</ele></trkpt>
   <trkpt lat="37.77699" lon="-122.124675"><ele>203.25</ele></trkpt>
   <trkpt lat="37.775961" lon="-122.123753"><ele>211.75</ele></trkpt>
   <trkpt lat="37.775765" lon="-122.123547"><ele>213.5</ele></trkpt>
   <trkpt lat="37.775419" lon="-122.123066"><ele>216.5</ele></trkpt>
   <trkpt lat="37.775093" lon="-122.122672"><ele>220</ele></trkpt>
   <trkpt lat="37.774822" lon="-122.122277"><ele>225</ele></trkpt>
   <trkpt lat="37.774645" lon="-122.122079"><ele>226.75</ele></trkpt>
   <trkpt lat="37.77413" lon="-122.121796"><ele>225.75</ele></trkpt>
   <trkpt lat="37.774014" lon="-122.121685"><ele>225.5</ele></trkpt>
   <trkpt lat="37.773931" lon="-122.121535"><ele>225</ele></trkpt>
   <trkpt lat="37.773885" lon="-122.121361"><ele>225.5</ele></trkpt>
   <trkpt lat="37.773845" lon="-122.120997"><ele>228.5</ele></trkpt>
   <trkpt lat="37.773795" lon="-122.120777"><ele>229.75</ele></trkpt>
   <trkpt lat="37.773728" lon="-122.120615"><ele>230</ele></trkpt>
   <trkpt lat="37.773678" lon="-122.120553"><ele>230</ele></trkpt>
   <trkpt lat="37.773572" lon="-122.120423"><ele>230.25</ele></trkpt>
   <trkpt lat="37.772319" lon="-122.119331"><ele>238.75</ele></trkpt>
   <trkpt lat="37.772192" lon="-122.119243"><ele>239.5</ele></trkpt>
   <trkpt lat="37.772124" lon="-122.119211"><ele>239.75</ele></trkpt>
   <trkpt lat="37.771942" lon="-122.119205"><ele>238.75</ele></trkpt>
   <trkpt lat="37.771551" lon="-122.119289"><ele>233</ele></trkpt>
   <trkpt lat="37.771378" lon="-122.11922"><ele>231.25</ele></trkpt>
   <trkpt lat="37.771236" lon="-122.119078"><ele>231</ele></trkpt>
   <trkpt lat="37.771012" lon="-122.118778"><ele>231.25</ele></trkpt>
   <trkpt lat="37.770897" lon="-122.118666"><ele>230.75</ele></trkpt>
   <trkpt lat="37.770768" lon="-122.118581"><ele>229.25</ele></trkpt>
   <trkpt lat="37.770596" lon="-122.118509"><ele>226</ele></trkpt>
   <trkpt lat="37.770412" lon="-122.118362"><ele>223.75</ele></trkpt>
   <trkpt lat="37.770313" lon="-122.118228"><ele>222</ele></trkpt>
   <trkpt lat="37.770254" lon="-122.118113"><ele>220.75</ele></trkpt>
   <trkpt lat="37.770206" lon="-122.11794"><ele>220</ele></trkpt>
   <trkpt lat="37.770209" lon="-122.117712"><ele>220.75</ele></trkpt>
   <trkpt lat="37.770264" lon="-122.117543"><ele>222.25</ele></trkpt>
   <trkpt lat="37.770411" lon="-122.11728"><ele>223.25</ele></trkpt>
   <trkpt lat="37.77053" lon="-122.117107"><ele>223.75</ele></trkpt>
   <trkpt lat="37.770635" lon="-122.11698"><ele>224.25</ele></trkpt>
   <trkpt lat="37.770725" lon="-122.116903"><ele>225</ele></trkpt>
   <trkpt lat="37.770903" lon="-122.116674"><ele>225</ele></trkpt>
   <trkpt lat="37.771282" lon="-122.116321"><ele>228.25</ele></trkpt>
   <trkpt lat="37.771377" lon="-122.116256"><ele>229</ele></trkpt>
   <trkpt lat="37.771543" lon="-122.116077"><ele>229.5</ele></trkpt>
   <trkpt lat="37.771692" lon="-122.115876"><ele>228.75</ele></trkpt>
   <trkpt lat="37.771758" lon="-122.115713"><ele>227.25</ele></trkpt>
   <trkpt lat="37.771785" lon="-122.115533"><ele>226.25</ele></trkpt>
   <trkpt lat="37.77177" lon="-122.115351"><ele>226.5</ele></trkpt>
   <trkpt lat="37.771716" lon="-122.115181"><ele>228</ele></trkpt>
   <trkpt lat="37.7716" lon="-122.115004"><ele>230.25</ele></trkpt>
   <trkpt lat="37.771507" lon="-122.114932"><ele>231</ele></trkpt>
   <trkpt lat="37.771333" lon="-122.114869"><ele>232.75</ele></trkpt>
   <trkpt lat="37.770716" lon="-122.11489"><ele>236.5</ele></trkpt>
   <trkpt lat="37.770467" lon="-122.114832"><ele>237.5</ele></trkpt>
   <trkpt lat="37.770339" lon="-122.114748"><ele>239</ele></trkpt>
   <trkpt lat="37.770223" lon="-122.114637"><ele>241</ele></trkpt>
   <trkpt lat="37.76975" lon="-122.114066"><ele>254.25</ele></trkpt>
   <trkpt lat="37.769657" lon="-122.113995"><ele>256.5</ele></trkpt>
   <trkpt lat="37.769552" lon="-122.113965"><ele>258</ele></trkpt>
   <trkpt lat="37.769481" lon="-122.113982"><ele>258.5</ele></trkpt>
   <trkpt lat="37.769416" lon="-122.114024"><ele>258.5</ele></trkpt>
   <trkpt lat="37.76934" lon="-122.114122"><ele>257.75</ele></trkpt>
   <trkpt lat="37.769287" lon="-122.114241"><ele>256.5</ele></trkpt>
   <trkpt lat="37.769168" lon="-122.114627"><ele>252.25</ele></trkpt>
   <trkpt lat="37.769079" lon="-122.114772"><ele>250.5</ele></trkpt>
   <trkpt lat="37.768992" lon="-122.114853"><ele>249.75</ele></trkpt>
   <trkpt lat="37.768924" lon="-122.114886"><ele>249.5</ele></trkpt>
   <trkpt lat="37.768779" lon="-122.114892"><ele>250</ele></trkpt>
   <trkpt lat="37.768642" lon="-122.114831"><ele>251.75</ele></trkpt>
   <trkpt lat="37.76855" lon="-122.114757"><ele>253.5</ele></trkpt>
   <trkpt lat="37.768236" lon="-122.114445"><ele>259.75</ele></trkpt>
   <trkpt lat="37.768089" lon="-122.114242"><ele>262.75</ele></trkpt>
   <trkpt lat="37.767976" lon="-122.114007"><ele>265.5</ele></trkpt>
   <trkpt lat="37.767788" lon="-122.113456"><ele>271</ele></trkpt>
   <trkpt lat="37.76773" lon="-122.11334"><ele>271.75</ele></trkpt>
   <trkpt lat="37.767656" lon="-122.113237"><ele>272.5</ele></trkpt>
   <trkpt lat="37.767569" lon="-122.113154"><ele>272.75</ele></trkpt>
   <trkpt lat="37.767472" lon="-122.11309"><ele>272.75</ele></trkpt>
   <trkpt lat="37.767161" lon="-122.11296"><ele>271.25</ele></trkpt>
   <trkpt lat="37.767069" lon="-122.112889"><ele>271.25</ele></trkpt>
   <trkpt lat="37.767015" lon="-122.112821"><ele>271.75</ele></trkpt>
   <trkpt lat="37.766985" lon="-122.112763"><ele>272.25</ele></trkpt>
   <trkpt lat="37.766936" lon="-122.112617"><ele>273.75</ele></trkpt>
   <trkpt lat="37.766801" lon="-122.111914"><ele>278.25</ele></trkpt>
   <trkpt lat="37.766659" lon="-122.111275"><ele>276.25</ele></trkpt>
   <trkpt lat="37.766641" lon="-122.111155"><ele>275.5</ele></trkpt>
   <trkpt lat="37.76664" lon="-122.111041"><ele>275</ele></trkpt>
   <trkpt lat="37.766648" lon="-122.110972"><ele>275</ele></trkpt>
   <trkpt lat="37.766669" lon="-122.110903"><ele>275.25</ele></trkpt>
   <trkpt lat="37.766699" lon="-122.110842"><ele>275.75</ele></trkpt>
   <trkpt lat="37.766739" lon="-122.110789"><ele>276.25</ele></trkpt>
   <trkpt lat="37.766798" lon="-122.110741"><ele>277</ele></trkpt>
   <trkpt lat="37.766995" lon="-122.110621"><ele>280</ele></trkpt>
   <trkpt lat="37.767119" lon="-122.110528"><ele>281.5</ele></trkpt>
   <trkpt lat="37.767189" lon="-122.110453"><ele>281.75</ele></trkpt>
   <trkpt lat="37.767246" lon="-122.110357"><ele>281.5</ele></trkpt>
   <trkpt lat="37.767269" lon="-122.110296"><ele>281</ele></trkpt>
   <trkpt lat="37.767286" lon="-122.110228"><ele>280.25</ele></trkpt>
   <trkpt lat="37.7673" lon="-122.110092"><ele>278.5</ele></trkpt>
   <trkpt lat="37.767299" lon="-122.110014"><ele>277.5</ele></trkpt>
   <trkpt lat="37.767289" lon="-122.109937"><ele>277</ele></trkpt>
   <trkpt lat="37.767261" lon="-122.109813"><ele>276.25</ele></trkpt>
   <trkpt lat="37.767207" lon="-122.109697"><ele>275.25</ele></trkpt>
   <trkpt lat="37.767117" lon="-122.109582"><ele>274.5</ele></trkpt>
   <trkpt lat="37.767055" lon="-122.109533"><ele>274</ele></trkpt>
   <trkpt lat="37.766973" lon="-122.109495"><ele>273.25</ele></trkpt>
   <trkpt lat="37.766889" lon="-122.109478"><ele>272.75</ele></trkpt>
   <trkpt lat="37.766813" lon="-122.109478"><ele>272.25</ele></trkpt>
   <trkpt lat="37.766739" lon="-122.109488"><ele>271.75</ele></trkpt>
   <trkpt lat="37.766629" lon="-122.109517"><ele>271</ele></trkpt>
   <trkpt lat="37.766196" lon="-122.10969"><ele>267.5</ele></trkpt>
   <trkpt lat="37.766105" lon="-122.109706"><ele>266.75</ele></trkpt>
   <trkpt lat="37.766049" lon="-122.109705"><ele>266.25</ele></trkpt>
   <trkpt lat="37.765993" lon="-122.109697"><ele>266</ele></trkpt>
   <trkpt lat="37.765884" lon="-122.109659"><ele>265.75</ele></trkpt>
   <trkpt lat="37.765785" lon="-122.1096"><ele>265.75</ele></trkpt>
   <trkpt lat="37.765696" lon="-122.109507"><ele>266.25</ele></trkpt>
   <trkpt lat="37.765643" lon="-122.10943"><ele>267</ele></trkpt>
   <trkpt lat="37.765552" lon="-122.109255"><ele>268.5</ele></trkpt>
   <trkpt lat="37.76543" lon="-122.108981"><ele>266.25</ele></trkpt>
   <trkpt lat="37.765324" lon="-122.108815"><ele>264.25</ele></trkpt>
   <trkpt lat="37.765167" lon="-122.108661"><ele>262.75</ele></trkpt>
   <trkpt lat="37.765065" lon="-122.108577"><ele>262.25</ele></trkpt>
   <trkpt lat="37.764862" lon="-122.108457"><ele>262.75</ele></trkpt>
   <trkpt lat="37.764803" lon="-122.108427"><ele>262.75</ele></trkpt>
   <trkpt lat="37.764607" lon="-122.108351"><ele>263.75</ele></trkpt>
   <trkpt lat="37.764475" lon="-122.108319"><ele>264.25</ele></trkpt>
   <trkpt lat="37.764346" lon="-122.108302"><ele>265</ele></trkpt>
   <trkpt lat="37.764156" lon="-122.108295"><ele>266.25</ele></trkpt>
   <trkpt lat="37.763783" lon="-122.108299"><ele>265.75</ele></trkpt>
   <trkpt lat="37.7636" lon="-122.108317"><ele>266</ele></trkpt>
   <trkpt lat="37.763212" lon="-122.108396"><ele>264.75</ele></trkpt>
   <trkpt lat="37.763087" lon="-122.108403"><ele>263.5</ele></trkpt>
   <trkpt lat="37.762988" lon="-122.108393"><ele>262.75</ele></trkpt>
   <trkpt lat="37.762892" lon="-122.108365"><ele>262</ele></trkpt>
   <trkpt lat="37.762745" lon="-122.108272"><ele>260.25</ele></trkpt>
   <trkpt lat="37.762422" lon="-122.107961"><ele>258.5</ele></trkpt>
   <trkpt lat="37.760684" lon="-122.106189"><ele>260.5</ele></trkpt>
   <trkpt lat="37.760263" lon="-122.105912"><ele>260</ele></trkpt>
   <trkpt lat="37.760192" lon="-122.10585"><ele>260.25</ele></trkpt>
   <trkpt lat="37.759958" lon="-122.10557"><ele>259.75</ele></trkpt>
   <trkpt lat="37.75986" lon="-122.105463"><ele>259</ele></trkpt>
   <trkpt lat="37.759338" lon="-122.105007"><ele>259.75</ele></trkpt>
   <trkpt lat="37.759099" lon="-122.10478"><ele>259</ele></trkpt>
   <trkpt lat="37.758936" lon="-122.10456"><ele>258.75</ele></trkpt>
   <trkpt lat="37.758799" lon="-122.104263"><ele>260</ele></trkpt>
   <trkpt lat="37.758707" lon="-122.104016"><ele>260.5</ele></trkpt>
   <trkpt lat="37.758604" lon="-122.103773"><ele>261</ele></trkpt>
   <trkpt lat="37.758498" lon="-122.103534"><ele>262.25</ele></trkpt>
   <trkpt lat="37.758379" lon="-122.1033"><ele>264</ele></trkpt>
   <trkpt lat="37.75819" lon="-122.102944"><ele>261.5</ele></trkpt>
   <trkpt lat="37.758106" lon="-122.1028"><ele>260.5</ele></trkpt>
   <trkpt lat="37.758011" lon="-122.10267"><ele>260</ele></trkpt>
   <trkpt lat="37.757902" lon="-122.102575"><ele>260.5</ele></trkpt>
   <trkpt lat="37.757776" lon="-122.102506"><ele>261.75</ele></trkpt>
   <trkpt lat="37.757701" lon="-122.102481"><ele>262.25</ele></trkpt>
   <trkpt lat="37.757535" lon="-122.102464"><ele>264.75</ele></trkpt>
   <trkpt lat="37.757448" lon="-122.102465"><ele>265.75</ele></trkpt>
   <trkpt lat="37.757328" lon="-122.102481"><ele>267.5</ele></trkpt>
   <trkpt lat="37.75698" lon="-122.102563"><ele>271.75</ele></trkpt>
   <trkpt lat="37.756856" lon="-122.102549"><ele>272.25</ele></trkpt>
   <trkpt lat="37.756792" lon="-122.102519"><ele>272.25</ele></trkpt>
   <trkpt lat="37.756743" lon="-122.102486"><ele>272</ele></trkpt>
   <trkpt lat="37.756667" lon="-122.102417"><ele>270.5</ele></trkpt>
   <trkpt lat="37.756261" lon="-122.101952"><ele>260.25</ele></trkpt>
   <trkpt lat="37.756074" lon="-122.101893"><ele>259.75</ele></trkpt>
   <trkpt lat="37.755516" lon="-122.101932"><ele>267.5</ele></trkpt>
   <trkpt lat="37.755371" lon="-122.101912"><ele>269.5</ele></trkpt>
   <trkpt lat="37.75529" lon="-122.101879"><ele>270</ele></trkpt>
   <trkpt lat="37.755219" lon="-122.101833"><ele>270</ele></trkpt>
   <trkpt lat="37.755034" lon="-122.101651"><ele>268.75</ele></trkpt>
   <trkpt lat="37.754953" lon="-122.101553"><ele>266.5</ele></trkpt>
   <trkpt lat="37.754846" lon="-122.101451"><ele>264.25</ele></trkpt>
   <trkpt lat="37.754742" lon="-122.10137"><ele>263</ele></trkpt>
   <trkpt lat="37.754479" lon="-122.101247"><ele>263.5</ele></trkpt>
   <trkpt lat="37.754362" lon="-122.101156"><ele>263</ele></trkpt>
   <trkpt lat="37.754317" lon="-122.101089"><ele>262.25</ele></trkpt>
   <trkpt lat="37.754262" lon="-122.100958"><ele>260.5</ele></trkpt>
   <trkpt lat="37.754244" lon="-122.100882"><ele>259.25</ele></trkpt>
   <trkpt lat="37.754217" lon="-122.100668"><ele>257</ele></trkpt>
   <trkpt lat="37.754172" lon="-122.100437"><ele>255.5</ele></trkpt>
   <trkpt lat="37.754089" lon="-122.100188"><ele>255</ele></trkpt>
   <trkpt lat="37.753956" lon="-122.099855"><ele>255.25</ele></trkpt>
   <trkpt lat="37.75375" lon="-122.099485"><ele>256</ele></trkpt>
   <trkpt lat="37.753559" lon="-122.099208"><ele>257</ele></trkpt>
   <trkpt lat="37.753398" lon="-122.098956"><ele>255</ele></trkpt>
   <trkpt lat="37.753337" lon="-122.098771"><ele>251.75</ele></trkpt>
   <trkpt lat="37.75329" lon="-122.098533"><ele>246.75</ele></trkpt>
   <trkpt lat="37.753216" lon="-122.098291"><ele>242</ele></trkpt>
   <trkpt lat="37.753118" lon="-122.098144"><ele>239</ele></trkpt>
   <trkpt lat="37.752997" lon="-122.098012"><ele>237</ele></trkpt>
   <trkpt lat="37.752851" lon="-122.097937"><ele>237</ele></trkpt>
   <trkpt lat="37.752681" lon="-122.097892"><ele>238.5</ele></trkpt>
   <trkpt lat="37.752493" lon="-122.097892"><ele>242</ele></trkpt>
   <trkpt lat="37.75231" lon="-122.097908"><ele>246.25</ele></trkpt>
   <trkpt lat="37.752126" lon="-122.097886"><ele>249</ele></trkpt>
   <trkpt lat="37.751977" lon="-122.097816"><ele>249.75</ele></trkpt>
   <trkpt lat="37.751835" lon="-122.097685"><ele>248.5</ele></trkpt>
   <trkpt lat="37.751676" lon="-122.097556"><ele>248.25</ele></trkpt>
   <trkpt lat="37.75157" lon="-122.097414"><ele>248.25</ele></trkpt>
   <trkpt lat="37.751511" lon="-122.097301"><ele>247.75</ele></trkpt>
   <trkpt lat="37.751453" lon="-122.097114"><ele>245.25</ele></trkpt>
   <trkpt lat="37.751455" lon="-122.09687"><ele>240</ele></trkpt>
   <trkpt lat="37.751489" lon="-122.096414"><ele>230.75</ele></trkpt>
   <trkpt lat="37.751492" lon="-122.096237"><ele>228.25</ele></trkpt>
   <trkpt lat="37.751432" lon="-122.096033"><ele>226</ele></trkpt>
   <trkpt lat="37.751318" lon="-122.095883"><ele>225.25</ele></trkpt>
   <trkpt lat="37.751169" lon="-122.095824"><ele>226.25</ele></trkpt>
   <trkpt lat="37.751055" lon="-122.095826"><ele>227.75</ele></trkpt>
   <trkpt lat="37.75076" lon="-122.095888"><ele>233.25</ele></trkpt>
   <trkpt lat="37.750654" lon="-122.095899"><ele>235.25</ele></trkpt>
   <trkpt lat="37.750563" lon="-122.095891"><ele>236.25</ele></trkpt>
   <trkpt lat="37.750448" lon="-122.095829"><ele>236.25</ele></trkpt>
   <trkpt lat="37.750281" lon="-122.095687"><ele>235</ele></trkpt>
   <trkpt lat="37.750145" lon="-122.09548"><ele>232</ele></trkpt>
   <trkpt lat="37.750041" lon="-122.095236"><ele>228.25</ele></trkpt>
   <trkpt lat="37.749984" lon="-122.095019"><ele>224.75</ele></trkpt>
   <trkpt lat="37.749909" lon="-122.094525"><ele>217.5</ele></trkpt>
   <trkpt lat="37.749859" lon="-122.094348"><ele>215.25</ele></trkpt>
   <trkpt lat="37.749778" lon="-122.094214"><ele>214</ele></trkpt>
   <trkpt lat="37.749665" lon="-122.094107"><ele>213.25</ele></trkpt>
   <trkpt lat="37.749513" lon="-122.094019"><ele>213.5</ele></trkpt>
   <trkpt lat="37.74911" lon="-122.093855"><ele>216.25</ele></trkpt>
   <trkpt lat="37.748966" lon="-122.093758"><ele>218</ele></trkpt>
   <trkpt lat="37.748894" lon="-122.093659"><ele>218</ele></trkpt>
   <trkpt lat="37.748821" lon="-122.093498"><ele>216.75</ele></trkpt>
   <trkpt lat="37.748635" lon="-122.092868"><ele>208</ele></trkpt>
   <trkpt lat="37.748391" lon="-122.092374"><ele>204.5</ele></trkpt>
   <trkpt lat="37.74794" lon="-122.091625"><ele>202.5</ele></trkpt>
   <trkpt lat="37.7475" lon="-122.090907"><ele>196.75</ele></trkpt>
   <trkpt lat="37.747394" lon="-122.090735"><ele>195.75</ele></trkpt>
   <trkpt lat="37.747292" lon="-122.090553"><ele>196</ele></trkpt>
   <trkpt lat="37.747039" lon="-122.09018"><ele>193.5</ele></trkpt>
   <trkpt lat="37.746915" lon="-122.090037"><ele>191.25</ele></trkpt>
   <trkpt lat="37.746567" lon="-122.089709"><ele>190.25</ele></trkpt>
   <trkpt lat="37.746264" lon="-122.089387"><ele>189</ele></trkpt>
   <trkpt lat="37.746117" lon="-122.089198"><ele>186</ele></trkpt>
   <trkpt lat="37.746" lon="-122.088999"><ele>185.25</ele></trkpt>
   <trkpt lat="37.745872" lon="-122.088703"><ele>185.75</ele></trkpt>
   <trkpt lat="37.745778" lon="-122.088547"><ele>186</ele></trkpt>
   <trkpt lat="37.745705" lon="-122.08848"><ele>186</ele></trkpt>
   <trkpt lat="37.745615" lon="-122.088437"><ele>185</ele></trkpt>
   <trkpt lat="37.745117" lon="-122.088321"><ele>177.25</ele></trkpt>
   <trkpt lat="37.744605" lon="-122.088145"><ele>173.5</ele></trkpt>
   <trkpt lat="37.744378" lon="-122.088008"><ele>172</ele></trkpt>
   <trkpt lat="37.74412" lon="-122.087787"><ele>169.5</ele></trkpt>
   <trkpt lat="37.743925" lon="-122.087578"><ele>168</ele></trkpt>
   <trkpt lat="37.743761" lon="-122.08735"><ele>167.25</ele></trkpt>
   <trkpt lat="37.743633" lon="-122.087127"><ele>167.5</ele></trkpt>
   <trkpt lat="37.743527" lon="-122.087017"><ele>167</ele></trkpt>
   <trkpt lat="37.743389" lon="-122.086953"><ele>165</ele></trkpt>
   <trkpt lat="37.74288" lon="-122.086886"><ele>158.25</ele></trkpt>
   <trkpt lat="37.742689" lon="-122.086788"><ele>155.75</ele></trkpt>
   <trkpt lat="37.742496" lon="-122.086635"><ele>153.25</ele></trkpt>
   <trkpt lat="37.742298" lon="-122.086416"><ele>154.5</ele></trkpt>
   <trkpt lat="37.742079" lon="-122.08611"><ele>156.25</ele></trkpt>
   <trkpt lat="37.741976" lon="-122.086024"><ele>156.25</ele></trkpt>
   <trkpt lat="37.741854" lon="-122.085994"><ele>155.25</ele></trkpt>
   <trkpt lat="37.741377" lon="-122.086094"><ele>149.75</ele></trkpt>
   <trkpt lat="37.741204" lon="-122.086053"><ele>149</ele></trkpt>
   <trkpt lat="37.740972" lon="-122.085959"><ele>147</ele></trkpt>
   <trkpt lat="37.740707" lon="-122.085799"><ele>144.5</ele></trkpt>
   <trkpt lat="37.740486" lon="-122.085625"><ele>145</ele></trkpt>
   <trkpt lat="37.740387" lon="-122.0855"><ele>145</ele></trkpt>
   <trkpt lat="37.740184" lon="-122.085115"><ele>143.5</ele></trkpt>
   <trkpt lat="37.740124" lon="-122.085031"><ele>142.25</ele></trkpt>
   <trkpt lat="37.740034" lon="-122.084957"><ele>141</ele></trkpt>
   <trkpt lat="37.739926" lon="-122.084925"><ele>139.5</ele></trkpt>
   <trkpt lat="37.739616" lon="-122.084894"><ele>134.75</ele></trkpt>
   <trkpt lat="37.739485" lon="-122.084828"><ele>134</ele></trkpt>
   <trkpt lat="37.739284" lon="-122.08463"><ele>134.25</ele></trkpt>
   <trkpt lat="37.739146" lon="-122.084516"><ele>133.75</ele></trkpt>
   <trkpt lat="37.739046" lon="-122.084478"><ele>132.5</ele></trkpt>
   <trkpt lat="37.738796" lon="-122.084478"><ele>128</ele></trkpt>
   <trkpt lat="37.73872" lon="-122.084469"><ele>126.75</ele></trkpt>
   <trkpt lat="37.738625" lon="-122.084424"><ele>125.5</ele></trkpt>
   <trkpt lat="37.73855" lon="-122.084366"><ele>124.5</ele></trkpt>
   <trkpt lat="37.738486" lon="-122.084295"><ele>124</ele></trkpt>
   <trkpt lat="37.738" lon="-122.083662"><ele>123.5</ele></trkpt>
   <trkpt lat="37.737762" lon="-122.083369"><ele>119.25</ele></trkpt>
   <trkpt lat="37.737672" lon="-122.083228"><ele>117</ele></trkpt>
   <trkpt lat="37.737594" lon="-122.083064"><ele>115.5</ele></trkpt>
   <trkpt lat="37.737523" lon="-122.082851"><ele>114</ele></trkpt>
   <trkpt lat="37.737433" lon="-122.082354"><ele>115.25</ele></trkpt>
   <trkpt lat="37.737416" lon="-122.082279"><ele>115.75</ele></trkpt>
   <trkpt lat="37.737384" lon="-122.082184"><ele>116</ele></trkpt>
   <trkpt lat="37.737353" lon="-122.082117"><ele>116</ele></trkpt>
   <trkpt lat="37.737265" lon="-122.081988"><ele>115.25</ele></trkpt>
   <trkpt lat="37.73703" lon="-122.081741"><ele>111.25</ele></trkpt>
   <trkpt lat="37.736923" lon="-122.081605"><ele>108.75</ele></trkpt>
   <trkpt lat="37.736847" lon="-122.081441"><ele>106.75</ele></trkpt>
   <trkpt lat="37.736716" lon="-122.08104"><ele>103.25</ele></trkpt>
   <trkpt lat="37.73662" lon="-122.080649"><ele>100.25</ele></trkpt>
   <trkpt lat="37.736594" lon="-122.080461"><ele>98.75</ele></trkpt>
   <trkpt lat="37.736603" lon="-122.080283"><ele>98</ele></trkpt>
   <trkpt lat="37.736662" lon="-122.080026"><ele>98</ele></trkpt>
   <trkpt lat="37.736767" lon="-122.079767"><ele>95.75</ele></trkpt>
   <trkpt lat="37.738163" lon="-122.0768"><ele>89.75</ele></trkpt>
   <trkpt lat="37.738209" lon="-122.076663"><ele>88.75</ele></trkpt>
   <trkpt lat="37.738226" lon="-122.076579"><ele>88.75</ele></trkpt>
   <trkpt lat="37.738231" lon="-122.0765"><ele>88.5</ele></trkpt>
   <trkpt lat="37.738221" lon="-122.076323"><ele>87.75</ele></trkpt>
   <trkpt lat="37.738198" lon="-122.076195"><ele>87</ele></trkpt>
   <trkpt lat="37.73818" lon="-122.076145"><ele>86.75</ele></trkpt>
   <trkpt lat="37.738146" lon="-122.076058"><ele>86.5</ele></trkpt>
   <trkpt lat="37.738074" lon="-122.075939"><ele>85.75</ele></trkpt>
   <trkpt lat="37.737969" lon="-122.07581"><ele>86</ele></trkpt>
   <trkpt lat="37.737908" lon="-122.075755"><ele>86.75</ele></trkpt>
   <trkpt lat="37.737846" lon="-122.07571"><ele>87.25</ele></trkpt>
   <trkpt lat="37.737821" lon="-122.075695"><ele>87.5</ele></trkpt>
   <trkpt lat="37.737675" lon="-122.07565"><ele>88.75</ele></trkpt>
   <trkpt lat="37.737539" lon="-122.075665"><ele>89</ele></trkpt>
   <trkpt lat="37.737349" lon="-122.07574"><ele>91.25</ele></trkpt>
   <trkpt lat="37.737124" lon="-122.075914"><ele>93</ele></trkpt>
   <trkpt lat="37.73638" lon="-122.076662"><ele>92</ele></trkpt>
   <trkpt lat="37.736175" lon="-122.076906"><ele>96</ele></trkpt>
   <trkpt lat="37.736024" lon="-122.077122"><ele>97.75</ele></trkpt>
   <trkpt lat="37.735931" lon="-122.07735"><ele>97</ele></trkpt>
   <trkpt lat="37.735872" lon="-122.077624"><ele>94.25</ele></trkpt>
   <trkpt lat="37.735797" lon="-122.078217"><ele>86.25</ele></trkpt>
   <trkpt lat="37.735729" lon="-122.078422"><ele>86.5</ele></trkpt>
   <trkpt lat="37.73562" lon="-122.078638"><ele>88.5</ele></trkpt>
   <trkpt lat="37.735222" lon="-122.079373"><ele>90.5</ele></trkpt>
   <trkpt lat="37.734973" lon="-122.079783"><ele>86.75</ele></trkpt>
   <trkpt lat="37.73476" lon="-122.080012"><ele>87</ele></trkpt>
   <trkpt lat="37.733736" lon="-122.080944"><ele>83.75</ele></trkpt>
   <trkpt lat="37.733548" lon="-122.081046"><ele>83.5</ele></trkpt>
   <trkpt lat="37.733393" lon="-122.081085"><ele>83.25</ele></trkpt>
   <trkpt lat="37.733168" lon="-122.081087"><ele>82.5</ele></trkpt>
   <trkpt lat="37.732496" lon="-122.080945"><ele>80</ele></trkpt>
   <trkpt lat="37.732334" lon="-122.080914"><ele>78.25</ele></trkpt>
   <trkpt lat="37.731989" lon="-122.080847"><ele>78.25</ele></trkpt>
   <trkpt lat="37.72916" lon="-122.080234"><ele>76.75</ele></trkpt>
   <trkpt lat="37.728618" lon="-122.080067"><ele>76.5</ele></trkpt>
   <trkpt lat="37.727471" lon="-122.079681"><ele>78.5</ele></trkpt>
   <trkpt lat="37.727283" lon="-122.079647"><ele>80.5</ele></trkpt>
   <trkpt lat="37.726977" lon="-122.079661"><ele>83</ele></trkpt>
   <trkpt lat="37.725371" lon="-122.079819"><ele>78.5</ele></trkpt>
   <trkpt lat="37.725074" lon="-122.07983"><ele>75.75</ele></trkpt>
   <trkpt lat="37.724804" lon="-122.079781"><ele>78</ele></trkpt>
   <trkpt lat="37.72468" lon="-122.079733"><ele>79.75</ele></trkpt>
   <trkpt lat="37.724525" lon="-122.079659"><ele>81.5</ele></trkpt>
   <trkpt lat="37.724289" lon="-122.079492"><ele>82.75</ele></trkpt>
   <trkpt lat="37.723795" lon="-122.079053"><ele>83.5</ele></trkpt>
   <trkpt lat="37.723439" lon="-122.078716"><ele>84.5</ele></trkpt>
   <trkpt lat="37.723235" lon="-122.07849"><ele>85.5</ele></trkpt>
   <trkpt lat="37.722788" lon="-122.077938"><ele>90.75</ele></trkpt>
   <trkpt lat="37.72223" lon="-122.077212"><ele>92.5</ele></trkpt>
   <trkpt lat="37.721921" lon="-122.076747"><ele>91.75</ele></trkpt>
   <trkpt lat="37.721679" lon="-122.076378"><ele>91.5</ele></trkpt>
   <trkpt lat="37.721348" lon="-122.075916"><ele>97.5</ele></trkpt>
   <trkpt lat="37.721269" lon="-122.075805"><ele>98.75</ele></trkpt>
   <trkpt lat="37.720908" lon="-122.075395"><ele>102</ele></trkpt>
   <trkpt lat="37.720707" lon="-122.075225"><ele>103.25</ele></trkpt>
   <trkpt lat="37.71944" lon="-122.074324"><ele>114.5</ele></trkpt>
   <trkpt lat="37.719107" lon="-122.07409"><ele>117.75</ele></trkpt>
   <trkpt lat="37.718857" lon="-122.073924"><ele>121.75</ele></trkpt>
   <trkpt lat="37.718847" lon="-122.07392"><ele>121.75</ele></trkpt>
   <trkpt lat="37.718736" lon="-122.073874"><ele>123.5</ele></trkpt>
   <trkpt lat="37.718549" lon="-122.073812"><ele>126.75</ele></trkpt>
   <trkpt lat="37.718378" lon="-122.07377"><ele>129.5</ele></trkpt>
   <trkpt lat="37.718201" lon="-122.073748"><ele>130.25</ele></trkpt>
   <trkpt lat="37.718031" lon="-122.073737"><ele>130</ele></trkpt>
   <trkpt lat="37.717998" lon="-122.073735"><ele>130</ele></trkpt>
   <trkpt lat="37.71781" lon="-122.073732"><ele>129.75</ele></trkpt>
   <trkpt lat="37.717555" lon="-122.073733"><ele>129.5</ele></trkpt>
   <trkpt lat="37.717387" lon="-122.073733"><ele>129</ele></trkpt>
   <trkpt lat="37.717106" lon="-122.073733"><ele>128.5</ele></trkpt>
   <trkpt lat="37.716961" lon="-122.073734"><ele>128</ele></trkpt>
   <trkpt lat="37.716811" lon="-122.073738"><ele>127.75</ele></trkpt>
   <trkpt lat="37.716751" lon="-122.07374"><ele>127.5</ele></trkpt>
   <trkpt lat="37.716713" lon="-122.073741"><ele>127.5</ele></trkpt>
   <trkpt lat="37.716369" lon="-122.07376"><ele>126</ele></trkpt>
   <trkpt lat="37.716293" lon="-122.073764"><ele>125.5</ele></trkpt>
   <trkpt lat="37.716108" lon="-122.073772"><ele>124.75</ele></trkpt>
   <trkpt lat="37.715487" lon="-122.073797"><ele>121</ele></trkpt>
   <trkpt lat="37.715373" lon="-122.073801"><ele>120.25</ele></trkpt>
   <trkpt lat="37.715133" lon="-122.073813"><ele>118.5</ele></trkpt>
   <trkpt lat="37.714839" lon="-122.073824"><ele>115.75</ele></trkpt>
   <trkpt lat="37.714341" lon="-122.073844"><ele>110</ele></trkpt>
   <trkpt lat="37.7142" lon="-122.07385"><ele>108.5</ele></trkpt>
   <trkpt lat="37.713969" lon="-122.07386"><ele>105.75</ele></trkpt>
   <trkpt lat="37.713521" lon="-122.073879"><ele>101</ele></trkpt>
   <trkpt lat="37.713147" lon="-122.073894"><ele>98</ele></trkpt>
   <trkpt lat="37.712271" lon="-122.073931"><ele>93.75</ele></trkpt>
   <trkpt lat="37.711635" lon="-122.073947"><ele>89.75</ele></trkpt>
   <trkpt lat="37.711576" lon="-122.073949"><ele>89.25</ele></trkpt>
   <trkpt lat="37.71086" lon="-122.073958"><ele>84.75</ele></trkpt>
   <trkpt lat="37.710515" lon="-122.073965"><ele>83.5</ele></trkpt>
   <trkpt lat="37.71005" lon="-122.073977"><ele>82</ele></trkpt>
   <trkpt lat="37.709852" lon="-122.074048"><ele>81</ele></trkpt>
   <trkpt lat="37.709744" lon="-122.074048"><ele>80.5</ele></trkpt>
   <trkpt lat="37.709643" lon="-122.07405"><ele>80</ele></trkpt>
   <trkpt lat="37.709538" lon="-122.074051"><ele>79.75</ele></trkpt>
   <trkpt lat="37.708955" lon="-122.074061"><ele>78</ele></trkpt>
   <trkpt lat="37.708895" lon="-122.073991"><ele>78</ele></trkpt>
   <trkpt lat="37.70862" lon="-122.073992"><ele>77.75</ele></trkpt>
   <trkpt lat="37.708343" lon="-122.073997"><ele>77.25</ele></trkpt>
   <trkpt lat="37.707937" lon="-122.074004"><ele>75.5</ele></trkpt>
   <trkpt lat="37.707855" lon="-122.074005"><ele>75</ele></trkpt>
   <trkpt lat="37.707774" lon="-122.074006"><ele>74.75</ele></trkpt>
   <trkpt lat="37.70714" lon="-122.074014"><ele>73</ele></trkpt>
   <trkpt lat="37.706707" lon="-122.074019"><ele>72.5</ele></trkpt>
   <trkpt lat="37.706639" lon="-122.074023"><ele>72.5</ele></trkpt>
   <trkpt lat="37.706593" lon="-122.074026"><ele>72.25</ele></trkpt>
   <trkpt lat="37.706363" lon="-122.074025"><ele>71.5</ele></trkpt>
   <trkpt lat="37.705998" lon="-122.074031"><ele>70</ele></trkpt>
   <trkpt lat="37.705466" lon="-122.074035"><ele>68.5</ele></trkpt>
   <trkpt lat="37.705382" lon="-122.074115"><ele>68</ele></trkpt>
   <trkpt lat="37.705143" lon="-122.074117"><ele>67.25</ele></trkpt>
   <trkpt lat="37.70483" lon="-122.074119"><ele>66.75</ele></trkpt>
   <trkpt lat="37.704748" lon="-122.07412"><ele>66.75</ele></trkpt>
   <trkpt lat="37.704649" lon="-122.074121"><ele>66.5</ele></trkpt>
   <trkpt lat="37.70445" lon="-122.074122"><ele>66.25</ele></trkpt>
   <trkpt lat="37.704172" lon="-122.074113"><ele>66</ele></trkpt>
   <trkpt lat="37.704115" lon="-122.074045"><ele>66</ele></trkpt>
   <trkpt lat="37.70397" lon="-122.074042"><ele>65.5</ele></trkpt>
   <trkpt lat="37.703566" lon="-122.07403"><ele>64</ele></trkpt>
   <trkpt lat="37.703364" lon="-122.074028"><ele>63.25</ele></trkpt>
   <trkpt lat="37.70323" lon="-122.074028"><ele>63.5</ele></trkpt>
   <trkpt lat="37.703086" lon="-122.074028"><ele>63.75</ele></trkpt>
   <trkpt lat="37.702955" lon="-122.074029"><ele>64</ele></trkpt>
   <trkpt lat="37.702941" lon="-122.074029"><ele>64</ele></trkpt>
   <trkpt lat="37.702796" lon="-122.074033"><ele>64.5</ele></trkpt>
   <trkpt lat="37.702693" lon="-122.074035"><ele>64.5</ele></trkpt>
   <trkpt lat="37.702601" lon="-122.07407"><ele>64.75</ele></trkpt>
   <trkpt lat="37.702509" lon="-122.074071"><ele>65</ele></trkpt>
   <trkpt lat="37.702362" lon="-122.074073"><ele>64.75</ele></trkpt>
   <trkpt lat="37.702282" lon="-122.074075"><ele>64.5</ele></trkpt>
   <trkpt lat="37.702153" lon="-122.074074"><ele>64.25</ele></trkpt>
   <trkpt lat="37.702133" lon="-122.074077"><ele>64</ele></trkpt>
   <trkpt lat="37.702061" lon="-122.074077"><ele>64</ele></trkpt>
   <trkpt lat="37.701871" lon="-122.074082"><ele>63.5</ele></trkpt>
   <trkpt lat="37.701784" lon="-122.074081"><ele>63.25</ele></trkpt>
   <trkpt lat="37.701512" lon="-122.074079"><ele>63</ele></trkpt>
   <trkpt lat="37.701407" lon="-122.074077"><ele>63</ele></trkpt>
   <trkpt lat="37.701322" lon="-122.074075"><ele>63</ele></trkpt>
   <trkpt lat="37.701249" lon="-122.074077"><ele>63</ele></trkpt>
   <trkpt lat="37.701182" lon="-122.074079"><ele>63</ele></trkpt>
   <trkpt lat="37.700988" lon="-122.074082"><ele>63</ele></trkpt>
   <trkpt lat="37.70089" lon="-122.074076"><ele>63</ele></trkpt>
   <trkpt lat="37.700761" lon="-122.074018"><ele>62.75</ele></trkpt>
   <trkpt lat="37.700549" lon="-122.074008"><ele>62.75</ele></trkpt>
   <trkpt lat="37.700194" lon="-122.073995"><ele>62.75</ele></trkpt>
   <trkpt lat="37.700119" lon="-122.073993"><ele>62.75</ele></trkpt>
   <trkpt lat="37.699593" lon="-122.073984"><ele>61.25</ele></trkpt>
   <trkpt lat="37.699388" lon="-122.073976"><ele>60.5</ele></trkpt>
   <trkpt lat="37.699129" lon="-122.073971"><ele>59.75</ele></trkpt>
   <trkpt lat="37.69893" lon="-122.073969"><ele>59.5</ele></trkpt>
   <trkpt lat="37.698745" lon="-122.073962"><ele>59.25</ele></trkpt>
   <trkpt lat="37.698606" lon="-122.073958"><ele>59.25</ele></trkpt>
   <trkpt lat="37.698544" lon="-122.073957"><ele>59.25</ele></trkpt>
   <trkpt lat="37.698169" lon="-122.073953"><ele>58.25</ele></trkpt>
   <trkpt lat="37.698114" lon="-122.073952"><ele>58</ele></trkpt>
   <trkpt lat="37.698048" lon="-122.073987"><ele>57.75</ele></trkpt>
   <trkpt lat="37.697804" lon="-122.074001"><ele>56.5</ele></trkpt>
   <trkpt lat="37.697713" lon="-122.074006"><ele>56.25</ele></trkpt>
   <trkpt lat="37.697601" lon="-122.074005"><ele>55.75</ele></trkpt>
   <trkpt lat="37.697374" lon="-122.074002"><ele>55.25</ele></trkpt>
   <trkpt lat="37.697203" lon="-122.073999"><ele>55.25</ele></trkpt>
   <trkpt lat="37.697138" lon="-122.073997"><ele>55</ele></trkpt>
   <trkpt lat="37.696905" lon="-122.073994"><ele>55</ele></trkpt>
   <trkpt lat="37.696835" lon="-122.073994"><ele>55</ele></trkpt>
   <trkpt lat="37.696766" lon="-122.073992"><ele>55</ele></trkpt>
   <trkpt lat="37.696679" lon="-122.07399"><ele>55</ele></trkpt>
   <trkpt lat="37.696327" lon="-122.073981"><ele>54.5</ele></trkpt>
   <trkpt lat="37.695715" lon="-122.073969"><ele>54.25</ele></trkpt>
   <trkpt lat="37.695702" lon="-122.073969"><ele>54.25</ele></trkpt>
   <trkpt lat="37.695597" lon="-122.073975"><ele>54.25</ele></trkpt>
   <trkpt lat="37.695506" lon="-122.073993"><ele>54.25</ele></trkpt>
   <trkpt lat="37.6954" lon="-122.074002"><ele>54.5</ele></trkpt>
   <trkpt lat="37.695192" lon="-122.073999"><ele>54.5</ele></trkpt>
   <trkpt lat="37.694569" lon="-122.073991"><ele>53.25</ele></trkpt>
   <trkpt lat="37.694162" lon="-122.073986"><ele>52</ele></trkpt>
   <trkpt lat="37.694137" lon="-122.073986"><ele>52</ele></trkpt>
   <trkpt lat="37.693867" lon="-122.073986"><ele>52</ele></trkpt>
   <trkpt lat="37.693496" lon="-122.073972"><ele>52</ele></trkpt>
   <trkpt lat="37.693286" lon="-122.073969"><ele>52</ele></trkpt>
   <trkpt lat="37.69327" lon="-122.073969"><ele>52</ele></trkpt>
   <trkpt lat="37.693204" lon="-122.073969"><ele>51.75</ele></trkpt>
   <trkpt lat="37.692758" lon="-122.073964"><ele>50.5</ele></trkpt>
   <trkpt lat="37.692743" lon="-122.073964"><ele>50.5</ele></trkpt>
   <trkpt lat="37.692608" lon="-122.073959"><ele>50.25</ele></trkpt>
   <trkpt lat="37.692609" lon="-122.074028"><ele>50.25</ele></trkpt>
  </trkseg>
 </trk>
</gpx>