<?xml version="1.0" encoding="UTF-8"?>
<!-- track-length = 8107 filtered ascend = 174 plain-ascend = 77 cost=394427 energy=1.2kwh time=2h 39m 1.768861455260776s -->
<gpx 
 xmlns="http://www.topografix.com/GPX/1/1" 
 xmlns:xsi="http://www.w3.org/2001/XMLSchema-instance" 
 xsi:schemaLocation="http://www.topografix.com/GPX/1/1 http://www.topografix.com/GPX/1/1/gpx.xsd" 
 version="1.1" 
 creator="BRouter-Web 0.18.1">
 <trk>
  <name>summitrd</name>
  <trkseg>
   <trkpt lat="37.069041" lon="-121.809229"><ele>861.25</ele></trkpt>
   <trkpt lat="37.069125" lon="-121.809289"><ele>862</ele></trkpt>
   <trkpt lat="37.069245" lon="-121.809408"><ele>861.75</ele></trkpt>
   <trkpt lat="37.069575" lon="-121.809911"><ele>862.25</ele></trkpt>
   <trkpt lat="37.069743" lon="-121.810236"><ele>861.5</ele></trkpt>
   <trkpt lat="37.069837" lon="-121.810328"><ele>861.25</ele></trkpt>
   <trkpt lat="37.070161" lon="-121.810436"><ele>858</ele></trkpt>
   <trkpt lat="37.070492" lon="-121.810787"><ele>854</ele></trkpt>
   <trkpt lat="37.070763" lon="-121.811003"><ele>850.25</ele></trkpt>
   <trkpt lat="37.070903" lon="-121.811193"><ele>849</ele></trkpt>
   <trkpt lat="37.071074" lon="-121.811326"><ele>848.75</ele></trkpt>
   <trkpt lat="37.071245" lon="-121.811345"><ele>848.75</ele></trkpt>
   <trkpt lat="37.071412" lon="-121.811401"><ele>849.25</ele></trkpt>
   <trkpt lat="37.071556" lon="-121.811566"><ele>851.75</ele></trkpt>
   <trkpt lat="37.071729" lon="-121.811691"><ele>852.5</ele></trkpt>
   <trkpt lat="37.071939" lon="-121.811851"><ele>848</ele></trkpt>
   <trkpt lat="37.072101" lon="-121.812056"><ele>846.5</ele></trkpt>
   <trkpt lat="37.072276" lon="-121.812354"><ele>847.75</ele></trkpt>
   <trkpt lat="37.072422" lon="-121.812678"><ele>850.5</ele></trkpt>
   <trkpt lat="37.07253" lon="-121.812869"><ele>851.75</ele></trkpt>
   <trkpt lat="37.072772" lon="-121.813164"><ele>852.5</ele></trkpt>
   <trkpt lat="37.072998" lon="-121.813353"><ele>853.75</ele></trkpt>
   <trkpt lat="37.073493" lon="-121.813726"><ele>851.75</ele></trkpt>
   <trkpt lat="37.073993" lon="-121.814343"><ele>851.5</ele></trkpt>
   <trkpt lat="37.074186" lon="-121.814503"><ele>852.75</ele></trkpt>
   <trkpt lat="37.074374" lon="-121.814611"><ele>856</ele></trkpt>
   <trkpt lat="37.074599" lon="-121.814628"><ele>859.75</ele></trkpt>
   <trkpt lat="37.074912" lon="-121.814595"><ele>863.75</ele></trkpt>
   <trkpt lat="37.075098" lon="-121.814545"><ele>864.5</ele></trkpt>
   <trkpt lat="37.075316" lon="-121.814563"><ele>865.75</ele></trkpt>
   <trkpt lat="37.075653" lon="-121.81446"><ele>864.5</ele></trkpt>
   <trkpt lat="37.075763" lon="-121.814572"><ele>867.75</ele></trkpt>
   <trkpt lat="37.076079" lon="-121.814736"><ele>871.5</ele></trkpt>
   <trkpt lat="37.076235" lon="-121.81491"><ele>876.5</ele></trkpt>
   <trkpt lat="37.076891" lon="-121.815357"><ele>883</ele></trkpt>
   <trkpt lat="37.077149" lon="-121.815596"><ele>884</ele></trkpt>
   <trkpt lat="37.077194" lon="-121.815711"><ele>888.5</ele></trkpt>
   <trkpt lat="37.077261" lon="-121.815881"><ele>888.5</ele></trkpt>
   <trkpt lat="37.077248" lon="-121.816276"><ele>892.5</ele></trkpt>
   <trkpt lat="37.077464" lon="-121.816491"><ele>892.75</ele></trkpt>
   <trkpt lat="37.077536" lon="-121.81671"><ele>895.25</ele></trkpt>
   <trkpt lat="37.077857" lon="-121.817208"><ele>903.75</ele></trkpt>
   <trkpt lat="37.077995" lon="-121.817317"><ele>906</ele></trkpt>
   <trkpt lat="37.078158" lon="-121.817397"><ele>908</ele></trkpt>
   <trkpt lat="37.078383" lon="-121.817438"><ele>910</ele></trkpt>
   <trkpt lat="37.078594" lon="-121.817409"><ele>912.5</ele></trkpt>
   <trkpt lat="37.079033" lon="-121.817229"><ele>916.5</ele></trkpt>
   <trkpt lat="37.079209" lon="-121.817024"><ele>916.5</ele></trkpt>
   <trkpt lat="37.079352" lon="-121.816706"><ele>913.75</ele></trkpt>
   <trkpt lat="37.079458" lon="-121.816629"><ele>913.5</ele></trkpt>
   <trkpt lat="37.079927" lon="-121.816631"><ele>920</ele></trkpt>
   <trkpt lat="37.080038" lon="-121.816593"><ele>919.5</ele></trkpt>
   <trkpt lat="37.080132" lon="-121.816545"><ele>917.25</ele></trkpt>
   <trkpt lat="37.080352" lon="-121.816507"><ele>913.75</ele></trkpt>
   <trkpt lat="37.080436" lon="-121.81656"><ele>914</ele></trkpt>
   <trkpt lat="37.08056" lon="-121.816687"><ele>914.75</ele></trkpt>
   <trkpt lat="37.080894" lon="-121.816971"><ele>914.25</ele></trkpt>
   <trkpt lat="37.081481" lon="-121.817427"><ele>908.25</ele></trkpt>
   <trkpt lat="37.081635499043266" lon="-121.81753213700418"/>
   <trkpt lat="37.081838877471576" lon="-121.81749994256882"/>
   <trkpt lat="37.08200157982141" lon="-121.8174650652638"/>
   <trkpt lat="37.08223921025752" lon="-121.81762872031031"/>
   <trkpt lat="37.08239120771342" lon="-121.81762067170149"/>
   <trkpt lat="37.08251537442307" lon="-121.81750262543841"/>
   <trkpt lat="37.082639540929335" lon="-121.81749994256882"/>
   <trkpt lat="37.08314850021073" lon="-121.81788347863996"/>
   <trkpt lat="37.08325768020308" lon="-121.81799079342453"/>
   <trkpt lat="37.08338398627255" lon="-121.81808201099146"/>
   <trkpt lat="37.08370510245071" lon="-121.81820274012412"/>
   <trkpt lat="37.083799296271614" lon="-121.81829932343027"/>
   <trkpt lat="37.083919179147095" lon="-121.8189297977898"/>
   <trkpt lat="37.083963" lon="-121.819293"><ele>882.75</ele></trkpt>
   <trkpt lat="37.084117" lon="-121.819674"><ele>888.25</ele></trkpt>
   <trkpt lat="37.084228" lon="-121.819918"><ele>889</ele></trkpt>
   <trkpt lat="37.084309" lon="-121.820051"><ele>887.75</ele></trkpt>
   <trkpt lat="37.084322" lon="-121.820066"><ele>886</ele></trkpt>
   <trkpt lat="37.084434" lon="-121.820185"><ele>886</ele></trkpt>
   <trkpt lat="37.084708" lon="-121.820418"><ele>880.5</ele></trkpt>
   <trkpt lat="37.084808" lon="-121.820538"><ele>879.5</ele></trkpt>
   <trkpt lat="37.084908" lon="-121.820752"><ele>881.5</ele></trkpt>
   <trkpt lat="37.085031" lon="-121.821068"><ele>884.75</ele></trkpt>
   <trkpt lat="37.08531" lon="-121.821454"><ele>880.25</ele></trkpt>
   <trkpt lat="37.085461" lon="-121.821789"><ele>880.75</ele></trkpt>
   <trkpt lat="37.085686" lon="-121.822219"><ele>877</ele></trkpt>
   <trkpt lat="37.08575" lon="-121.822381"><ele>876.5</ele></trkpt>
   <trkpt lat="37.08578" lon="-121.822473"><ele>876.5</ele></trkpt>
   <trkpt lat="37.085852" lon="-121.822756"><ele>876.75</ele></trkpt>
   <trkpt lat="37.085864" lon="-121.822835"><ele>877.5</ele></trkpt>
   <trkpt lat="37.085897" lon="-121.822962"><ele>878</ele></trkpt>
   <trkpt lat="37.085907" lon="-121.822996"><ele>878</ele></trkpt>
   <trkpt lat="37.085929" lon="-121.823136"><ele>879.5</ele></trkpt>
   <trkpt lat="37.085951" lon="-121.823344"><ele>882</ele></trkpt>
   <trkpt lat="37.08598" lon="-121.823523"><ele>881</ele></trkpt>
   <trkpt lat="37.086043" lon="-121.82365"><ele>879</ele></trkpt>
   <trkpt lat="37.086126" lon="-121.823711"><ele>876.5</ele></trkpt>
   <trkpt lat="37.086429" lon="-121.823828"><ele>868.25</ele></trkpt>
   <trkpt lat="37.086771" lon="-121.823864"><ele>861</ele></trkpt>
   <trkpt lat="37.087129" lon="-121.824028"><ele>861.75</ele></trkpt>
   <trkpt lat="37.08745" lon="-121.824064"><ele>860.75</ele></trkpt>
   <trkpt lat="37.087624" lon="-121.824091"><ele>861.75</ele></trkpt>
   <trkpt lat="37.087707" lon="-121.824138"><ele>863.5</ele></trkpt>
   <trkpt lat="37.087784" lon="-121.824214"><ele>864.75</ele></trkpt>
   <trkpt lat="37.087831" lon="-121.824361"><ele>865.25</ele></trkpt>
   <trkpt lat="37.087821" lon="-121.824546"><ele>865.5</ele></trkpt>
   <trkpt lat="37.087731" lon="-121.824971"><ele>865.25</ele></trkpt>
   <trkpt lat="37.087753" lon="-121.825193"><ele>866.25</ele></trkpt>
   <trkpt lat="37.087782" lon="-121.825352"><ele>867.25</ele></trkpt>
   <trkpt lat="37.087782" lon="-121.82552"><ele>868</ele></trkpt>
   <trkpt lat="37.087744" lon="-121.825656"><ele>868</ele></trkpt>
   <trkpt lat="37.087718" lon="-121.825852"><ele>868</ele></trkpt>
   <trkpt lat="37.087761" lon="-121.826339"><ele>869</ele></trkpt>
   <trkpt lat="37.087787" lon="-121.826515"><ele>869.75</ele></trkpt>
   <trkpt lat="37.087857" lon="-121.826677"><ele>871.5</ele></trkpt>
   <trkpt lat="37.087971" lon="-121.826843"><ele>874.25</ele></trkpt>
   <trkpt lat="37.087988" lon="-121.826986"><ele>874.75</ele></trkpt>
   <trkpt lat="37.087919" lon="-121.82724"><ele>873</ele></trkpt>
   <trkpt lat="37.087906" lon="-121.827398"><ele>872.5</ele></trkpt>
   <trkpt lat="37.08791" lon="-121.827544"><ele>873</ele></trkpt>
   <trkpt lat="37.087975" lon="-121.827811"><ele>877.25</ele></trkpt>
   <trkpt lat="37.087984" lon="-121.828123"><ele>880.25</ele></trkpt>
   <trkpt lat="37.087825" lon="-121.828629"><ele>877.5</ele></trkpt>
   <trkpt lat="37.087806" lon="-121.828834"><ele>877.5</ele></trkpt>
   <trkpt lat="37.087877" lon="-121.829048"><ele>880.5</ele></trkpt>
   <trkpt lat="37.087925" lon="-121.829146"><ele>882.5</ele></trkpt>
   <trkpt lat="37.088001" lon="-121.829231"><ele>886</ele></trkpt>
   <trkpt lat="37.088187" lon="-121.829326"><ele>893.75</ele></trkpt>
   <trkpt lat="37.088234" lon="-121.829378"><ele>896.25</ele></trkpt>
   <trkpt lat="37.08822" lon="-121.829536"><ele>897</ele></trkpt>
   <trkpt lat="37.088124" lon="-121.829739"><ele>894.75</ele></trkpt>
   <trkpt lat="37.088081" lon="-121.829872"><ele>893.75</ele></trkpt>
   <trkpt lat="37.088075" lon="-121.830015"><ele>894.5</ele></trkpt>
   <trkpt lat="37.088092" lon="-121.83043"><ele>893</ele></trkpt>
   <trkpt lat="37.088122" lon="-121.830509"><ele>893.75</ele></trkpt>
   <trkpt lat="37.088296" lon="-121.830729"><ele>900</ele></trkpt>
   <trkpt lat="37.088356" lon="-121.830833"><ele>901.25</ele></trkpt>
   <trkpt lat="37.088456" lon="-121.831188"><ele>897.5</ele></trkpt>
   <trkpt lat="37.088648" lon="-121.831671"><ele>895.75</ele></trkpt>
   <trkpt lat="37.088724" lon="-121.831766"><ele>896</ele></trkpt>
   <trkpt lat="37.089019" lon="-121.831973"><ele>900.25</ele></trkpt>
   <trkpt lat="37.089158" lon="-121.832049"><ele>902.75</ele></trkpt>
   <trkpt lat="37.089452" lon="-121.832028"><ele>899.25</ele></trkpt>
   <trkpt lat="37.089562" lon="-121.83206"><ele>897.75</ele></trkpt>
   <trkpt lat="37.089682" lon="-121.832167"><ele>896.75</ele></trkpt>
   <trkpt lat="37.08999" lon="-121.832569"><ele>901.75</ele></trkpt>
   <trkpt lat="37.090126" lon="-121.832792"><ele>898.5</ele></trkpt>
   <trkpt lat="37.090224" lon="-121.833001"><ele>897.75</ele></trkpt>
   <trkpt lat="37.090232" lon="-121.833015"><ele>897.75</ele></trkpt>
   <trkpt lat="37.09045" lon="-121.833388"><ele>899</ele></trkpt>
   <trkpt lat="37.090509" lon="-121.833462"><ele>898.5</ele></trkpt>
   <trkpt lat="37.090588" lon="-121.833524"><ele>898.5</ele></trkpt>
   <trkpt lat="37.090787" lon="-121.833616"><ele>898.75</ele></trkpt>
   <trkpt lat="37.090849" lon="-121.833647"><ele>898.75</ele></trkpt>
   <trkpt lat="37.090891" lon="-121.833688"><ele>897.75</ele></trkpt>
   <trkpt lat="37.090965" lon="-121.833822"><ele>896.75</ele></trkpt>
   <trkpt lat="37.091183" lon="-121.834129"><ele>895</ele></trkpt>
   <trkpt lat="37.091236" lon="-121.834238"><ele>895.5</ele></trkpt>
   <trkpt lat="37.091242" lon="-121.83436"><ele>897</ele></trkpt>
   <trkpt lat="37.091223" lon="-121.834457"><ele>898.5</ele></trkpt>
   <trkpt lat="37.091078" lon="-121.834838"><ele>903.5</ele></trkpt>
   <trkpt lat="37.091044" lon="-121.834965"><ele>904.75</ele></trkpt>
   <trkpt lat="37.091022" lon="-121.835103"><ele>904.75</ele></trkpt>
   <trkpt lat="37.091029" lon="-121.835199"><ele>904.5</ele></trkpt>
   <trkpt lat="37.09106" lon="-121.835316"><ele>904.25</ele></trkpt>
   <trkpt lat="37.091114" lon="-121.835385"><ele>904.5</ele></trkpt>
   <trkpt lat="37.091179" lon="-121.835435"><ele>904.75</ele></trkpt>
   <trkpt lat="37.091325" lon="-121.835503"><ele>906</ele></trkpt>
   <trkpt lat="37.091414" lon="-121.835567"><ele>907</ele></trkpt>
   <trkpt lat="37.091506" lon="-121.835668"><ele>908.25</ele></trkpt>
   <trkpt lat="37.091558" lon="-121.835775"><ele>909.25</ele></trkpt>
   <trkpt lat="37.09162" lon="-121.835982"><ele>911.25</ele></trkpt>
   <trkpt lat="37.091794" lon="-121.836627"><ele>916.75</ele></trkpt>
   <trkpt lat="37.09182" lon="-121.836788"><ele>918.5</ele></trkpt>
   <trkpt lat="37.091796" lon="-121.837191"><ele>923</ele></trkpt>
   <trkpt lat="37.091722" lon="-121.837439"><ele>925</ele></trkpt>
   <trkpt lat="37.09164" lon="-121.837652"><ele>922</ele></trkpt>
   <trkpt lat="37.09159" lon="-121.837851"><ele>918</ele></trkpt>
   <trkpt lat="37.091617" lon="-121.838055"><ele>917.25</ele></trkpt>
   <trkpt lat="37.091681" lon="-121.838272"><ele>916.75</ele></trkpt>
   <trkpt lat="37.091781" lon="-121.838458"><ele>914</ele></trkpt>
   <trkpt lat="37.091895" lon="-121.838627"><ele>910.5</ele></trkpt>
   <trkpt lat="37.091984" lon="-121.838728"><ele>908.5</ele></trkpt>
   <trkpt lat="37.092088" lon="-121.838803"><ele>907.25</ele></trkpt>
   <trkpt lat="37.092171" lon="-121.838833"><ele>907.25</ele></trkpt>
   <trkpt lat="37.092271" lon="-121.838847"><ele>907.5</ele></trkpt>
   <trkpt lat="37.092391" lon="-121.838853"><ele>908.5</ele></trkpt>
   <trkpt lat="37.09246" lon="-121.838852"><ele>909</ele></trkpt>
   <trkpt lat="37.092516" lon="-121.838842"><ele>909.5</ele></trkpt>
   <trkpt lat="37.092906" lon="-121.838661"><ele>908</ele></trkpt>
   <trkpt lat="37.093004" lon="-121.838603"><ele>907</ele></trkpt>
   <trkpt lat="37.093062" lon="-121.838601"><ele>904.75</ele></trkpt>
   <trkpt lat="37.093112" lon="-121.838598"><ele>904.75</ele></trkpt>
   <trkpt lat="37.093197" lon="-121.838638"><ele>902.5</ele></trkpt>
   <trkpt lat="37.093264" lon="-121.838727"><ele>900.25</ele></trkpt>
   <trkpt lat="37.093495" lon="-121.83919"><ele>889.75</ele></trkpt>
   <trkpt lat="37.093536" lon="-121.839369"><ele>889.5</ele></trkpt>
   <trkpt lat="37.093553" lon="-121.83956"><ele>890.75</ele></trkpt>
   <trkpt lat="37.093545" lon="-121.839752"><ele>892.75</ele></trkpt>
   <trkpt lat="37.093531" lon="-121.83984"><ele>893.5</ele></trkpt>
   <trkpt lat="37.093446" lon="-121.840167"><ele>894.25</ele></trkpt>
   <trkpt lat="37.093448" lon="-121.840232"><ele>894</ele></trkpt>
   <trkpt lat="37.093472" lon="-121.840291"><ele>894</ele></trkpt>
   <trkpt lat="37.093581" lon="-121.840355"><ele>895</ele></trkpt>
   <trkpt lat="37.09382" lon="-121.84041"><ele>898</ele></trkpt>
   <trkpt lat="37.093999" lon="-121.840484"><ele>901.25</ele></trkpt>
   <trkpt lat="37.094079" lon="-121.840529"><ele>903</ele></trkpt>
   <trkpt lat="37.094201" lon="-121.84062"><ele>904.75</ele></trkpt>
   <trkpt lat="37.094295" lon="-121.840728"><ele>903.5</ele></trkpt>
   <trkpt lat="37.094361" lon="-121.840807"><ele>902.75</ele></trkpt>
   <trkpt lat="37.094423" lon="-121.840914"><ele>901.25</ele></trkpt>
   <trkpt lat="37.094473" lon="-121.841028"><ele>900</ele></trkpt>
   <trkpt lat="37.09453" lon="-121.841219"><ele>899</ele></trkpt>
   <trkpt lat="37.094572" lon="-121.841426"><ele>899</ele></trkpt>
   <trkpt lat="37.094608" lon="-121.841653"><ele>899.5</ele></trkpt>
   <trkpt lat="37.094612" lon="-121.841765"><ele>900.5</ele></trkpt>
   <trkpt lat="37.094612" lon="-121.841808"><ele>900.75</ele></trkpt>
   <trkpt lat="37.094572" lon="-121.842108"><ele>903.25</ele></trkpt>
   <trkpt lat="37.094552" lon="-121.842391"><ele>905</ele></trkpt>
   <trkpt lat="37.094575" lon="-121.842904"><ele>909</ele></trkpt>
   <trkpt lat="37.094541" lon="-121.843284"><ele>910</ele></trkpt>
   <trkpt lat="37.094565" lon="-121.843561"><ele>909.75</ele></trkpt>
   <trkpt lat="37.09461" lon="-121.843804"><ele>909.5</ele></trkpt>
   <trkpt lat="37.09468" lon="-121.84403"><ele>910.25</ele></trkpt>
   <trkpt lat="37.09476" lon="-121.844193"><ele>911</ele></trkpt>
   <trkpt lat="37.094852" lon="-121.84428"><ele>911.25</ele></trkpt>
   <trkpt lat="37.094913" lon="-121.844314"><ele>912</ele></trkpt>
   <trkpt lat="37.094986" lon="-121.844346"><ele>913</ele></trkpt>
   <trkpt lat="37.095062" lon="-121.844357"><ele>913.75</ele></trkpt>
   <trkpt lat="37.095172" lon="-121.844347"><ele>915</ele></trkpt>
   <trkpt lat="37.095546" lon="-121.844237"><ele>922</ele></trkpt>
   <trkpt lat="37.095826" lon="-121.844059"><ele>926.75</ele></trkpt>
   <trkpt lat="37.095895" lon="-121.844049"><ele>927.75</ele></trkpt>
   <trkpt lat="37.095981" lon="-121.844056"><ele>929</ele></trkpt>
   <trkpt lat="37.096037" lon="-121.844075"><ele>929.75</ele></trkpt>
   <trkpt lat="37.096089" lon="-121.84412"><ele>930.75</ele></trkpt>
   <trkpt lat="37.096278" lon="-121.844479"><ele>929.25</ele></trkpt>
   <trkpt lat="37.096396" lon="-121.844519"><ele>931.75</ele></trkpt>
   <trkpt lat="37.096516" lon="-121.84454"><ele>934.5</ele></trkpt>
   <trkpt lat="37.096654" lon="-121.844615"><ele>937.75</ele></trkpt>
   <trkpt lat="37.0967" lon="-121.844699"><ele>937.5</ele></trkpt>
   <trkpt lat="37.096724" lon="-121.844806"><ele>936.75</ele></trkpt>
   <trkpt lat="37.096715" lon="-121.844883"><ele>936</ele></trkpt>
   <trkpt lat="37.09668" lon="-121.844969"><ele>935.25</ele></trkpt>
   <trkpt lat="37.096611" lon="-121.845073"><ele>932.25</ele></trkpt>
   <trkpt lat="37.096448" lon="-121.845284"><ele>924.75</ele></trkpt>
   <trkpt lat="37.096421" lon="-121.845362"><ele>923</ele></trkpt>
   <trkpt lat="37.096421" lon="-121.845443"><ele>922.5</ele></trkpt>
   <trkpt lat="37.096475" lon="-121.8456"><ele>923.5</ele></trkpt>
   <trkpt lat="37.096561" lon="-121.845775"><ele>925.75</ele></trkpt>
   <trkpt lat="37.096598" lon="-121.845874"><ele>926.5</ele></trkpt>
   <trkpt lat="37.09665" lon="-121.845973"><ele>927.25</ele></trkpt>
   <trkpt lat="37.096837" lon="-121.846159"><ele>925.5</ele></trkpt>
   <trkpt lat="37.097051" lon="-121.846344"><ele>923.5</ele></trkpt>
   <trkpt lat="37.097041" lon="-121.846415"><ele>921</ele></trkpt>
   <trkpt lat="37.09716314749869" lon="-121.84580326344563"/>
   <trkpt lat="37.09713016971038" lon="-121.84521211785982"/>
   <trkpt lat="37.09745550841192" lon="-121.84442871993224"/>
   <trkpt lat="37.09762673874628" lon="-121.84404238670767"/>
   <trkpt lat="37.09814042742762" lon="-121.84416043297075"/>
   <trkpt lat="37.09853425305797" lon="-121.84374190531081"/>
   <trkpt lat="37.09916779434167" lon="-121.84378483122465"/>
   <trkpt lat="37.09952489810288" lon="-121.84365748302172"/>
   <trkpt lat="37.10009241265281" lon="-121.84378483122465"/>
   <trkpt lat="37.10046910576655" lon="-121.8433877665216"/>
   <trkpt lat="37.10092284725757" lon="-121.8431516739955"/>
   <trkpt lat="37.101145436429356" lon="-121.84292631294787"/>
   <trkpt lat="37.101727589632695" lon="-121.84339849800007"/>
   <trkpt lat="37.101804638986145" lon="-121.84395653487998"/>
   <trkpt lat="37.102018664556745" lon="-121.8443321366261"/>
   <trkpt lat="37.10299461349316" lon="-121.84473993280754"/>
   <trkpt lat="37.10360243498543" lon="-121.84555552517051"/>
   <trkpt lat="37.1039191850976" lon="-121.84605990465812"/>
   <trkpt lat="37.10432154143834" lon="-121.84661794153803"/>
   <trkpt lat="37.105160490338385" lon="-121.84770182086247"/>
   <trkpt lat="37.105383067058355" lon="-121.84812034852241"/>
   <trkpt lat="37.10548426412999" lon="-121.84825715703661"/>
   <trkpt lat="37.105655476317686" lon="-121.84818740242665"/>
   <trkpt lat="37.10592299458618" lon="-121.8477849719844"/>
   <trkpt lat="37.10602786148964" lon="-121.84739327302061"/>
   <trkpt lat="37.10620996132075" lon="-121.84699685240268"/>
   <trkpt lat="37.10631249949571" lon="-121.846644752398"/>
   <trkpt lat="37.10633402354533" lon="-121.84606074031727"/>
   <trkpt lat="37.10635102185044" lon="-121.84550453281167"/>
   <trkpt lat="37.10649869069542" lon="-121.84488210706095"/>
   <trkpt lat="37.10659713643212" lon="-121.84466479462213"/>
   <trkpt lat="37.10674908503541" lon="-121.84454674835908"/>
   <trkpt lat="37.10706519602619" lon="-121.84444286754643"/>
   <trkpt lat="37.10720462728639" lon="-121.84440046218546"/>
   <trkpt lat="37.107260241387216" lon="-121.84434951738979"/>
   <trkpt lat="37.10739500444172" lon="-121.8439793712245"/>
   <trkpt lat="37.10760664194474" lon="-121.84373995570729"/>
   <trkpt lat="37.10813035069696" lon="-121.84340480509445"/>
   <trkpt lat="37.10851770418582" lon="-121.84328407596178"/>
   <trkpt lat="37.108900775577176" lon="-121.84264018725419"/>
   <trkpt lat="37.109136181616236" lon="-121.84234775446613"/>
   <trkpt lat="37.10933092605916" lon="-121.84215995359308"/>
   <trkpt lat="37.10946788888388" lon="-121.84225385402964"/>
   <trkpt lat="37.10947216896817" lon="-121.84248726368614"/>
   <trkpt lat="37.10941224776622" lon="-121.84281725664876"/>
   <trkpt lat="37.10931808578163" lon="-121.8431633468291"/>
   <trkpt lat="37.10925816445778" lon="-121.84352016848788"/>
   <trkpt lat="37.109009808006896" lon="-121.84398151834746"/>
   <trkpt lat="37.10872518013766" lon="-121.8442605367874"/>
   <trkpt lat="37.108464091978625" lon="-121.84441346035547"/>
   <trkpt lat="37.10824580446631" lon="-121.8444939464439"/>
   <trkpt lat="37.108113119592545" lon="-121.84458784688047"/>
   <trkpt lat="37.10804035682116" lon="-121.84484271949387"/>
   <trkpt lat="37.10802569126494" lon="-121.84505726913045"/>
   <trkpt lat="37.10791440686958" lon="-121.84533897044003"/>
   <trkpt lat="37.10794650815427" lon="-121.84555628287883"/>
   <trkpt lat="37.10813438743027" lon="-121.84574924998991"/>
   <trkpt lat="37.108273492494895" lon="-121.84575729859877"/>
  </trkseg>
 </trk>
</gpx>